{"type":"FeatureCollection","features":[{"type":"Feature","properties":{"jobs":5,"pop":0,"pointCount":1,"homeWorkCommuteMedian":-1,"workHomeCommuteMedian":0},"geometry":{"type":"Polygon","coordinates":[[[-119.32282893839492,46.128203441512035],[-119.32282893839492,46.13719664514928],[-119.31383573475767,46.13719664514928],[-119.31383573475767,46.128203441512035],[-119.32282893839492,46.128203441512035]]]}},{"type":"Feature","properties":{"jobs":5,"pop":115,"pointCount":1,"homeWorkCommuteMedian":0,"workHomeCommuteMedian":0},"geometry":{"type":"Polygon","coordinates":[[[-119.32282893839492,46.16417625606102],[-119.32282893839492,46.173169459698265],[-119.31383573475767,46.173169459698265],[-119.31383573475767,46.16417625606102],[-119.32282893839492,46.16417625606102]]]}},{"type":"Feature","properties":{"jobs":65,"pop":965,"pointCount":1,"homeWorkCommuteMedian":0,"workHomeCommuteMedian":0},"geometry":{"type":"Polygon","coordinates":[[[-119.32282893839492,46.19115586697276],[-119.32282893839492,46.20014907061],[-119.31383573475767,46.20014907061],[-119.31383573475767,46.19115586697276],[-119.32282893839492,46.19115586697276]]]}},{"type":"Feature","properties":{"jobs":55,"pop":260,"pointCount":1,"homeWorkCommuteMedian":0,"workHomeCommuteMedian":0},"geometry":{"type":"Polygon","coordinates":[[[-119.32282893839492,46.20914227424725],[-119.32282893839492,46.218135477884495],[-119.31383573475767,46.218135477884495],[-119.31383573475767,46.20914227424725],[-119.32282893839492,46.20914227424725]]]}},{"type":"Feature","properties":{"jobs":500,"pop":15,"pointCount":1,"homeWorkCommuteMedian":0,"workHomeCommuteMedian":0},"geometry":{"type":"Polygon","coordinates":[[[-119.32282893839492,46.25410829243348],[-119.32282893839492,46.263101496070725],[-119.31383573475767,46.263101496070725],[-119.31383573475767,46.25410829243348],[-119.32282893839492,46.25410829243348]]]}},{"type":"Feature","properties":{"jobs":15,"pop":50,"pointCount":1,"homeWorkCommuteMedian":0,"workHomeCommuteMedian":0},"geometry":{"type":"Polygon","coordinates":[[[-119.32282893839492,46.27209469970797],[-119.32282893839492,46.28108790334522],[-119.31383573475767,46.28108790334522],[-119.31383573475767,46.27209469970797],[-119.32282893839492,46.27209469970797]]]}},{"type":"Feature","properties":{"jobs":120,"pop":175,"pointCount":1,"homeWorkCommuteMedian":0,"workHomeCommuteMedian":0},"geometry":{"type":"Polygon","coordinates":[[[-119.31383573475767,46.15518305242377],[-119.31383573475767,46.16417625606102],[-119.30484253112043,46.16417625606102],[-119.30484253112043,46.15518305242377],[-119.31383573475767,46.15518305242377]]]}},{"type":"Feature","properties":{"jobs":180,"pop":2615,"pointCount":1,"homeWorkCommuteMedian":0,"workHomeCommuteMedian":0},"geometry":{"type":"Polygon","coordinates":[[[-119.31383573475767,46.20014907061],[-119.31383573475767,46.20914227424725],[-119.30484253112043,46.20914227424725],[-119.30484253112043,46.20014907061],[-119.31383573475767,46.20014907061]]]}},{"type":"Feature","properties":{"jobs":70,"pop":170,"pointCount":1,"homeWorkCommuteMedian":0,"workHomeCommuteMedian":0},"geometry":{"type":"Polygon","coordinates":[[[-119.31383573475767,46.23612188515899],[-119.31383573475767,46.24511508879623],[-119.30484253112043,46.24511508879623],[-119.30484253112043,46.23612188515899],[-119.31383573475767,46.23612188515899]]]}},{"type":"Feature","properties":{"jobs":1350,"pop":885,"pointCount":1,"homeWorkCommuteMedian":0,"workHomeCommuteMedian":0},"geometry":{"type":"Polygon","coordinates":[[[-119.31383573475767,46.24511508879623],[-119.31383573475767,46.25410829243348],[-119.30484253112043,46.25410829243348],[-119.30484253112043,46.24511508879623],[-119.31383573475767,46.24511508879623]]]}},{"type":"Feature","properties":{"jobs":4155,"pop":2230,"pointCount":2,"homeWorkCommuteMedian":0,"workHomeCommuteMedian":0},"geometry":{"type":"Polygon","coordinates":[[[-119.31383573475767,46.25410829243348],[-119.31383573475767,46.263101496070725],[-119.30484253112043,46.263101496070725],[-119.30484253112043,46.25410829243348],[-119.31383573475767,46.25410829243348]]]}},{"type":"Feature","properties":{"jobs":2775,"pop":155,"pointCount":1,"homeWorkCommuteMedian":0,"workHomeCommuteMedian":0},"geometry":{"type":"Polygon","coordinates":[[[-119.31383573475767,46.29907431061971],[-119.31383573475767,46.308067514256955],[-119.30484253112043,46.308067514256955],[-119.30484253112043,46.29907431061971],[-119.31383573475767,46.29907431061971]]]}},{"type":"Feature","properties":{"jobs":415,"pop":0,"pointCount":1,"homeWorkCommuteMedian":-1,"workHomeCommuteMedian":0},"geometry":{"type":"Polygon","coordinates":[[[-119.31383573475767,46.3170607178942],[-119.31383573475767,46.32605392153145],[-119.30484253112043,46.32605392153145],[-119.30484253112043,46.3170607178942],[-119.31383573475767,46.3170607178942]]]}},{"type":"Feature","properties":{"jobs":100,"pop":565,"pointCount":1,"homeWorkCommuteMedian":0,"workHomeCommuteMedian":0},"geometry":{"type":"Polygon","coordinates":[[[-119.30484253112043,46.218135477884495],[-119.30484253112043,46.22712868152174],[-119.29584932748318,46.22712868152174],[-119.29584932748318,46.218135477884495],[-119.30484253112043,46.218135477884495]]]}},{"type":"Feature","properties":{"jobs":45,"pop":2190,"pointCount":1,"homeWorkCommuteMedian":0,"workHomeCommuteMedian":0},"geometry":{"type":"Polygon","coordinates":[[[-119.30484253112043,46.24511508879623],[-119.30484253112043,46.25410829243348],[-119.29584932748318,46.25410829243348],[-119.29584932748318,46.24511508879623],[-119.30484253112043,46.24511508879623]]]}},{"type":"Feature","properties":{"jobs":345,"pop":235,"pointCount":1,"homeWorkCommuteMedian":0,"workHomeCommuteMedian":0},"geometry":{"type":"Polygon","coordinates":[[[-119.30484253112043,46.25410829243348],[-119.30484253112043,46.263101496070725],[-119.29584932748318,46.263101496070725],[-119.29584932748318,46.25410829243348],[-119.30484253112043,46.25410829243348]]]}},{"type":"Feature","properties":{"jobs":745,"pop":3585,"pointCount":1,"homeWorkCommuteMedian":0,"workHomeCommuteMedian":0},"geometry":{"type":"Polygon","coordinates":[[[-119.30484253112043,46.263101496070725],[-119.30484253112043,46.27209469970797],[-119.29584932748318,46.27209469970797],[-119.29584932748318,46.263101496070725],[-119.30484253112043,46.263101496070725]]]}},{"type":"Feature","properties":{"jobs":390,"pop":5890,"pointCount":2,"homeWorkCommuteMedian":0,"workHomeCommuteMedian":0},"geometry":{"type":"Polygon","coordinates":[[[-119.30484253112043,46.28108790334522],[-119.30484253112043,46.29008110698246],[-119.29584932748318,46.29008110698246],[-119.29584932748318,46.28108790334522],[-119.30484253112043,46.28108790334522]]]}},{"type":"Feature","properties":{"jobs":1840,"pop":905,"pointCount":2,"homeWorkCommuteMedian":0,"workHomeCommuteMedian":0},"geometry":{"type":"Polygon","coordinates":[[[-119.30484253112043,46.29008110698246],[-119.30484253112043,46.29907431061971],[-119.29584932748318,46.29907431061971],[-119.29584932748318,46.29008110698246],[-119.30484253112043,46.29008110698246]]]}},{"type":"Feature","properties":{"jobs":1225,"pop":1550,"pointCount":1,"homeWorkCommuteMedian":0,"workHomeCommuteMedian":0},"geometry":{"type":"Polygon","coordinates":[[[-119.30484253112043,46.29907431061971],[-119.30484253112043,46.308067514256955],[-119.29584932748318,46.308067514256955],[-119.29584932748318,46.29907431061971],[-119.30484253112043,46.29907431061971]]]}},{"type":"Feature","properties":{"jobs":1235,"pop":55,"pointCount":1,"homeWorkCommuteMedian":0,"workHomeCommuteMedian":0},"geometry":{"type":"Polygon","coordinates":[[[-119.30484253112043,46.308067514256955],[-119.30484253112043,46.3170607178942],[-119.29584932748318,46.3170607178942],[-119.29584932748318,46.308067514256955],[-119.30484253112043,46.308067514256955]]]}},{"type":"Feature","properties":{"jobs":130,"pop":1680,"pointCount":1,"homeWorkCommuteMedian":0,"workHomeCommuteMedian":0},"geometry":{"type":"Polygon","coordinates":[[[-119.29584932748318,46.173169459698265],[-119.29584932748318,46.18216266333551],[-119.28685612384594,46.18216266333551],[-119.28685612384594,46.173169459698265],[-119.29584932748318,46.173169459698265]]]}},{"type":"Feature","properties":{"jobs":285,"pop":1220,"pointCount":1,"homeWorkCommuteMedian":0,"workHomeCommuteMedian":0},"geometry":{"type":"Polygon","coordinates":[[[-119.29584932748318,46.18216266333551],[-119.29584932748318,46.19115586697276],[-119.28685612384594,46.19115586697276],[-119.28685612384594,46.18216266333551],[-119.29584932748318,46.18216266333551]]]}},{"type":"Feature","properties":{"jobs":200,"pop":1065,"pointCount":1,"homeWorkCommuteMedian":0,"workHomeCommuteMedian":0},"geometry":{"type":"Polygon","coordinates":[[[-119.29584932748318,46.20014907061],[-119.29584932748318,46.20914227424725],[-119.28685612384594,46.20914227424725],[-119.28685612384594,46.20014907061],[-119.29584932748318,46.20014907061]]]}},{"type":"Feature","properties":{"jobs":275,"pop":1085,"pointCount":1,"homeWorkCommuteMedian":0,"workHomeCommuteMedian":0},"geometry":{"type":"Polygon","coordinates":[[[-119.29584932748318,46.22712868152174],[-119.29584932748318,46.23612188515899],[-119.28685612384594,46.23612188515899],[-119.28685612384594,46.22712868152174],[-119.29584932748318,46.22712868152174]]]}},{"type":"Feature","properties":{"jobs":19220,"pop":4005,"pointCount":1,"homeWorkCommuteMedian":0,"workHomeCommuteMedian":0},"geometry":{"type":"Polygon","coordinates":[[[-119.29584932748318,46.24511508879623],[-119.29584932748318,46.25410829243348],[-119.28685612384594,46.25410829243348],[-119.28685612384594,46.24511508879623],[-119.29584932748318,46.24511508879623]]]}},{"type":"Feature","properties":{"jobs":940,"pop":735,"pointCount":1,"homeWorkCommuteMedian":0,"workHomeCommuteMedian":0},"geometry":{"type":"Polygon","coordinates":[[[-119.29584932748318,46.25410829243348],[-119.29584932748318,46.263101496070725],[-119.28685612384594,46.263101496070725],[-119.28685612384594,46.25410829243348],[-119.29584932748318,46.25410829243348]]]}},{"type":"Feature","properties":{"jobs":520,"pop":1125,"pointCount":1,"homeWorkCommuteMedian":0,"workHomeCommuteMedian":0},"geometry":{"type":"Polygon","coordinates":[[[-119.29584932748318,46.27209469970797],[-119.29584932748318,46.28108790334522],[-119.28685612384594,46.28108790334522],[-119.28685612384594,46.27209469970797],[-119.29584932748318,46.27209469970797]]]}},{"type":"Feature","properties":{"jobs":120,"pop":3830,"pointCount":1,"homeWorkCommuteMedian":0,"workHomeCommuteMedian":0},"geometry":{"type":"Polygon","coordinates":[[[-119.29584932748318,46.29008110698246],[-119.29584932748318,46.29907431061971],[-119.28685612384594,46.29907431061971],[-119.28685612384594,46.29008110698246],[-119.29584932748318,46.29008110698246]]]}},{"type":"Feature","properties":{"jobs":45,"pop":5,"pointCount":1,"homeWorkCommuteMedian":0,"workHomeCommuteMedian":0},"geometry":{"type":"Polygon","coordinates":[[[-119.28685612384594,46.128203441512035],[-119.28685612384594,46.13719664514928],[-119.27786292020869,46.13719664514928],[-119.27786292020869,46.128203441512035],[-119.28685612384594,46.128203441512035]]]}},{"type":"Feature","properties":{"jobs":5,"pop":0,"pointCount":1,"homeWorkCommuteMedian":-1,"workHomeCommuteMedian":0},"geometry":{"type":"Polygon","coordinates":[[[-119.28685612384594,46.15518305242377],[-119.28685612384594,46.16417625606102],[-119.27786292020869,46.16417625606102],[-119.27786292020869,46.15518305242377],[-119.28685612384594,46.15518305242377]]]}},{"type":"Feature","properties":{"jobs":285,"pop":700,"pointCount":1,"homeWorkCommuteMedian":0,"workHomeCommuteMedian":0},"geometry":{"type":"Polygon","coordinates":[[[-119.28685612384594,46.218135477884495],[-119.28685612384594,46.22712868152174],[-119.27786292020869,46.22712868152174],[-119.27786292020869,46.218135477884495],[-119.28685612384594,46.218135477884495]]]}},{"type":"Feature","properties":{"jobs":640,"pop":40,"pointCount":1,"homeWorkCommuteMedian":0,"workHomeCommuteMedian":0},"geometry":{"type":"Polygon","coordinates":[[[-119.28685612384594,46.22712868152174],[-119.28685612384594,46.23612188515899],[-119.27786292020869,46.23612188515899],[-119.27786292020869,46.22712868152174],[-119.28685612384594,46.22712868152174]]]}},{"type":"Feature","properties":{"jobs":405,"pop":1080,"pointCount":1,"homeWorkCommuteMedian":0,"workHomeCommuteMedian":0},"geometry":{"type":"Polygon","coordinates":[[[-119.28685612384594,46.23612188515899],[-119.28685612384594,46.24511508879623],[-119.27786292020869,46.24511508879623],[-119.27786292020869,46.23612188515899],[-119.28685612384594,46.23612188515899]]]}},{"type":"Feature","properties":{"jobs":1135,"pop":340,"pointCount":2,"homeWorkCommuteMedian":0,"workHomeCommuteMedian":0},"geometry":{"type":"Polygon","coordinates":[[[-119.28685612384594,46.25410829243348],[-119.28685612384594,46.263101496070725],[-119.27786292020869,46.263101496070725],[-119.27786292020869,46.25410829243348],[-119.28685612384594,46.25410829243348]]]}},{"type":"Feature","properties":{"jobs":880,"pop":1330,"pointCount":1,"homeWorkCommuteMedian":0,"workHomeCommuteMedian":0},"geometry":{"type":"Polygon","coordinates":[[[-119.28685612384594,46.263101496070725],[-119.28685612384594,46.27209469970797],[-119.27786292020869,46.27209469970797],[-119.27786292020869,46.263101496070725],[-119.28685612384594,46.263101496070725]]]}},{"type":"Feature","properties":{"jobs":4010,"pop":570,"pointCount":2,"homeWorkCommuteMedian":0,"workHomeCommuteMedian":0},"geometry":{"type":"Polygon","coordinates":[[[-119.28685612384594,46.27209469970797],[-119.28685612384594,46.28108790334522],[-119.27786292020869,46.28108790334522],[-119.27786292020869,46.27209469970797],[-119.28685612384594,46.27209469970797]]]}},{"type":"Feature","properties":{"jobs":16005,"pop":805,"pointCount":1,"homeWorkCommuteMedian":0,"workHomeCommuteMedian":0},"geometry":{"type":"Polygon","coordinates":[[[-119.28685612384594,46.28108790334522],[-119.28685612384594,46.29008110698246],[-119.27786292020869,46.29008110698246],[-119.27786292020869,46.28108790334522],[-119.28685612384594,46.28108790334522]]]}},{"type":"Feature","properties":{"jobs":90,"pop":4220,"pointCount":1,"homeWorkCommuteMedian":0,"workHomeCommuteMedian":0},"geometry":{"type":"Polygon","coordinates":[[[-119.28685612384594,46.29008110698246],[-119.28685612384594,46.29907431061971],[-119.27786292020869,46.29907431061971],[-119.27786292020869,46.29008110698246],[-119.28685612384594,46.29008110698246]]]}},{"type":"Feature","properties":{"jobs":1490,"pop":7060,"pointCount":2,"homeWorkCommuteMedian":0,"workHomeCommuteMedian":0},"geometry":{"type":"Polygon","coordinates":[[[-119.28685612384594,46.29907431061971],[-119.28685612384594,46.308067514256955],[-119.27786292020869,46.308067514256955],[-119.27786292020869,46.29907431061971],[-119.28685612384594,46.29907431061971]]]}},{"type":"Feature","properties":{"jobs":18715,"pop":100,"pointCount":4,"homeWorkCommuteMedian":0,"workHomeCommuteMedian":0},"geometry":{"type":"Polygon","coordinates":[[[-119.28685612384594,46.3170607178942],[-119.28685612384594,46.32605392153145],[-119.27786292020869,46.32605392153145],[-119.27786292020869,46.3170607178942],[-119.28685612384594,46.3170607178942]]]}},{"type":"Feature","properties":{"jobs":795,"pop":1265,"pointCount":1,"homeWorkCommuteMedian":0,"workHomeCommuteMedian":0},"geometry":{"type":"Polygon","coordinates":[[[-119.27786292020869,46.19115586697276],[-119.27786292020869,46.20014907061],[-119.26886971657144,46.20014907061],[-119.26886971657144,46.19115586697276],[-119.27786292020869,46.19115586697276]]]}},{"type":"Feature","properties":{"jobs":255,"pop":1415,"pointCount":1,"homeWorkCommuteMedian":0,"workHomeCommuteMedian":0},"geometry":{"type":"Polygon","coordinates":[[[-119.27786292020869,46.22712868152174],[-119.27786292020869,46.23612188515899],[-119.26886971657144,46.23612188515899],[-119.26886971657144,46.22712868152174],[-119.27786292020869,46.22712868152174]]]}},{"type":"Feature","properties":{"jobs":370,"pop":1130,"pointCount":1,"homeWorkCommuteMedian":0,"workHomeCommuteMedian":0},"geometry":{"type":"Polygon","coordinates":[[[-119.27786292020869,46.25410829243348],[-119.27786292020869,46.263101496070725],[-119.26886971657144,46.263101496070725],[-119.26886971657144,46.25410829243348],[-119.27786292020869,46.25410829243348]]]}},{"type":"Feature","properties":{"jobs":1400,"pop":630,"pointCount":1,"homeWorkCommuteMedian":0,"workHomeCommuteMedian":0},"geometry":{"type":"Polygon","coordinates":[[[-119.27786292020869,46.263101496070725],[-119.27786292020869,46.27209469970797],[-119.26886971657144,46.27209469970797],[-119.26886971657144,46.263101496070725],[-119.27786292020869,46.263101496070725]]]}},{"type":"Feature","properties":{"jobs":7605,"pop":490,"pointCount":3,"homeWorkCommuteMedian":0,"workHomeCommuteMedian":0},"geometry":{"type":"Polygon","coordinates":[[[-119.27786292020869,46.27209469970797],[-119.27786292020869,46.28108790334522],[-119.26886971657144,46.28108790334522],[-119.26886971657144,46.27209469970797],[-119.27786292020869,46.27209469970797]]]}},{"type":"Feature","properties":{"jobs":3840,"pop":600,"pointCount":2,"homeWorkCommuteMedian":0,"workHomeCommuteMedian":0},"geometry":{"type":"Polygon","coordinates":[[[-119.27786292020869,46.28108790334522],[-119.27786292020869,46.29008110698246],[-119.26886971657144,46.29008110698246],[-119.26886971657144,46.28108790334522],[-119.27786292020869,46.28108790334522]]]}},{"type":"Feature","properties":{"jobs":1685,"pop":810,"pointCount":2,"homeWorkCommuteMedian":0,"workHomeCommuteMedian":0},"geometry":{"type":"Polygon","coordinates":[[[-119.27786292020869,46.29008110698246],[-119.27786292020869,46.29907431061971],[-119.26886971657144,46.29907431061971],[-119.26886971657144,46.29008110698246],[-119.27786292020869,46.29008110698246]]]}},{"type":"Feature","properties":{"jobs":1360,"pop":2075,"pointCount":2,"homeWorkCommuteMedian":0,"workHomeCommuteMedian":0},"geometry":{"type":"Polygon","coordinates":[[[-119.27786292020869,46.29907431061971],[-119.27786292020869,46.308067514256955],[-119.26886971657144,46.308067514256955],[-119.26886971657144,46.29907431061971],[-119.27786292020869,46.29907431061971]]]}},{"type":"Feature","properties":{"jobs":155,"pop":6105,"pointCount":2,"homeWorkCommuteMedian":0,"workHomeCommuteMedian":0},"geometry":{"type":"Polygon","coordinates":[[[-119.27786292020869,46.308067514256955],[-119.27786292020869,46.3170607178942],[-119.26886971657144,46.3170607178942],[-119.26886971657144,46.308067514256955],[-119.27786292020869,46.308067514256955]]]}},{"type":"Feature","properties":{"jobs":6270,"pop":315,"pointCount":1,"homeWorkCommuteMedian":0,"workHomeCommuteMedian":0},"geometry":{"type":"Polygon","coordinates":[[[-119.27786292020869,46.3170607178942],[-119.27786292020869,46.32605392153145],[-119.26886971657144,46.32605392153145],[-119.26886971657144,46.3170607178942],[-119.27786292020869,46.3170607178942]]]}},{"type":"Feature","properties":{"jobs":15,"pop":0,"pointCount":1,"homeWorkCommuteMedian":-1,"workHomeCommuteMedian":0},"geometry":{"type":"Polygon","coordinates":[[[-119.26886971657144,46.13719664514928],[-119.26886971657144,46.14618984878653],[-119.2598765129342,46.14618984878653],[-119.2598765129342,46.13719664514928],[-119.26886971657144,46.13719664514928]]]}},{"type":"Feature","properties":{"jobs":30,"pop":15,"pointCount":1,"homeWorkCommuteMedian":0,"workHomeCommuteMedian":0},"geometry":{"type":"Polygon","coordinates":[[[-119.26886971657144,46.173169459698265],[-119.26886971657144,46.18216266333551],[-119.2598765129342,46.18216266333551],[-119.2598765129342,46.173169459698265],[-119.26886971657144,46.173169459698265]]]}},{"type":"Feature","properties":{"jobs":285,"pop":975,"pointCount":1,"homeWorkCommuteMedian":0,"workHomeCommuteMedian":0},"geometry":{"type":"Polygon","coordinates":[[[-119.26886971657144,46.19115586697276],[-119.26886971657144,46.20014907061],[-119.2598765129342,46.20014907061],[-119.2598765129342,46.19115586697276],[-119.26886971657144,46.19115586697276]]]}},{"type":"Feature","properties":{"jobs":115,"pop":2595,"pointCount":2,"homeWorkCommuteMedian":0,"workHomeCommuteMedian":0},"geometry":{"type":"Polygon","coordinates":[[[-119.26886971657144,46.20014907061],[-119.26886971657144,46.20914227424725],[-119.2598765129342,46.20914227424725],[-119.2598765129342,46.20014907061],[-119.26886971657144,46.20014907061]]]}},{"type":"Feature","properties":{"jobs":90,"pop":2185,"pointCount":1,"homeWorkCommuteMedian":0,"workHomeCommuteMedian":0},"geometry":{"type":"Polygon","coordinates":[[[-119.26886971657144,46.20914227424725],[-119.26886971657144,46.218135477884495],[-119.2598765129342,46.218135477884495],[-119.2598765129342,46.20914227424725],[-119.26886971657144,46.20914227424725]]]}},{"type":"Feature","properties":{"jobs":870,"pop":3595,"pointCount":2,"homeWorkCommuteMedian":0,"workHomeCommuteMedian":0},"geometry":{"type":"Polygon","coordinates":[[[-119.26886971657144,46.218135477884495],[-119.26886971657144,46.22712868152174],[-119.2598765129342,46.22712868152174],[-119.2598765129342,46.218135477884495],[-119.26886971657144,46.218135477884495]]]}},{"type":"Feature","properties":{"jobs":1180,"pop":3010,"pointCount":2,"homeWorkCommuteMedian":0,"workHomeCommuteMedian":0},"geometry":{"type":"Polygon","coordinates":[[[-119.26886971657144,46.22712868152174],[-119.26886971657144,46.23612188515899],[-119.2598765129342,46.23612188515899],[-119.2598765129342,46.22712868152174],[-119.26886971657144,46.22712868152174]]]}},{"type":"Feature","properties":{"jobs":885,"pop":1010,"pointCount":1,"homeWorkCommuteMedian":0,"workHomeCommuteMedian":0},"geometry":{"type":"Polygon","coordinates":[[[-119.26886971657144,46.23612188515899],[-119.26886971657144,46.24511508879623],[-119.2598765129342,46.24511508879623],[-119.2598765129342,46.23612188515899],[-119.26886971657144,46.23612188515899]]]}},{"type":"Feature","properties":{"jobs":2425,"pop":3145,"pointCount":2,"homeWorkCommuteMedian":0,"workHomeCommuteMedian":0},"geometry":{"type":"Polygon","coordinates":[[[-119.26886971657144,46.25410829243348],[-119.26886971657144,46.263101496070725],[-119.2598765129342,46.263101496070725],[-119.2598765129342,46.25410829243348],[-119.26886971657144,46.25410829243348]]]}},{"type":"Feature","properties":{"jobs":345,"pop":375,"pointCount":1,"homeWorkCommuteMedian":0,"workHomeCommuteMedian":0},"geometry":{"type":"Polygon","coordinates":[[[-119.26886971657144,46.263101496070725],[-119.26886971657144,46.27209469970797],[-119.2598765129342,46.27209469970797],[-119.2598765129342,46.263101496070725],[-119.26886971657144,46.263101496070725]]]}},{"type":"Feature","properties":{"jobs":3000,"pop":0,"pointCount":1,"homeWorkCommuteMedian":-1,"workHomeCommuteMedian":0},"geometry":{"type":"Polygon","coordinates":[[[-119.26886971657144,46.28108790334522],[-119.26886971657144,46.29008110698246],[-119.2598765129342,46.29008110698246],[-119.2598765129342,46.28108790334522],[-119.26886971657144,46.28108790334522]]]}},{"type":"Feature","properties":{"jobs":950,"pop":605,"pointCount":1,"homeWorkCommuteMedian":0,"workHomeCommuteMedian":0},"geometry":{"type":"Polygon","coordinates":[[[-119.2598765129342,46.20014907061],[-119.2598765129342,46.20914227424725],[-119.25088330929695,46.20914227424725],[-119.25088330929695,46.20014907061],[-119.2598765129342,46.20014907061]]]}},{"type":"Feature","properties":{"jobs":470,"pop":1270,"pointCount":1,"homeWorkCommuteMedian":0,"workHomeCommuteMedian":0},"geometry":{"type":"Polygon","coordinates":[[[-119.2598765129342,46.22712868152174],[-119.2598765129342,46.23612188515899],[-119.25088330929695,46.23612188515899],[-119.25088330929695,46.22712868152174],[-119.2598765129342,46.22712868152174]]]}},{"type":"Feature","properties":{"jobs":15,"pop":5,"pointCount":1,"homeWorkCommuteMedian":0,"workHomeCommuteMedian":0},"geometry":{"type":"Polygon","coordinates":[[[-119.25088330929695,46.15518305242377],[-119.25088330929695,46.16417625606102],[-119.2418901056597,46.16417625606102],[-119.2418901056597,46.15518305242377],[-119.25088330929695,46.15518305242377]]]}},{"type":"Feature","properties":{"jobs":2005,"pop":3415,"pointCount":1,"homeWorkCommuteMedian":0,"workHomeCommuteMedian":0},"geometry":{"type":"Polygon","coordinates":[[[-119.25088330929695,46.218135477884495],[-119.25088330929695,46.22712868152174],[-119.2418901056597,46.22712868152174],[-119.2418901056597,46.218135477884495],[-119.25088330929695,46.218135477884495]]]}},{"type":"Feature","properties":{"jobs":280,"pop":2060,"pointCount":1,"homeWorkCommuteMedian":0,"workHomeCommuteMedian":0},"geometry":{"type":"Polygon","coordinates":[[[-119.25088330929695,46.22712868152174],[-119.25088330929695,46.23612188515899],[-119.2418901056597,46.23612188515899],[-119.2418901056597,46.22712868152174],[-119.25088330929695,46.22712868152174]]]}},{"type":"Feature","properties":{"jobs":235,"pop":995,"pointCount":1,"homeWorkCommuteMedian":0,"workHomeCommuteMedian":0},"geometry":{"type":"Polygon","coordinates":[[[-119.25088330929695,46.29008110698246],[-119.25088330929695,46.29907431061971],[-119.2418901056597,46.29907431061971],[-119.2418901056597,46.29008110698246],[-119.25088330929695,46.29008110698246]]]}},{"type":"Feature","properties":{"jobs":85,"pop":40,"pointCount":1,"homeWorkCommuteMedian":0,"workHomeCommuteMedian":0},"geometry":{"type":"Polygon","coordinates":[[[-119.25088330929695,46.308067514256955],[-119.25088330929695,46.3170607178942],[-119.2418901056597,46.3170607178942],[-119.2418901056597,46.308067514256955],[-119.25088330929695,46.308067514256955]]]}},{"type":"Feature","properties":{"jobs":380,"pop":720,"pointCount":1,"homeWorkCommuteMedian":0,"workHomeCommuteMedian":0},"geometry":{"type":"Polygon","coordinates":[[[-119.2418901056597,46.20014907061],[-119.2418901056597,46.20914227424725],[-119.23289690202246,46.20914227424725],[-119.23289690202246,46.20014907061],[-119.2418901056597,46.20014907061]]]}},{"type":"Feature","properties":{"jobs":990,"pop":3395,"pointCount":2,"homeWorkCommuteMedian":0,"workHomeCommuteMedian":0},"geometry":{"type":"Polygon","coordinates":[[[-119.2418901056597,46.20914227424725],[-119.2418901056597,46.218135477884495],[-119.23289690202246,46.218135477884495],[-119.23289690202246,46.20914227424725],[-119.2418901056597,46.20914227424725]]]}},{"type":"Feature","properties":{"jobs":5700,"pop":9180,"pointCount":4,"homeWorkCommuteMedian":0,"workHomeCommuteMedian":0},"geometry":{"type":"Polygon","coordinates":[[[-119.2418901056597,46.218135477884495],[-119.2418901056597,46.22712868152174],[-119.23289690202246,46.22712868152174],[-119.23289690202246,46.218135477884495],[-119.2418901056597,46.218135477884495]]]}},{"type":"Feature","properties":{"jobs":3605,"pop":210,"pointCount":2,"homeWorkCommuteMedian":0,"workHomeCommuteMedian":0},"geometry":{"type":"Polygon","coordinates":[[[-119.2418901056597,46.22712868152174],[-119.2418901056597,46.23612188515899],[-119.23289690202246,46.23612188515899],[-119.23289690202246,46.22712868152174],[-119.2418901056597,46.22712868152174]]]}},{"type":"Feature","properties":{"jobs":800,"pop":115,"pointCount":1,"homeWorkCommuteMedian":0,"workHomeCommuteMedian":0},"geometry":{"type":"Polygon","coordinates":[[[-119.2418901056597,46.23612188515899],[-119.2418901056597,46.24511508879623],[-119.23289690202246,46.24511508879623],[-119.23289690202246,46.23612188515899],[-119.2418901056597,46.23612188515899]]]}},{"type":"Feature","properties":{"jobs":745,"pop":220,"pointCount":1,"homeWorkCommuteMedian":0,"workHomeCommuteMedian":0},"geometry":{"type":"Polygon","coordinates":[[[-119.2418901056597,46.27209469970797],[-119.2418901056597,46.28108790334522],[-119.23289690202246,46.28108790334522],[-119.23289690202246,46.27209469970797],[-119.2418901056597,46.27209469970797]]]}},{"type":"Feature","properties":{"jobs":310,"pop":1260,"pointCount":1,"homeWorkCommuteMedian":0,"workHomeCommuteMedian":0},"geometry":{"type":"Polygon","coordinates":[[[-119.23289690202246,46.20014907061],[-119.23289690202246,46.20914227424725],[-119.22390369838521,46.20914227424725],[-119.22390369838521,46.20014907061],[-119.23289690202246,46.20014907061]]]}},{"type":"Feature","properties":{"jobs":3070,"pop":1640,"pointCount":2,"homeWorkCommuteMedian":0,"workHomeCommuteMedian":0},"geometry":{"type":"Polygon","coordinates":[[[-119.23289690202246,46.20914227424725],[-119.23289690202246,46.218135477884495],[-119.22390369838521,46.218135477884495],[-119.22390369838521,46.20914227424725],[-119.23289690202246,46.20914227424725]]]}},{"type":"Feature","properties":{"jobs":4425,"pop":2010,"pointCount":3,"homeWorkCommuteMedian":0,"workHomeCommuteMedian":0},"geometry":{"type":"Polygon","coordinates":[[[-119.23289690202246,46.218135477884495],[-119.23289690202246,46.22712868152174],[-119.22390369838521,46.22712868152174],[-119.22390369838521,46.218135477884495],[-119.23289690202246,46.218135477884495]]]}},{"type":"Feature","properties":{"jobs":2615,"pop":820,"pointCount":1,"homeWorkCommuteMedian":0,"workHomeCommuteMedian":0},"geometry":{"type":"Polygon","coordinates":[[[-119.23289690202246,46.23612188515899],[-119.23289690202246,46.24511508879623],[-119.22390369838521,46.24511508879623],[-119.22390369838521,46.23612188515899],[-119.23289690202246,46.23612188515899]]]}},{"type":"Feature","properties":{"jobs":95,"pop":20,"pointCount":1,"homeWorkCommuteMedian":0,"workHomeCommuteMedian":0},"geometry":{"type":"Polygon","coordinates":[[[-119.23289690202246,46.29907431061971],[-119.23289690202246,46.308067514256955],[-119.22390369838521,46.308067514256955],[-119.22390369838521,46.29907431061971],[-119.23289690202246,46.29907431061971]]]}},{"type":"Feature","properties":{"jobs":1320,"pop":175,"pointCount":1,"homeWorkCommuteMedian":0,"workHomeCommuteMedian":0},"geometry":{"type":"Polygon","coordinates":[[[-119.22390369838521,46.173169459698265],[-119.22390369838521,46.18216266333551],[-119.21491049474797,46.18216266333551],[-119.21491049474797,46.173169459698265],[-119.22390369838521,46.173169459698265]]]}},{"type":"Feature","properties":{"jobs":190,"pop":2400,"pointCount":2,"homeWorkCommuteMedian":0,"workHomeCommuteMedian":0},"geometry":{"type":"Polygon","coordinates":[[[-119.22390369838521,46.20014907061],[-119.22390369838521,46.20914227424725],[-119.21491049474797,46.20914227424725],[-119.21491049474797,46.20014907061],[-119.22390369838521,46.20014907061]]]}},{"type":"Feature","properties":{"jobs":7135,"pop":385,"pointCount":3,"homeWorkCommuteMedian":0,"workHomeCommuteMedian":0},"geometry":{"type":"Polygon","coordinates":[[[-119.22390369838521,46.20914227424725],[-119.22390369838521,46.218135477884495],[-119.21491049474797,46.218135477884495],[-119.21491049474797,46.20914227424725],[-119.22390369838521,46.20914227424725]]]}},{"type":"Feature","properties":{"jobs":7605,"pop":640,"pointCount":6,"homeWorkCommuteMedian":0,"workHomeCommuteMedian":0},"geometry":{"type":"Polygon","coordinates":[[[-119.22390369838521,46.218135477884495],[-119.22390369838521,46.22712868152174],[-119.21491049474797,46.22712868152174],[-119.21491049474797,46.218135477884495],[-119.22390369838521,46.218135477884495]]]}},{"type":"Feature","properties":{"jobs":3290,"pop":940,"pointCount":1,"homeWorkCommuteMedian":0,"workHomeCommuteMedian":0},"geometry":{"type":"Polygon","coordinates":[[[-119.22390369838521,46.22712868152174],[-119.22390369838521,46.23612188515899],[-119.21491049474797,46.23612188515899],[-119.21491049474797,46.22712868152174],[-119.22390369838521,46.22712868152174]]]}},{"type":"Feature","properties":{"jobs":380,"pop":1790,"pointCount":1,"homeWorkCommuteMedian":0,"workHomeCommuteMedian":0},"geometry":{"type":"Polygon","coordinates":[[[-119.22390369838521,46.25410829243348],[-119.22390369838521,46.263101496070725],[-119.21491049474797,46.263101496070725],[-119.21491049474797,46.25410829243348],[-119.22390369838521,46.25410829243348]]]}},{"type":"Feature","properties":{"jobs":2045,"pop":185,"pointCount":1,"homeWorkCommuteMedian":0,"workHomeCommuteMedian":0},"geometry":{"type":"Polygon","coordinates":[[[-119.22390369838521,46.27209469970797],[-119.22390369838521,46.28108790334522],[-119.21491049474797,46.28108790334522],[-119.21491049474797,46.27209469970797],[-119.22390369838521,46.27209469970797]]]}},{"type":"Feature","properties":{"jobs":140,"pop":5,"pointCount":1,"homeWorkCommuteMedian":0,"workHomeCommuteMedian":0},"geometry":{"type":"Polygon","coordinates":[[[-119.22390369838521,46.3170607178942],[-119.22390369838521,46.32605392153145],[-119.21491049474797,46.32605392153145],[-119.21491049474797,46.3170607178942],[-119.22390369838521,46.3170607178942]]]}},{"type":"Feature","properties":{"jobs":35,"pop":1520,"pointCount":1,"homeWorkCommuteMedian":0,"workHomeCommuteMedian":0},"geometry":{"type":"Polygon","coordinates":[[[-119.21491049474797,46.19115586697276],[-119.21491049474797,46.20014907061],[-119.20591729111072,46.20014907061],[-119.20591729111072,46.19115586697276],[-119.21491049474797,46.19115586697276]]]}},{"type":"Feature","properties":{"jobs":2870,"pop":360,"pointCount":3,"homeWorkCommuteMedian":0,"workHomeCommuteMedian":0},"geometry":{"type":"Polygon","coordinates":[[[-119.21491049474797,46.20914227424725],[-119.21491049474797,46.218135477884495],[-119.20591729111072,46.218135477884495],[-119.20591729111072,46.20914227424725],[-119.21491049474797,46.20914227424725]]]}},{"type":"Feature","properties":{"jobs":3740,"pop":320,"pointCount":2,"homeWorkCommuteMedian":0,"workHomeCommuteMedian":0},"geometry":{"type":"Polygon","coordinates":[[[-119.21491049474797,46.218135477884495],[-119.21491049474797,46.22712868152174],[-119.20591729111072,46.22712868152174],[-119.20591729111072,46.218135477884495],[-119.21491049474797,46.218135477884495]]]}},{"type":"Feature","properties":{"jobs":930,"pop":5225,"pointCount":2,"homeWorkCommuteMedian":0,"workHomeCommuteMedian":0},"geometry":{"type":"Polygon","coordinates":[[[-119.21491049474797,46.263101496070725],[-119.21491049474797,46.27209469970797],[-119.20591729111072,46.27209469970797],[-119.20591729111072,46.263101496070725],[-119.21491049474797,46.263101496070725]]]}},{"type":"Feature","properties":{"jobs":690,"pop":1190,"pointCount":1,"homeWorkCommuteMedian":0,"workHomeCommuteMedian":0},"geometry":{"type":"Polygon","coordinates":[[[-119.21491049474797,46.27209469970797],[-119.21491049474797,46.28108790334522],[-119.20591729111072,46.28108790334522],[-119.20591729111072,46.27209469970797],[-119.21491049474797,46.27209469970797]]]}},{"type":"Feature","properties":{"jobs":0,"pop":30,"pointCount":1,"homeWorkCommuteMedian":0,"workHomeCommuteMedian":-1},"geometry":{"type":"Polygon","coordinates":[[[-119.21491049474797,46.29008110698246],[-119.21491049474797,46.29907431061971],[-119.20591729111072,46.29907431061971],[-119.20591729111072,46.29008110698246],[-119.21491049474797,46.29008110698246]]]}},{"type":"Feature","properties":{"jobs":350,"pop":0,"pointCount":1,"homeWorkCommuteMedian":-1,"workHomeCommuteMedian":0},"geometry":{"type":"Polygon","coordinates":[[[-119.20591729111072,46.16417625606102],[-119.20591729111072,46.173169459698265],[-119.19692408747348,46.173169459698265],[-119.19692408747348,46.16417625606102],[-119.20591729111072,46.16417625606102]]]}},{"type":"Feature","properties":{"jobs":35,"pop":4210,"pointCount":2,"homeWorkCommuteMedian":0,"workHomeCommuteMedian":0},"geometry":{"type":"Polygon","coordinates":[[[-119.20591729111072,46.18216266333551],[-119.20591729111072,46.19115586697276],[-119.19692408747348,46.19115586697276],[-119.19692408747348,46.18216266333551],[-119.20591729111072,46.18216266333551]]]}},{"type":"Feature","properties":{"jobs":35,"pop":1820,"pointCount":1,"homeWorkCommuteMedian":0,"workHomeCommuteMedian":0},"geometry":{"type":"Polygon","coordinates":[[[-119.20591729111072,46.19115586697276],[-119.20591729111072,46.20014907061],[-119.19692408747348,46.20014907061],[-119.19692408747348,46.19115586697276],[-119.20591729111072,46.19115586697276]]]}},{"type":"Feature","properties":{"jobs":195,"pop":1115,"pointCount":1,"homeWorkCommuteMedian":0,"workHomeCommuteMedian":0},"geometry":{"type":"Polygon","coordinates":[[[-119.20591729111072,46.20014907061],[-119.20591729111072,46.20914227424725],[-119.19692408747348,46.20914227424725],[-119.19692408747348,46.20014907061],[-119.20591729111072,46.20014907061]]]}},{"type":"Feature","properties":{"jobs":1100,"pop":110,"pointCount":1,"homeWorkCommuteMedian":0,"workHomeCommuteMedian":0},"geometry":{"type":"Polygon","coordinates":[[[-119.20591729111072,46.20914227424725],[-119.20591729111072,46.218135477884495],[-119.19692408747348,46.218135477884495],[-119.19692408747348,46.20914227424725],[-119.20591729111072,46.20914227424725]]]}},{"type":"Feature","properties":{"jobs":2270,"pop":1295,"pointCount":3,"homeWorkCommuteMedian":0,"workHomeCommuteMedian":0},"geometry":{"type":"Polygon","coordinates":[[[-119.20591729111072,46.218135477884495],[-119.20591729111072,46.22712868152174],[-119.19692408747348,46.22712868152174],[-119.19692408747348,46.218135477884495],[-119.20591729111072,46.218135477884495]]]}},{"type":"Feature","properties":{"jobs":620,"pop":16225,"pointCount":4,"homeWorkCommuteMedian":0,"workHomeCommuteMedian":0},"geometry":{"type":"Polygon","coordinates":[[[-119.20591729111072,46.27209469970797],[-119.20591729111072,46.28108790334522],[-119.19692408747348,46.28108790334522],[-119.19692408747348,46.27209469970797],[-119.20591729111072,46.27209469970797]]]}},{"type":"Feature","properties":{"jobs":3470,"pop":110,"pointCount":1,"homeWorkCommuteMedian":0,"workHomeCommuteMedian":0},"geometry":{"type":"Polygon","coordinates":[[[-119.19692408747348,46.173169459698265],[-119.19692408747348,46.18216266333551],[-119.18793088383623,46.18216266333551],[-119.18793088383623,46.173169459698265],[-119.19692408747348,46.173169459698265]]]}},{"type":"Feature","properties":{"jobs":435,"pop":1295,"pointCount":1,"homeWorkCommuteMedian":0,"workHomeCommuteMedian":0},"geometry":{"type":"Polygon","coordinates":[[[-119.19692408747348,46.19115586697276],[-119.19692408747348,46.20014907061],[-119.18793088383623,46.20014907061],[-119.18793088383623,46.19115586697276],[-119.19692408747348,46.19115586697276]]]}},{"type":"Feature","properties":{"jobs":2345,"pop":4035,"pointCount":3,"homeWorkCommuteMedian":0,"workHomeCommuteMedian":0},"geometry":{"type":"Polygon","coordinates":[[[-119.19692408747348,46.20914227424725],[-119.19692408747348,46.218135477884495],[-119.18793088383623,46.218135477884495],[-119.18793088383623,46.20914227424725],[-119.19692408747348,46.20914227424725]]]}},{"type":"Feature","properties":{"jobs":680,"pop":395,"pointCount":1,"homeWorkCommuteMedian":0,"workHomeCommuteMedian":0},"geometry":{"type":"Polygon","coordinates":[[[-119.19692408747348,46.218135477884495],[-119.19692408747348,46.22712868152174],[-119.18793088383623,46.22712868152174],[-119.18793088383623,46.218135477884495],[-119.19692408747348,46.218135477884495]]]}},{"type":"Feature","properties":{"jobs":190,"pop":865,"pointCount":1,"homeWorkCommuteMedian":0,"workHomeCommuteMedian":0},"geometry":{"type":"Polygon","coordinates":[[[-119.19692408747348,46.24511508879623],[-119.19692408747348,46.25410829243348],[-119.18793088383623,46.25410829243348],[-119.18793088383623,46.24511508879623],[-119.19692408747348,46.24511508879623]]]}},{"type":"Feature","properties":{"jobs":3000,"pop":2355,"pointCount":1,"homeWorkCommuteMedian":0,"workHomeCommuteMedian":0},"geometry":{"type":"Polygon","coordinates":[[[-119.19692408747348,46.263101496070725],[-119.19692408747348,46.27209469970797],[-119.18793088383623,46.27209469970797],[-119.18793088383623,46.263101496070725],[-119.19692408747348,46.263101496070725]]]}},{"type":"Feature","properties":{"jobs":795,"pop":575,"pointCount":1,"homeWorkCommuteMedian":0,"workHomeCommuteMedian":0},"geometry":{"type":"Polygon","coordinates":[[[-119.19692408747348,46.27209469970797],[-119.19692408747348,46.28108790334522],[-119.18793088383623,46.28108790334522],[-119.18793088383623,46.27209469970797],[-119.19692408747348,46.27209469970797]]]}},{"type":"Feature","properties":{"jobs":370,"pop":190,"pointCount":1,"homeWorkCommuteMedian":0,"workHomeCommuteMedian":0},"geometry":{"type":"Polygon","coordinates":[[[-119.18793088383623,46.173169459698265],[-119.18793088383623,46.18216266333551],[-119.17893768019898,46.18216266333551],[-119.17893768019898,46.173169459698265],[-119.18793088383623,46.173169459698265]]]}},{"type":"Feature","properties":{"jobs":965,"pop":685,"pointCount":1,"homeWorkCommuteMedian":0,"workHomeCommuteMedian":0},"geometry":{"type":"Polygon","coordinates":[[[-119.18793088383623,46.18216266333551],[-119.18793088383623,46.19115586697276],[-119.17893768019898,46.19115586697276],[-119.17893768019898,46.18216266333551],[-119.18793088383623,46.18216266333551]]]}},{"type":"Feature","properties":{"jobs":135,"pop":1350,"pointCount":1,"homeWorkCommuteMedian":0,"workHomeCommuteMedian":0},"geometry":{"type":"Polygon","coordinates":[[[-119.18793088383623,46.19115586697276],[-119.18793088383623,46.20014907061],[-119.17893768019898,46.20014907061],[-119.17893768019898,46.19115586697276],[-119.18793088383623,46.19115586697276]]]}},{"type":"Feature","properties":{"jobs":1925,"pop":6450,"pointCount":2,"homeWorkCommuteMedian":0,"workHomeCommuteMedian":0},"geometry":{"type":"Polygon","coordinates":[[[-119.18793088383623,46.20914227424725],[-119.18793088383623,46.218135477884495],[-119.17893768019898,46.218135477884495],[-119.17893768019898,46.20914227424725],[-119.18793088383623,46.20914227424725]]]}},{"type":"Feature","properties":{"jobs":4795,"pop":3060,"pointCount":2,"homeWorkCommuteMedian":0,"workHomeCommuteMedian":0},"geometry":{"type":"Polygon","coordinates":[[[-119.18793088383623,46.24511508879623],[-119.18793088383623,46.25410829243348],[-119.17893768019898,46.25410829243348],[-119.17893768019898,46.24511508879623],[-119.18793088383623,46.24511508879623]]]}},{"type":"Feature","properties":{"jobs":695,"pop":795,"pointCount":1,"homeWorkCommuteMedian":0,"workHomeCommuteMedian":0},"geometry":{"type":"Polygon","coordinates":[[[-119.18793088383623,46.27209469970797],[-119.18793088383623,46.28108790334522],[-119.17893768019898,46.28108790334522],[-119.17893768019898,46.27209469970797],[-119.18793088383623,46.27209469970797]]]}},{"type":"Feature","properties":{"jobs":1200,"pop":920,"pointCount":1,"homeWorkCommuteMedian":0,"workHomeCommuteMedian":0},"geometry":{"type":"Polygon","coordinates":[[[-119.18793088383623,46.28108790334522],[-119.18793088383623,46.29008110698246],[-119.17893768019898,46.29008110698246],[-119.17893768019898,46.28108790334522],[-119.18793088383623,46.28108790334522]]]}},{"type":"Feature","properties":{"jobs":1225,"pop":10,"pointCount":1,"homeWorkCommuteMedian":0,"workHomeCommuteMedian":0},"geometry":{"type":"Polygon","coordinates":[[[-119.18793088383623,46.3170607178942],[-119.18793088383623,46.32605392153145],[-119.17893768019898,46.32605392153145],[-119.17893768019898,46.3170607178942],[-119.18793088383623,46.3170607178942]]]}},{"type":"Feature","properties":{"jobs":110,"pop":0,"pointCount":1,"homeWorkCommuteMedian":-1,"workHomeCommuteMedian":0},"geometry":{"type":"Polygon","coordinates":[[[-119.17893768019898,46.15518305242377],[-119.17893768019898,46.16417625606102],[-119.16994447656174,46.16417625606102],[-119.16994447656174,46.15518305242377],[-119.17893768019898,46.15518305242377]]]}},{"type":"Feature","properties":{"jobs":840,"pop":230,"pointCount":1,"homeWorkCommuteMedian":0,"workHomeCommuteMedian":0},"geometry":{"type":"Polygon","coordinates":[[[-119.17893768019898,46.18216266333551],[-119.17893768019898,46.19115586697276],[-119.16994447656174,46.19115586697276],[-119.16994447656174,46.18216266333551],[-119.17893768019898,46.18216266333551]]]}},{"type":"Feature","properties":{"jobs":1315,"pop":370,"pointCount":1,"homeWorkCommuteMedian":0,"workHomeCommuteMedian":0},"geometry":{"type":"Polygon","coordinates":[[[-119.17893768019898,46.19115586697276],[-119.17893768019898,46.20014907061],[-119.16994447656174,46.20014907061],[-119.16994447656174,46.19115586697276],[-119.17893768019898,46.19115586697276]]]}},{"type":"Feature","properties":{"jobs":120,"pop":4640,"pointCount":1,"homeWorkCommuteMedian":0,"workHomeCommuteMedian":0},"geometry":{"type":"Polygon","coordinates":[[[-119.17893768019898,46.20014907061],[-119.17893768019898,46.20914227424725],[-119.16994447656174,46.20914227424725],[-119.16994447656174,46.20014907061],[-119.17893768019898,46.20014907061]]]}},{"type":"Feature","properties":{"jobs":2925,"pop":6945,"pointCount":2,"homeWorkCommuteMedian":0,"workHomeCommuteMedian":0},"geometry":{"type":"Polygon","coordinates":[[[-119.17893768019898,46.20914227424725],[-119.17893768019898,46.218135477884495],[-119.16994447656174,46.218135477884495],[-119.16994447656174,46.20914227424725],[-119.17893768019898,46.20914227424725]]]}},{"type":"Feature","properties":{"jobs":1420,"pop":795,"pointCount":1,"homeWorkCommuteMedian":0,"workHomeCommuteMedian":0},"geometry":{"type":"Polygon","coordinates":[[[-119.17893768019898,46.22712868152174],[-119.17893768019898,46.23612188515899],[-119.16994447656174,46.23612188515899],[-119.16994447656174,46.22712868152174],[-119.17893768019898,46.22712868152174]]]}},{"type":"Feature","properties":{"jobs":210,"pop":3515,"pointCount":1,"homeWorkCommuteMedian":0,"workHomeCommuteMedian":0},"geometry":{"type":"Polygon","coordinates":[[[-119.17893768019898,46.25410829243348],[-119.17893768019898,46.263101496070725],[-119.16994447656174,46.263101496070725],[-119.16994447656174,46.25410829243348],[-119.17893768019898,46.25410829243348]]]}},{"type":"Feature","properties":{"jobs":1650,"pop":3000,"pointCount":1,"homeWorkCommuteMedian":0,"workHomeCommuteMedian":0},"geometry":{"type":"Polygon","coordinates":[[[-119.17893768019898,46.263101496070725],[-119.17893768019898,46.27209469970797],[-119.16994447656174,46.27209469970797],[-119.16994447656174,46.263101496070725],[-119.17893768019898,46.263101496070725]]]}},{"type":"Feature","properties":{"jobs":245,"pop":3395,"pointCount":1,"homeWorkCommuteMedian":0,"workHomeCommuteMedian":0},"geometry":{"type":"Polygon","coordinates":[[[-119.17893768019898,46.27209469970797],[-119.17893768019898,46.28108790334522],[-119.16994447656174,46.28108790334522],[-119.16994447656174,46.27209469970797],[-119.17893768019898,46.27209469970797]]]}},{"type":"Feature","properties":{"jobs":345,"pop":685,"pointCount":1,"homeWorkCommuteMedian":0,"workHomeCommuteMedian":0},"geometry":{"type":"Polygon","coordinates":[[[-119.17893768019898,46.28108790334522],[-119.17893768019898,46.29008110698246],[-119.16994447656174,46.29008110698246],[-119.16994447656174,46.28108790334522],[-119.17893768019898,46.28108790334522]]]}},{"type":"Feature","properties":{"jobs":195,"pop":200,"pointCount":1,"homeWorkCommuteMedian":0,"workHomeCommuteMedian":0},"geometry":{"type":"Polygon","coordinates":[[[-119.16994447656174,46.173169459698265],[-119.16994447656174,46.18216266333551],[-119.16095127292449,46.18216266333551],[-119.16095127292449,46.173169459698265],[-119.16994447656174,46.173169459698265]]]}},{"type":"Feature","properties":{"jobs":1190,"pop":765,"pointCount":2,"homeWorkCommuteMedian":0,"workHomeCommuteMedian":0},"geometry":{"type":"Polygon","coordinates":[[[-119.16994447656174,46.18216266333551],[-119.16994447656174,46.19115586697276],[-119.16095127292449,46.19115586697276],[-119.16095127292449,46.18216266333551],[-119.16994447656174,46.18216266333551]]]}},{"type":"Feature","properties":{"jobs":275,"pop":1700,"pointCount":1,"homeWorkCommuteMedian":0,"workHomeCommuteMedian":0},"geometry":{"type":"Polygon","coordinates":[[[-119.16994447656174,46.19115586697276],[-119.16994447656174,46.20014907061],[-119.16095127292449,46.20014907061],[-119.16095127292449,46.19115586697276],[-119.16994447656174,46.19115586697276]]]}},{"type":"Feature","properties":{"jobs":765,"pop":2480,"pointCount":1,"homeWorkCommuteMedian":0,"workHomeCommuteMedian":0},"geometry":{"type":"Polygon","coordinates":[[[-119.16994447656174,46.20014907061],[-119.16994447656174,46.20914227424725],[-119.16095127292449,46.20914227424725],[-119.16095127292449,46.20014907061],[-119.16994447656174,46.20014907061]]]}},{"type":"Feature","properties":{"jobs":3565,"pop":2580,"pointCount":2,"homeWorkCommuteMedian":0,"workHomeCommuteMedian":0},"geometry":{"type":"Polygon","coordinates":[[[-119.16994447656174,46.20914227424725],[-119.16994447656174,46.218135477884495],[-119.16095127292449,46.218135477884495],[-119.16095127292449,46.20914227424725],[-119.16994447656174,46.20914227424725]]]}},{"type":"Feature","properties":{"jobs":360,"pop":1715,"pointCount":2,"homeWorkCommuteMedian":0,"workHomeCommuteMedian":0},"geometry":{"type":"Polygon","coordinates":[[[-119.16994447656174,46.23612188515899],[-119.16994447656174,46.24511508879623],[-119.16095127292449,46.24511508879623],[-119.16095127292449,46.23612188515899],[-119.16994447656174,46.23612188515899]]]}},{"type":"Feature","properties":{"jobs":160,"pop":9310,"pointCount":2,"homeWorkCommuteMedian":0,"workHomeCommuteMedian":0},"geometry":{"type":"Polygon","coordinates":[[[-119.16994447656174,46.263101496070725],[-119.16994447656174,46.27209469970797],[-119.16095127292449,46.27209469970797],[-119.16095127292449,46.263101496070725],[-119.16994447656174,46.263101496070725]]]}},{"type":"Feature","properties":{"jobs":150,"pop":2685,"pointCount":1,"homeWorkCommuteMedian":0,"workHomeCommuteMedian":0},"geometry":{"type":"Polygon","coordinates":[[[-119.16994447656174,46.27209469970797],[-119.16994447656174,46.28108790334522],[-119.16095127292449,46.28108790334522],[-119.16095127292449,46.27209469970797],[-119.16994447656174,46.27209469970797]]]}},{"type":"Feature","properties":{"jobs":5,"pop":30,"pointCount":1,"homeWorkCommuteMedian":0,"workHomeCommuteMedian":0},"geometry":{"type":"Polygon","coordinates":[[[-119.16994447656174,46.29008110698246],[-119.16994447656174,46.29907431061971],[-119.16095127292449,46.29907431061971],[-119.16095127292449,46.29008110698246],[-119.16994447656174,46.29008110698246]]]}},{"type":"Feature","properties":{"jobs":680,"pop":3335,"pointCount":1,"homeWorkCommuteMedian":0,"workHomeCommuteMedian":0},"geometry":{"type":"Polygon","coordinates":[[[-119.16095127292449,46.173169459698265],[-119.16095127292449,46.18216266333551],[-119.15195806928725,46.18216266333551],[-119.15195806928725,46.173169459698265],[-119.16095127292449,46.173169459698265]]]}},{"type":"Feature","properties":{"jobs":1645,"pop":3845,"pointCount":2,"homeWorkCommuteMedian":0,"workHomeCommuteMedian":0},"geometry":{"type":"Polygon","coordinates":[[[-119.16095127292449,46.18216266333551],[-119.16095127292449,46.19115586697276],[-119.15195806928725,46.19115586697276],[-119.15195806928725,46.18216266333551],[-119.16095127292449,46.18216266333551]]]}},{"type":"Feature","properties":{"jobs":1505,"pop":1545,"pointCount":1,"homeWorkCommuteMedian":0,"workHomeCommuteMedian":0},"geometry":{"type":"Polygon","coordinates":[[[-119.16095127292449,46.19115586697276],[-119.16095127292449,46.20014907061],[-119.15195806928725,46.20014907061],[-119.15195806928725,46.19115586697276],[-119.16095127292449,46.19115586697276]]]}},{"type":"Feature","properties":{"jobs":1550,"pop":585,"pointCount":2,"homeWorkCommuteMedian":0,"workHomeCommuteMedian":0},"geometry":{"type":"Polygon","coordinates":[[[-119.16095127292449,46.20014907061],[-119.16095127292449,46.20914227424725],[-119.15195806928725,46.20914227424725],[-119.15195806928725,46.20014907061],[-119.16095127292449,46.20014907061]]]}},{"type":"Feature","properties":{"jobs":3490,"pop":1765,"pointCount":3,"homeWorkCommuteMedian":0,"workHomeCommuteMedian":0},"geometry":{"type":"Polygon","coordinates":[[[-119.16095127292449,46.20914227424725],[-119.16095127292449,46.218135477884495],[-119.15195806928725,46.218135477884495],[-119.15195806928725,46.20914227424725],[-119.16095127292449,46.20914227424725]]]}},{"type":"Feature","properties":{"jobs":400,"pop":1040,"pointCount":1,"homeWorkCommuteMedian":0,"workHomeCommuteMedian":0},"geometry":{"type":"Polygon","coordinates":[[[-119.16095127292449,46.25410829243348],[-119.16095127292449,46.263101496070725],[-119.15195806928725,46.263101496070725],[-119.15195806928725,46.25410829243348],[-119.16095127292449,46.25410829243348]]]}},{"type":"Feature","properties":{"jobs":65,"pop":4400,"pointCount":1,"homeWorkCommuteMedian":0,"workHomeCommuteMedian":0},"geometry":{"type":"Polygon","coordinates":[[[-119.16095127292449,46.27209469970797],[-119.16095127292449,46.28108790334522],[-119.15195806928725,46.28108790334522],[-119.15195806928725,46.27209469970797],[-119.16095127292449,46.27209469970797]]]}},{"type":"Feature","properties":{"jobs":120,"pop":3445,"pointCount":1,"homeWorkCommuteMedian":0,"workHomeCommuteMedian":0},"geometry":{"type":"Polygon","coordinates":[[[-119.15195806928725,46.173169459698265],[-119.15195806928725,46.18216266333551],[-119.14296486565,46.18216266333551],[-119.14296486565,46.173169459698265],[-119.15195806928725,46.173169459698265]]]}},{"type":"Feature","properties":{"jobs":50,"pop":1415,"pointCount":1,"homeWorkCommuteMedian":0,"workHomeCommuteMedian":0},"geometry":{"type":"Polygon","coordinates":[[[-119.15195806928725,46.19115586697276],[-119.15195806928725,46.20014907061],[-119.14296486565,46.20014907061],[-119.14296486565,46.19115586697276],[-119.15195806928725,46.19115586697276]]]}},{"type":"Feature","properties":{"jobs":745,"pop":1300,"pointCount":1,"homeWorkCommuteMedian":0,"workHomeCommuteMedian":0},"geometry":{"type":"Polygon","coordinates":[[[-119.15195806928725,46.20914227424725],[-119.15195806928725,46.218135477884495],[-119.14296486565,46.218135477884495],[-119.14296486565,46.20914227424725],[-119.15195806928725,46.20914227424725]]]}},{"type":"Feature","properties":{"jobs":1665,"pop":2145,"pointCount":1,"homeWorkCommuteMedian":0,"workHomeCommuteMedian":0},"geometry":{"type":"Polygon","coordinates":[[[-119.15195806928725,46.23612188515899],[-119.15195806928725,46.24511508879623],[-119.14296486565,46.24511508879623],[-119.14296486565,46.23612188515899],[-119.15195806928725,46.23612188515899]]]}},{"type":"Feature","properties":{"jobs":170,"pop":2165,"pointCount":1,"homeWorkCommuteMedian":0,"workHomeCommuteMedian":0},"geometry":{"type":"Polygon","coordinates":[[[-119.15195806928725,46.263101496070725],[-119.15195806928725,46.27209469970797],[-119.14296486565,46.27209469970797],[-119.14296486565,46.263101496070725],[-119.15195806928725,46.263101496070725]]]}},{"type":"Feature","properties":{"jobs":375,"pop":2640,"pointCount":1,"homeWorkCommuteMedian":0,"workHomeCommuteMedian":0},"geometry":{"type":"Polygon","coordinates":[[[-119.15195806928725,46.27209469970797],[-119.15195806928725,46.28108790334522],[-119.14296486565,46.28108790334522],[-119.14296486565,46.27209469970797],[-119.15195806928725,46.27209469970797]]]}},{"type":"Feature","properties":{"jobs":150,"pop":5,"pointCount":1,"homeWorkCommuteMedian":0,"workHomeCommuteMedian":0},"geometry":{"type":"Polygon","coordinates":[[[-119.15195806928725,46.29008110698246],[-119.15195806928725,46.29907431061971],[-119.14296486565,46.29907431061971],[-119.14296486565,46.29008110698246],[-119.15195806928725,46.29008110698246]]]}},{"type":"Feature","properties":{"jobs":395,"pop":1670,"pointCount":1,"homeWorkCommuteMedian":0,"workHomeCommuteMedian":0},"geometry":{"type":"Polygon","coordinates":[[[-119.14296486565,46.16417625606102],[-119.14296486565,46.173169459698265],[-119.13397166201275,46.173169459698265],[-119.13397166201275,46.16417625606102],[-119.14296486565,46.16417625606102]]]}},{"type":"Feature","properties":{"jobs":405,"pop":5115,"pointCount":1,"homeWorkCommuteMedian":0,"workHomeCommuteMedian":0},"geometry":{"type":"Polygon","coordinates":[[[-119.14296486565,46.18216266333551],[-119.14296486565,46.19115586697276],[-119.13397166201275,46.19115586697276],[-119.13397166201275,46.18216266333551],[-119.14296486565,46.18216266333551]]]}},{"type":"Feature","properties":{"jobs":355,"pop":9695,"pointCount":2,"homeWorkCommuteMedian":0,"workHomeCommuteMedian":0},"geometry":{"type":"Polygon","coordinates":[[[-119.14296486565,46.19115586697276],[-119.14296486565,46.20014907061],[-119.13397166201275,46.20014907061],[-119.13397166201275,46.19115586697276],[-119.14296486565,46.19115586697276]]]}},{"type":"Feature","properties":{"jobs":935,"pop":1085,"pointCount":1,"homeWorkCommuteMedian":0,"workHomeCommuteMedian":0},"geometry":{"type":"Polygon","coordinates":[[[-119.14296486565,46.20014907061],[-119.14296486565,46.20914227424725],[-119.13397166201275,46.20914227424725],[-119.13397166201275,46.20014907061],[-119.14296486565,46.20014907061]]]}},{"type":"Feature","properties":{"jobs":2990,"pop":1460,"pointCount":1,"homeWorkCommuteMedian":0,"workHomeCommuteMedian":0},"geometry":{"type":"Polygon","coordinates":[[[-119.14296486565,46.20914227424725],[-119.14296486565,46.218135477884495],[-119.13397166201275,46.218135477884495],[-119.13397166201275,46.20914227424725],[-119.14296486565,46.20914227424725]]]}},{"type":"Feature","properties":{"jobs":965,"pop":1180,"pointCount":1,"homeWorkCommuteMedian":0,"workHomeCommuteMedian":0},"geometry":{"type":"Polygon","coordinates":[[[-119.14296486565,46.23612188515899],[-119.14296486565,46.24511508879623],[-119.13397166201275,46.24511508879623],[-119.13397166201275,46.23612188515899],[-119.14296486565,46.23612188515899]]]}},{"type":"Feature","properties":{"jobs":15,"pop":0,"pointCount":1,"homeWorkCommuteMedian":-1,"workHomeCommuteMedian":0},"geometry":{"type":"Polygon","coordinates":[[[-119.14296486565,46.3170607178942],[-119.14296486565,46.32605392153145],[-119.13397166201275,46.32605392153145],[-119.13397166201275,46.3170607178942],[-119.14296486565,46.3170607178942]]]}},{"type":"Feature","properties":{"jobs":160,"pop":6275,"pointCount":2,"homeWorkCommuteMedian":0,"workHomeCommuteMedian":0},"geometry":{"type":"Polygon","coordinates":[[[-119.13397166201275,46.18216266333551],[-119.13397166201275,46.19115586697276],[-119.12497845837551,46.19115586697276],[-119.12497845837551,46.18216266333551],[-119.13397166201275,46.18216266333551]]]}},{"type":"Feature","properties":{"jobs":70,"pop":1935,"pointCount":1,"homeWorkCommuteMedian":0,"workHomeCommuteMedian":0},"geometry":{"type":"Polygon","coordinates":[[[-119.13397166201275,46.19115586697276],[-119.13397166201275,46.20014907061],[-119.12497845837551,46.20014907061],[-119.12497845837551,46.19115586697276],[-119.13397166201275,46.19115586697276]]]}},{"type":"Feature","properties":{"jobs":1110,"pop":2050,"pointCount":1,"homeWorkCommuteMedian":0,"workHomeCommuteMedian":0},"geometry":{"type":"Polygon","coordinates":[[[-119.13397166201275,46.20014907061],[-119.13397166201275,46.20914227424725],[-119.12497845837551,46.20914227424725],[-119.12497845837551,46.20014907061],[-119.13397166201275,46.20014907061]]]}},{"type":"Feature","properties":{"jobs":1095,"pop":510,"pointCount":1,"homeWorkCommuteMedian":0,"workHomeCommuteMedian":0},"geometry":{"type":"Polygon","coordinates":[[[-119.13397166201275,46.22712868152174],[-119.13397166201275,46.23612188515899],[-119.12497845837551,46.23612188515899],[-119.12497845837551,46.22712868152174],[-119.13397166201275,46.22712868152174]]]}},{"type":"Feature","properties":{"jobs":2790,"pop":2965,"pointCount":3,"homeWorkCommuteMedian":0,"workHomeCommuteMedian":0},"geometry":{"type":"Polygon","coordinates":[[[-119.13397166201275,46.23612188515899],[-119.13397166201275,46.24511508879623],[-119.12497845837551,46.24511508879623],[-119.12497845837551,46.23612188515899],[-119.13397166201275,46.23612188515899]]]}},{"type":"Feature","properties":{"jobs":95,"pop":2755,"pointCount":1,"homeWorkCommuteMedian":0,"workHomeCommuteMedian":0},"geometry":{"type":"Polygon","coordinates":[[[-119.12497845837551,46.173169459698265],[-119.12497845837551,46.18216266333551],[-119.11598525473826,46.18216266333551],[-119.11598525473826,46.173169459698265],[-119.12497845837551,46.173169459698265]]]}},{"type":"Feature","properties":{"jobs":1630,"pop":510,"pointCount":1,"homeWorkCommuteMedian":0,"workHomeCommuteMedian":0},"geometry":{"type":"Polygon","coordinates":[[[-119.12497845837551,46.19115586697276],[-119.12497845837551,46.20014907061],[-119.11598525473826,46.20014907061],[-119.11598525473826,46.19115586697276],[-119.12497845837551,46.19115586697276]]]}},{"type":"Feature","properties":{"jobs":19595,"pop":310,"pointCount":3,"homeWorkCommuteMedian":0,"workHomeCommuteMedian":0},"geometry":{"type":"Polygon","coordinates":[[[-119.12497845837551,46.20014907061],[-119.12497845837551,46.20914227424725],[-119.11598525473826,46.20914227424725],[-119.11598525473826,46.20014907061],[-119.12497845837551,46.20014907061]]]}},{"type":"Feature","properties":{"jobs":2905,"pop":260,"pointCount":2,"homeWorkCommuteMedian":0,"workHomeCommuteMedian":0},"geometry":{"type":"Polygon","coordinates":[[[-119.12497845837551,46.20914227424725],[-119.12497845837551,46.218135477884495],[-119.11598525473826,46.218135477884495],[-119.11598525473826,46.20914227424725],[-119.12497845837551,46.20914227424725]]]}},{"type":"Feature","properties":{"jobs":3375,"pop":4080,"pointCount":3,"homeWorkCommuteMedian":0,"workHomeCommuteMedian":0},"geometry":{"type":"Polygon","coordinates":[[[-119.12497845837551,46.22712868152174],[-119.12497845837551,46.23612188515899],[-119.11598525473826,46.23612188515899],[-119.11598525473826,46.22712868152174],[-119.12497845837551,46.22712868152174]]]}},{"type":"Feature","properties":{"jobs":1645,"pop":3765,"pointCount":1,"homeWorkCommuteMedian":0,"workHomeCommuteMedian":0},"geometry":{"type":"Polygon","coordinates":[[[-119.12497845837551,46.23612188515899],[-119.12497845837551,46.24511508879623],[-119.11598525473826,46.24511508879623],[-119.11598525473826,46.23612188515899],[-119.12497845837551,46.23612188515899]]]}},{"type":"Feature","properties":{"jobs":2400,"pop":535,"pointCount":2,"homeWorkCommuteMedian":0,"workHomeCommuteMedian":0},"geometry":{"type":"Polygon","coordinates":[[[-119.12497845837551,46.24511508879623],[-119.12497845837551,46.25410829243348],[-119.11598525473826,46.25410829243348],[-119.11598525473826,46.24511508879623],[-119.12497845837551,46.24511508879623]]]}},{"type":"Feature","properties":{"jobs":840,"pop":110,"pointCount":1,"homeWorkCommuteMedian":0,"workHomeCommuteMedian":0},"geometry":{"type":"Polygon","coordinates":[[[-119.12497845837551,46.25410829243348],[-119.12497845837551,46.263101496070725],[-119.11598525473826,46.263101496070725],[-119.11598525473826,46.25410829243348],[-119.12497845837551,46.25410829243348]]]}},{"type":"Feature","properties":{"jobs":2700,"pop":0,"pointCount":1,"homeWorkCommuteMedian":-1,"workHomeCommuteMedian":0},"geometry":{"type":"Polygon","coordinates":[[[-119.12497845837551,46.263101496070725],[-119.12497845837551,46.27209469970797],[-119.11598525473826,46.27209469970797],[-119.11598525473826,46.263101496070725],[-119.12497845837551,46.263101496070725]]]}},{"type":"Feature","properties":{"jobs":2585,"pop":0,"pointCount":1,"homeWorkCommuteMedian":-1,"workHomeCommuteMedian":0},"geometry":{"type":"Polygon","coordinates":[[[-119.12497845837551,46.29907431061971],[-119.12497845837551,46.308067514256955],[-119.11598525473826,46.308067514256955],[-119.11598525473826,46.29907431061971],[-119.12497845837551,46.29907431061971]]]}},{"type":"Feature","properties":{"jobs":65,"pop":60,"pointCount":1,"homeWorkCommuteMedian":0,"workHomeCommuteMedian":0},"geometry":{"type":"Polygon","coordinates":[[[-119.11598525473826,46.15518305242377],[-119.11598525473826,46.16417625606102],[-119.10699205110102,46.16417625606102],[-119.10699205110102,46.15518305242377],[-119.11598525473826,46.15518305242377]]]}},{"type":"Feature","properties":{"jobs":155,"pop":1800,"pointCount":1,"homeWorkCommuteMedian":0,"workHomeCommuteMedian":0},"geometry":{"type":"Polygon","coordinates":[[[-119.11598525473826,46.18216266333551],[-119.11598525473826,46.19115586697276],[-119.10699205110102,46.19115586697276],[-119.10699205110102,46.18216266333551],[-119.11598525473826,46.18216266333551]]]}},{"type":"Feature","properties":{"jobs":355,"pop":3175,"pointCount":1,"homeWorkCommuteMedian":0,"workHomeCommuteMedian":0},"geometry":{"type":"Polygon","coordinates":[[[-119.11598525473826,46.19115586697276],[-119.11598525473826,46.20014907061],[-119.10699205110102,46.20014907061],[-119.10699205110102,46.19115586697276],[-119.11598525473826,46.19115586697276]]]}},{"type":"Feature","properties":{"jobs":2405,"pop":415,"pointCount":2,"homeWorkCommuteMedian":0,"workHomeCommuteMedian":0},"geometry":{"type":"Polygon","coordinates":[[[-119.11598525473826,46.20914227424725],[-119.11598525473826,46.218135477884495],[-119.10699205110102,46.218135477884495],[-119.10699205110102,46.20914227424725],[-119.11598525473826,46.20914227424725]]]}},{"type":"Feature","properties":{"jobs":800,"pop":3500,"pointCount":1,"homeWorkCommuteMedian":0,"workHomeCommuteMedian":0},"geometry":{"type":"Polygon","coordinates":[[[-119.11598525473826,46.23612188515899],[-119.11598525473826,46.24511508879623],[-119.10699205110102,46.24511508879623],[-119.10699205110102,46.23612188515899],[-119.11598525473826,46.23612188515899]]]}},{"type":"Feature","properties":{"jobs":825,"pop":170,"pointCount":1,"homeWorkCommuteMedian":0,"workHomeCommuteMedian":0},"geometry":{"type":"Polygon","coordinates":[[[-119.11598525473826,46.24511508879623],[-119.11598525473826,46.25410829243348],[-119.10699205110102,46.25410829243348],[-119.10699205110102,46.24511508879623],[-119.11598525473826,46.24511508879623]]]}},{"type":"Feature","properties":{"jobs":345,"pop":0,"pointCount":1,"homeWorkCommuteMedian":-1,"workHomeCommuteMedian":0},"geometry":{"type":"Polygon","coordinates":[[[-119.11598525473826,46.29008110698246],[-119.11598525473826,46.29907431061971],[-119.10699205110102,46.29907431061971],[-119.10699205110102,46.29008110698246],[-119.11598525473826,46.29008110698246]]]}},{"type":"Feature","properties":{"jobs":1295,"pop":405,"pointCount":1,"homeWorkCommuteMedian":0,"workHomeCommuteMedian":0},"geometry":{"type":"Polygon","coordinates":[[[-119.10699205110102,46.218135477884495],[-119.10699205110102,46.22712868152174],[-119.09799884746377,46.22712868152174],[-119.09799884746377,46.218135477884495],[-119.10699205110102,46.218135477884495]]]}},{"type":"Feature","properties":{"jobs":12205,"pop":830,"pointCount":1,"homeWorkCommuteMedian":0,"workHomeCommuteMedian":0},"geometry":{"type":"Polygon","coordinates":[[[-119.10699205110102,46.22712868152174],[-119.10699205110102,46.23612188515899],[-119.09799884746377,46.23612188515899],[-119.09799884746377,46.22712868152174],[-119.10699205110102,46.22712868152174]]]}},{"type":"Feature","properties":{"jobs":895,"pop":6715,"pointCount":2,"homeWorkCommuteMedian":0,"workHomeCommuteMedian":0},"geometry":{"type":"Polygon","coordinates":[[[-119.10699205110102,46.23612188515899],[-119.10699205110102,46.24511508879623],[-119.09799884746377,46.24511508879623],[-119.09799884746377,46.23612188515899],[-119.10699205110102,46.23612188515899]]]}},{"type":"Feature","properties":{"jobs":2730,"pop":10,"pointCount":1,"homeWorkCommuteMedian":0,"workHomeCommuteMedian":0},"geometry":{"type":"Polygon","coordinates":[[[-119.10699205110102,46.27209469970797],[-119.10699205110102,46.28108790334522],[-119.09799884746377,46.28108790334522],[-119.09799884746377,46.27209469970797],[-119.10699205110102,46.27209469970797]]]}},{"type":"Feature","properties":{"jobs":365,"pop":0,"pointCount":1,"homeWorkCommuteMedian":-1,"workHomeCommuteMedian":0},"geometry":{"type":"Polygon","coordinates":[[[-119.10699205110102,46.28108790334522],[-119.10699205110102,46.29008110698246],[-119.09799884746377,46.29008110698246],[-119.09799884746377,46.28108790334522],[-119.10699205110102,46.28108790334522]]]}},{"type":"Feature","properties":{"jobs":685,"pop":800,"pointCount":1,"homeWorkCommuteMedian":0,"workHomeCommuteMedian":0},"geometry":{"type":"Polygon","coordinates":[[[-119.09799884746377,46.19115586697276],[-119.09799884746377,46.20014907061],[-119.08900564382652,46.20014907061],[-119.08900564382652,46.19115586697276],[-119.09799884746377,46.19115586697276]]]}},{"type":"Feature","properties":{"jobs":5380,"pop":1145,"pointCount":3,"homeWorkCommuteMedian":0,"workHomeCommuteMedian":0},"geometry":{"type":"Polygon","coordinates":[[[-119.09799884746377,46.22712868152174],[-119.09799884746377,46.23612188515899],[-119.08900564382652,46.23612188515899],[-119.08900564382652,46.22712868152174],[-119.09799884746377,46.22712868152174]]]}},{"type":"Feature","properties":{"jobs":4815,"pop":2920,"pointCount":3,"homeWorkCommuteMedian":0,"workHomeCommuteMedian":0},"geometry":{"type":"Polygon","coordinates":[[[-119.09799884746377,46.23612188515899],[-119.09799884746377,46.24511508879623],[-119.08900564382652,46.24511508879623],[-119.08900564382652,46.23612188515899],[-119.09799884746377,46.23612188515899]]]}},{"type":"Feature","properties":{"jobs":1370,"pop":75,"pointCount":1,"homeWorkCommuteMedian":0,"workHomeCommuteMedian":0},"geometry":{"type":"Polygon","coordinates":[[[-119.09799884746377,46.25410829243348],[-119.09799884746377,46.263101496070725],[-119.08900564382652,46.263101496070725],[-119.08900564382652,46.25410829243348],[-119.09799884746377,46.25410829243348]]]}},{"type":"Feature","properties":{"jobs":1280,"pop":0,"pointCount":1,"homeWorkCommuteMedian":-1,"workHomeCommuteMedian":0},"geometry":{"type":"Polygon","coordinates":[[[-119.09799884746377,46.263101496070725],[-119.09799884746377,46.27209469970797],[-119.08900564382652,46.27209469970797],[-119.08900564382652,46.263101496070725],[-119.09799884746377,46.263101496070725]]]}},{"type":"Feature","properties":{"jobs":0,"pop":65,"pointCount":1,"homeWorkCommuteMedian":0,"workHomeCommuteMedian":-1},"geometry":{"type":"Polygon","coordinates":[[[-119.08900564382652,46.20914227424725],[-119.08900564382652,46.218135477884495],[-119.08001244018928,46.218135477884495],[-119.08001244018928,46.20914227424725],[-119.08900564382652,46.20914227424725]]]}},{"type":"Feature","properties":{"jobs":925,"pop":345,"pointCount":1,"homeWorkCommuteMedian":0,"workHomeCommuteMedian":0},"geometry":{"type":"Polygon","coordinates":[[[-119.08900564382652,46.218135477884495],[-119.08900564382652,46.22712868152174],[-119.08001244018928,46.22712868152174],[-119.08001244018928,46.218135477884495],[-119.08900564382652,46.218135477884495]]]}},{"type":"Feature","properties":{"jobs":1595,"pop":285,"pointCount":1,"homeWorkCommuteMedian":0,"workHomeCommuteMedian":0},"geometry":{"type":"Polygon","coordinates":[[[-119.08900564382652,46.23612188515899],[-119.08900564382652,46.24511508879623],[-119.08001244018928,46.24511508879623],[-119.08001244018928,46.23612188515899],[-119.08900564382652,46.23612188515899]]]}},{"type":"Feature","properties":{"jobs":1005,"pop":95,"pointCount":1,"homeWorkCommuteMedian":0,"workHomeCommuteMedian":0},"geometry":{"type":"Polygon","coordinates":[[[-119.08900564382652,46.24511508879623],[-119.08900564382652,46.25410829243348],[-119.08001244018928,46.25410829243348],[-119.08001244018928,46.24511508879623],[-119.08900564382652,46.24511508879623]]]}},{"type":"Feature","properties":{"jobs":660,"pop":0,"pointCount":1,"homeWorkCommuteMedian":-1,"workHomeCommuteMedian":0},"geometry":{"type":"Polygon","coordinates":[[[-119.08900564382652,46.25410829243348],[-119.08900564382652,46.263101496070725],[-119.08001244018928,46.263101496070725],[-119.08001244018928,46.25410829243348],[-119.08900564382652,46.25410829243348]]]}},{"type":"Feature","properties":{"jobs":2925,"pop":0,"pointCount":1,"homeWorkCommuteMedian":-1,"workHomeCommuteMedian":0},"geometry":{"type":"Polygon","coordinates":[[[-119.08900564382652,46.263101496070725],[-119.08900564382652,46.27209469970797],[-119.08001244018928,46.27209469970797],[-119.08001244018928,46.263101496070725],[-119.08900564382652,46.263101496070725]]]}},{"type":"Feature","properties":{"jobs":150,"pop":20,"pointCount":1,"homeWorkCommuteMedian":0,"workHomeCommuteMedian":0},"geometry":{"type":"Polygon","coordinates":[[[-119.08900564382652,46.3170607178942],[-119.08900564382652,46.32605392153145],[-119.08001244018928,46.32605392153145],[-119.08001244018928,46.3170607178942],[-119.08900564382652,46.3170607178942]]]}},{"type":"Feature","properties":{"jobs":0,"pop":20,"pointCount":1,"homeWorkCommuteMedian":0,"workHomeCommuteMedian":-1},"geometry":{"type":"Polygon","coordinates":[[[-119.08001244018928,46.13719664514928],[-119.08001244018928,46.14618984878653],[-119.07101923655203,46.14618984878653],[-119.07101923655203,46.13719664514928],[-119.08001244018928,46.13719664514928]]]}},{"type":"Feature","properties":{"jobs":175,"pop":510,"pointCount":1,"homeWorkCommuteMedian":0,"workHomeCommuteMedian":0},"geometry":{"type":"Polygon","coordinates":[[[-119.08001244018928,46.15518305242377],[-119.08001244018928,46.16417625606102],[-119.07101923655203,46.16417625606102],[-119.07101923655203,46.15518305242377],[-119.08001244018928,46.15518305242377]]]}},{"type":"Feature","properties":{"jobs":125,"pop":1680,"pointCount":1,"homeWorkCommuteMedian":0,"workHomeCommuteMedian":0},"geometry":{"type":"Polygon","coordinates":[[[-119.08001244018928,46.173169459698265],[-119.08001244018928,46.18216266333551],[-119.07101923655203,46.18216266333551],[-119.07101923655203,46.173169459698265],[-119.08001244018928,46.173169459698265]]]}},{"type":"Feature","properties":{"jobs":1335,"pop":265,"pointCount":1,"homeWorkCommuteMedian":0,"workHomeCommuteMedian":0},"geometry":{"type":"Polygon","coordinates":[[[-119.08001244018928,46.22712868152174],[-119.08001244018928,46.23612188515899],[-119.07101923655203,46.23612188515899],[-119.07101923655203,46.22712868152174],[-119.08001244018928,46.22712868152174]]]}},{"type":"Feature","properties":{"jobs":1320,"pop":1360,"pointCount":1,"homeWorkCommuteMedian":0,"workHomeCommuteMedian":0},"geometry":{"type":"Polygon","coordinates":[[[-119.08001244018928,46.23612188515899],[-119.08001244018928,46.24511508879623],[-119.07101923655203,46.24511508879623],[-119.07101923655203,46.23612188515899],[-119.08001244018928,46.23612188515899]]]}},{"type":"Feature","properties":{"jobs":2460,"pop":50,"pointCount":1,"homeWorkCommuteMedian":0,"workHomeCommuteMedian":0},"geometry":{"type":"Polygon","coordinates":[[[-119.08001244018928,46.24511508879623],[-119.08001244018928,46.25410829243348],[-119.07101923655203,46.25410829243348],[-119.07101923655203,46.24511508879623],[-119.08001244018928,46.24511508879623]]]}},{"type":"Feature","properties":{"jobs":275,"pop":835,"pointCount":1,"homeWorkCommuteMedian":0,"workHomeCommuteMedian":0},"geometry":{"type":"Polygon","coordinates":[[[-119.07101923655203,46.18216266333551],[-119.07101923655203,46.19115586697276],[-119.06202603291479,46.19115586697276],[-119.06202603291479,46.18216266333551],[-119.07101923655203,46.18216266333551]]]}},{"type":"Feature","properties":{"jobs":720,"pop":320,"pointCount":1,"homeWorkCommuteMedian":0,"workHomeCommuteMedian":0},"geometry":{"type":"Polygon","coordinates":[[[-119.07101923655203,46.19115586697276],[-119.07101923655203,46.20014907061],[-119.06202603291479,46.20014907061],[-119.06202603291479,46.19115586697276],[-119.07101923655203,46.19115586697276]]]}},{"type":"Feature","properties":{"jobs":985,"pop":680,"pointCount":1,"homeWorkCommuteMedian":0,"workHomeCommuteMedian":0},"geometry":{"type":"Polygon","coordinates":[[[-119.07101923655203,46.20914227424725],[-119.07101923655203,46.218135477884495],[-119.06202603291479,46.218135477884495],[-119.06202603291479,46.20914227424725],[-119.07101923655203,46.20914227424725]]]}},{"type":"Feature","properties":{"jobs":435,"pop":4645,"pointCount":1,"homeWorkCommuteMedian":0,"workHomeCommuteMedian":0},"geometry":{"type":"Polygon","coordinates":[[[-119.07101923655203,46.23612188515899],[-119.07101923655203,46.24511508879623],[-119.06202603291479,46.24511508879623],[-119.06202603291479,46.23612188515899],[-119.07101923655203,46.23612188515899]]]}},{"type":"Feature","properties":{"jobs":3145,"pop":0,"pointCount":1,"homeWorkCommuteMedian":-1,"workHomeCommuteMedian":0},"geometry":{"type":"Polygon","coordinates":[[[-119.07101923655203,46.25410829243348],[-119.07101923655203,46.263101496070725],[-119.06202603291479,46.263101496070725],[-119.06202603291479,46.25410829243348],[-119.07101923655203,46.25410829243348]]]}},{"type":"Feature","properties":{"jobs":0,"pop":10,"pointCount":1,"homeWorkCommuteMedian":0,"workHomeCommuteMedian":-1},"geometry":{"type":"Polygon","coordinates":[[[-119.07101923655203,46.3170607178942],[-119.07101923655203,46.32605392153145],[-119.06202603291479,46.32605392153145],[-119.06202603291479,46.3170607178942],[-119.07101923655203,46.3170607178942]]]}},{"type":"Feature","properties":{"jobs":20,"pop":290,"pointCount":1,"homeWorkCommuteMedian":0,"workHomeCommuteMedian":0},"geometry":{"type":"Polygon","coordinates":[[[-119.06202603291479,46.14618984878653],[-119.06202603291479,46.15518305242377],[-119.05303282927754,46.15518305242377],[-119.05303282927754,46.14618984878653],[-119.06202603291479,46.14618984878653]]]}},{"type":"Feature","properties":{"jobs":395,"pop":1810,"pointCount":1,"homeWorkCommuteMedian":0,"workHomeCommuteMedian":0},"geometry":{"type":"Polygon","coordinates":[[[-119.06202603291479,46.16417625606102],[-119.06202603291479,46.173169459698265],[-119.05303282927754,46.173169459698265],[-119.05303282927754,46.16417625606102],[-119.06202603291479,46.16417625606102]]]}},{"type":"Feature","properties":{"jobs":255,"pop":1435,"pointCount":1,"homeWorkCommuteMedian":0,"workHomeCommuteMedian":0},"geometry":{"type":"Polygon","coordinates":[[[-119.06202603291479,46.218135477884495],[-119.06202603291479,46.22712868152174],[-119.05303282927754,46.22712868152174],[-119.05303282927754,46.218135477884495],[-119.06202603291479,46.218135477884495]]]}},{"type":"Feature","properties":{"jobs":390,"pop":3990,"pointCount":1,"homeWorkCommuteMedian":0,"workHomeCommuteMedian":0},"geometry":{"type":"Polygon","coordinates":[[[-119.06202603291479,46.22712868152174],[-119.06202603291479,46.23612188515899],[-119.05303282927754,46.23612188515899],[-119.05303282927754,46.22712868152174],[-119.06202603291479,46.22712868152174]]]}},{"type":"Feature","properties":{"jobs":80,"pop":0,"pointCount":1,"homeWorkCommuteMedian":-1,"workHomeCommuteMedian":0},"geometry":{"type":"Polygon","coordinates":[[[-119.06202603291479,46.28108790334522],[-119.06202603291479,46.29008110698246],[-119.05303282927754,46.29008110698246],[-119.05303282927754,46.28108790334522],[-119.06202603291479,46.28108790334522]]]}},{"type":"Feature","properties":{"jobs":125,"pop":85,"pointCount":1,"homeWorkCommuteMedian":0,"workHomeCommuteMedian":0},"geometry":{"type":"Polygon","coordinates":[[[-119.05303282927754,46.128203441512035],[-119.05303282927754,46.13719664514928],[-119.0440396256403,46.13719664514928],[-119.0440396256403,46.128203441512035],[-119.05303282927754,46.128203441512035]]]}},{"type":"Feature","properties":{"jobs":40,"pop":1685,"pointCount":1,"homeWorkCommuteMedian":0,"workHomeCommuteMedian":0},"geometry":{"type":"Polygon","coordinates":[[[-119.05303282927754,46.15518305242377],[-119.05303282927754,46.16417625606102],[-119.0440396256403,46.16417625606102],[-119.0440396256403,46.15518305242377],[-119.05303282927754,46.15518305242377]]]}},{"type":"Feature","properties":{"jobs":25,"pop":355,"pointCount":1,"homeWorkCommuteMedian":0,"workHomeCommuteMedian":0},"geometry":{"type":"Polygon","coordinates":[[[-119.05303282927754,46.18216266333551],[-119.05303282927754,46.19115586697276],[-119.0440396256403,46.19115586697276],[-119.0440396256403,46.18216266333551],[-119.05303282927754,46.18216266333551]]]}},{"type":"Feature","properties":{"jobs":530,"pop":15,"pointCount":1,"homeWorkCommuteMedian":0,"workHomeCommuteMedian":0},"geometry":{"type":"Polygon","coordinates":[[[-119.05303282927754,46.23612188515899],[-119.05303282927754,46.24511508879623],[-119.0440396256403,46.24511508879623],[-119.0440396256403,46.23612188515899],[-119.05303282927754,46.23612188515899]]]}},{"type":"Feature","properties":{"jobs":315,"pop":435,"pointCount":1,"homeWorkCommuteMedian":0,"workHomeCommuteMedian":0},"geometry":{"type":"Polygon","coordinates":[[[-119.0440396256403,46.20914227424725],[-119.0440396256403,46.218135477884495],[-119.03504642200305,46.218135477884495],[-119.03504642200305,46.20914227424725],[-119.0440396256403,46.20914227424725]]]}},{"type":"Feature","properties":{"jobs":85,"pop":0,"pointCount":1,"homeWorkCommuteMedian":-1,"workHomeCommuteMedian":0},"geometry":{"type":"Polygon","coordinates":[[[-119.0440396256403,46.25410829243348],[-119.0440396256403,46.263101496070725],[-119.03504642200305,46.263101496070725],[-119.03504642200305,46.25410829243348],[-119.0440396256403,46.25410829243348]]]}},{"type":"Feature","properties":{"jobs":105,"pop":115,"pointCount":1,"homeWorkCommuteMedian":0,"workHomeCommuteMedian":0},"geometry":{"type":"Polygon","coordinates":[[[-119.03504642200305,46.128203441512035],[-119.03504642200305,46.13719664514928],[-119.0260532183658,46.13719664514928],[-119.0260532183658,46.128203441512035],[-119.03504642200305,46.128203441512035]]]}},{"type":"Feature","properties":{"jobs":120,"pop":560,"pointCount":1,"homeWorkCommuteMedian":0,"workHomeCommuteMedian":0},"geometry":{"type":"Polygon","coordinates":[[[-119.03504642200305,46.14618984878653],[-119.03504642200305,46.15518305242377],[-119.0260532183658,46.15518305242377],[-119.0260532183658,46.14618984878653],[-119.03504642200305,46.14618984878653]]]}},{"type":"Feature","properties":{"jobs":830,"pop":595,"pointCount":1,"homeWorkCommuteMedian":0,"workHomeCommuteMedian":0},"geometry":{"type":"Polygon","coordinates":[[[-119.03504642200305,46.15518305242377],[-119.03504642200305,46.16417625606102],[-119.0260532183658,46.16417625606102],[-119.0260532183658,46.15518305242377],[-119.03504642200305,46.15518305242377]]]}},{"type":"Feature","properties":{"jobs":45,"pop":0,"pointCount":1,"homeWorkCommuteMedian":-1,"workHomeCommuteMedian":0},"geometry":{"type":"Polygon","coordinates":[[[-119.03504642200305,46.27209469970797],[-119.03504642200305,46.28108790334522],[-119.0260532183658,46.28108790334522],[-119.0260532183658,46.27209469970797],[-119.03504642200305,46.27209469970797]]]}},{"type":"Feature","properties":{"jobs":100,"pop":50,"pointCount":1,"homeWorkCommuteMedian":0,"workHomeCommuteMedian":0},"geometry":{"type":"Polygon","coordinates":[[[-119.03504642200305,46.308067514256955],[-119.03504642200305,46.3170607178942],[-119.0260532183658,46.3170607178942],[-119.0260532183658,46.308067514256955],[-119.03504642200305,46.308067514256955]]]}},{"type":"Feature","properties":{"jobs":520,"pop":110,"pointCount":1,"homeWorkCommuteMedian":0,"workHomeCommuteMedian":0},"geometry":{"type":"Polygon","coordinates":[[[-119.0260532183658,46.16417625606102],[-119.0260532183658,46.173169459698265],[-119.01706001472856,46.173169459698265],[-119.01706001472856,46.16417625606102],[-119.0260532183658,46.16417625606102]]]}},{"type":"Feature","properties":{"jobs":380,"pop":100,"pointCount":1,"homeWorkCommuteMedian":0,"workHomeCommuteMedian":0},"geometry":{"type":"Polygon","coordinates":[[[-119.0260532183658,46.20014907061],[-119.0260532183658,46.20914227424725],[-119.01706001472856,46.20914227424725],[-119.01706001472856,46.20014907061],[-119.0260532183658,46.20014907061]]]}},{"type":"Feature","properties":{"jobs":0,"pop":30,"pointCount":1,"homeWorkCommuteMedian":0,"workHomeCommuteMedian":-1},"geometry":{"type":"Polygon","coordinates":[[[-119.0260532183658,46.29008110698246],[-119.0260532183658,46.29907431061971],[-119.01706001472856,46.29907431061971],[-119.01706001472856,46.29008110698246],[-119.0260532183658,46.29008110698246]]]}},{"type":"Feature","properties":{"jobs":30,"pop":150,"pointCount":1,"homeWorkCommuteMedian":0,"workHomeCommuteMedian":0},"geometry":{"type":"Polygon","coordinates":[[[-119.01706001472856,46.18216266333551],[-119.01706001472856,46.19115586697276],[-119.00806681109131,46.19115586697276],[-119.00806681109131,46.18216266333551],[-119.01706001472856,46.18216266333551]]]}},{"type":"Feature","properties":{"jobs":160,"pop":50,"pointCount":1,"homeWorkCommuteMedian":0,"workHomeCommuteMedian":0},"geometry":{"type":"Polygon","coordinates":[[[-119.01706001472856,46.23612188515899],[-119.01706001472856,46.24511508879623],[-119.00806681109131,46.24511508879623],[-119.00806681109131,46.23612188515899],[-119.01706001472856,46.23612188515899]]]}},{"type":"Feature","properties":{"jobs":515,"pop":25,"pointCount":1,"homeWorkCommuteMedian":0,"workHomeCommuteMedian":0},"geometry":{"type":"Polygon","coordinates":[[[-119.00806681109131,46.13719664514928],[-119.00806681109131,46.14618984878653],[-118.99907360745406,46.14618984878653],[-118.99907360745406,46.13719664514928],[-119.00806681109131,46.13719664514928]]]}},{"type":"Feature","properties":{"jobs":0,"pop":85,"pointCount":1,"homeWorkCommuteMedian":0,"workHomeCommuteMedian":-1},"geometry":{"type":"Polygon","coordinates":[[[-119.00806681109131,46.15518305242377],[-119.00806681109131,46.16417625606102],[-118.99907360745406,46.16417625606102],[-118.99907360745406,46.15518305242377],[-119.00806681109131,46.15518305242377]]]}},{"type":"Feature","properties":{"jobs":540,"pop":200,"pointCount":1,"homeWorkCommuteMedian":0,"workHomeCommuteMedian":0},"geometry":{"type":"Polygon","coordinates":[[[-119.00806681109131,46.19115586697276],[-119.00806681109131,46.20014907061],[-118.99907360745406,46.20014907061],[-118.99907360745406,46.19115586697276],[-119.00806681109131,46.19115586697276]]]}},{"type":"Feature","properties":{"jobs":360,"pop":445,"pointCount":1,"homeWorkCommuteMedian":0,"workHomeCommuteMedian":0},"geometry":{"type":"Polygon","coordinates":[[[-118.99907360745406,46.20014907061],[-118.99907360745406,46.20914227424725],[-118.99008040381682,46.20914227424725],[-118.99008040381682,46.20014907061],[-118.99907360745406,46.20014907061]]]}},{"type":"Feature","properties":{"jobs":0,"pop":10,"pointCount":1,"homeWorkCommuteMedian":0,"workHomeCommuteMedian":-1},"geometry":{"type":"Polygon","coordinates":[[[-118.99907360745406,46.263101496070725],[-118.99907360745406,46.27209469970797],[-118.99008040381682,46.27209469970797],[-118.99008040381682,46.263101496070725],[-118.99907360745406,46.263101496070725]]]}},{"type":"Feature","properties":{"jobs":2980,"pop":940,"pointCount":1,"homeWorkCommuteMedian":0,"workHomeCommuteMedian":0},"geometry":{"type":"Polygon","coordinates":[[[-118.99008040381682,46.19115586697276],[-118.99008040381682,46.20014907061],[-118.98108720017957,46.20014907061],[-118.98108720017957,46.19115586697276],[-118.99008040381682,46.19115586697276]]]}},{"type":"Feature","properties":{"jobs":570,"pop":40,"pointCount":1,"homeWorkCommuteMedian":0,"workHomeCommuteMedian":0},"geometry":{"type":"Polygon","coordinates":[[[-118.99008040381682,46.24511508879623],[-118.99008040381682,46.25410829243348],[-118.98108720017957,46.25410829243348],[-118.98108720017957,46.24511508879623],[-118.99008040381682,46.24511508879623]]]}},{"type":"Feature","properties":{"jobs":15,"pop":60,"pointCount":1,"homeWorkCommuteMedian":0,"workHomeCommuteMedian":0},"geometry":{"type":"Polygon","coordinates":[[[-118.99008040381682,46.29008110698246],[-118.99008040381682,46.29907431061971],[-118.98108720017957,46.29907431061971],[-118.98108720017957,46.29008110698246],[-118.99008040381682,46.29008110698246]]]}},{"type":"Feature","properties":{"jobs":140,"pop":310,"pointCount":1,"homeWorkCommuteMedian":0,"workHomeCommuteMedian":0},"geometry":{"type":"Polygon","coordinates":[[[-118.98108720017957,46.218135477884495],[-118.98108720017957,46.22712868152174],[-118.97209399654233,46.22712868152174],[-118.97209399654233,46.218135477884495],[-118.98108720017957,46.218135477884495]]]}},{"type":"Feature","properties":{"jobs":145,"pop":125,"pointCount":1,"homeWorkCommuteMedian":0,"workHomeCommuteMedian":0},"geometry":{"type":"Polygon","coordinates":[[[-118.97209399654233,46.173169459698265],[-118.97209399654233,46.18216266333551],[-118.96310079290508,46.18216266333551],[-118.96310079290508,46.173169459698265],[-118.97209399654233,46.173169459698265]]]}},{"type":"Feature","properties":{"jobs":0,"pop":50,"pointCount":1,"homeWorkCommuteMedian":0,"workHomeCommuteMedian":-1},"geometry":{"type":"Polygon","coordinates":[[[-118.97209399654233,46.23612188515899],[-118.97209399654233,46.24511508879623],[-118.96310079290508,46.24511508879623],[-118.96310079290508,46.23612188515899],[-118.97209399654233,46.23612188515899]]]}},{"type":"Feature","properties":{"jobs":0,"pop":20,"pointCount":1,"homeWorkCommuteMedian":0,"workHomeCommuteMedian":-1},"geometry":{"type":"Polygon","coordinates":[[[-118.97209399654233,46.29907431061971],[-118.97209399654233,46.308067514256955],[-118.96310079290508,46.308067514256955],[-118.96310079290508,46.29907431061971],[-118.97209399654233,46.29907431061971]]]}},{"type":"Feature","properties":{"jobs":45,"pop":0,"pointCount":1,"homeWorkCommuteMedian":-1,"workHomeCommuteMedian":0},"geometry":{"type":"Polygon","coordinates":[[[-118.96310079290508,46.20014907061],[-118.96310079290508,46.20914227424725],[-118.95410758926784,46.20914227424725],[-118.95410758926784,46.20014907061],[-118.96310079290508,46.20014907061]]]}},{"type":"Feature","properties":{"jobs":20,"pop":150,"pointCount":1,"homeWorkCommuteMedian":0,"workHomeCommuteMedian":0},"geometry":{"type":"Polygon","coordinates":[[[-118.96310079290508,46.25410829243348],[-118.96310079290508,46.263101496070725],[-118.95410758926784,46.263101496070725],[-118.95410758926784,46.25410829243348],[-118.96310079290508,46.25410829243348]]]}},{"type":"Feature","properties":{"jobs":5,"pop":0,"pointCount":1,"homeWorkCommuteMedian":-1,"workHomeCommuteMedian":0},"geometry":{"type":"Polygon","coordinates":[[[-118.95410758926784,46.173169459698265],[-118.95410758926784,46.18216266333551],[-118.94511438563059,46.18216266333551],[-118.94511438563059,46.173169459698265],[-118.95410758926784,46.173169459698265]]]}},{"type":"Feature","properties":{"jobs":75,"pop":5,"pointCount":1,"homeWorkCommuteMedian":0,"workHomeCommuteMedian":0},"geometry":{"type":"Polygon","coordinates":[[[-118.94511438563059,46.20014907061],[-118.94511438563059,46.20914227424725],[-118.93612118199334,46.20914227424725],[-118.93612118199334,46.20014907061],[-118.94511438563059,46.20014907061]]]}},{"type":"Feature","properties":{"jobs":0,"pop":30,"pointCount":1,"homeWorkCommuteMedian":0,"workHomeCommuteMedian":-1},"geometry":{"type":"Polygon","coordinates":[[[-118.94511438563059,46.22712868152174],[-118.94511438563059,46.23612188515899],[-118.93612118199334,46.23612188515899],[-118.93612118199334,46.22712868152174],[-118.94511438563059,46.22712868152174]]]}},{"type":"Feature","properties":{"jobs":25,"pop":0,"pointCount":1,"homeWorkCommuteMedian":-1,"workHomeCommuteMedian":0},"geometry":{"type":"Polygon","coordinates":[[[-118.91813477471885,46.13719664514928],[-118.91813477471885,46.14618984878653],[-118.9091415710816,46.14618984878653],[-118.9091415710816,46.13719664514928],[-118.91813477471885,46.13719664514928]]]}}],"properties":{"residentWeightedNearestNeighborKm":{"p10":0.3872261292855209,"p25":0.48044011088541694,"p50":0.5814542937027098,"p75":0.7288051681288831,"p90":0.9880671085241535,"mean":0.6509751317355995},"workerWeightedNearestNeighborKm":{"p10":0.2799553342928899,"p25":0.36645732719173485,"p50":0.45065071848395577,"p75":0.7102303328253915,"p90":1.0117130450397538,"mean":0.6098556939333337},"commuteDistanceKm":{"p10":0,"p25":0,"p50":0,"p75":0,"p90":0,"mean":0},"residentCellDensity":{"p10":40,"p25":190,"p50":820,"p75":2060,"p90":3845,"mean":1539.5089285714287},"workerCellDensity":{"p10":45,"p25":150,"p50":530,"p75":1490,"p90":3290,"mean":1439.322033898305},"detail":{"radiusKm":0.5118913900650286,"expectedPointSpacingKm":0.8700132624983811,"normalizedRadius":0.5883719388311981,"activityPerPoint":1064.7384615384615,"playableAreaKm2":596,"playableAreaPerPointKm2":1.833846153846154,"playableCatchmentRadiusKm":0.7640231413441294,"localityScore":0.45002937376088736,"deaggregationScore":0.5269062240311477,"score":0.4869530552645206},"polycentrism":{"activity":{"score":0.9911051243621525,"continuousScore":0.5361471432370449,"detectedCenterCount":3,"effectiveCenterCount":2.9475635770941966,"largestCenterShare":0.38555513813431974,"bandwidthKm":1.3,"reliabilityScore":1,"supportLevel":"high","usedFallback":false,"topCenters":[{"longitude":-119.1077929198665,"latitude":46.226245839952846,"massShare":0.38555513813431974,"assignedMass":266835,"assignedPointCount":137,"prominenceRatio":0.9999999999995778},{"longitude":-119.21336703416054,"latitude":46.21928714370941,"massShare":0.3375476823488614,"assignedMass":233610,"assignedPointCount":119,"prominenceRatio":1},{"longitude":-119.275429858662,"latitude":46.28286910906384,"massShare":0.27689717951681886,"assignedMass":191635,"assignedPointCount":69,"prominenceRatio":0.9999999957256059}],"debug":{"rawPeakCount":14,"mergedPeakCount":13,"filteredPeakCount":3,"prominenceThreshold":0.22,"minPointsPerCenter":10,"rejectedCenters":[{"longitude":-119.14484411827533,"latitude":46.198358363003706,"massShare":0.20069934111663393,"assignedMass":138900,"assignedPointCount":52,"prominenceRatio":0.9999999292924063,"strongestCompetitorDistanceKm":7.471800343580483,"strongestCompetitorPotential":54792.04966012802,"localConsolidatedShare":0.3637946480175702,"localConsolidatedMass":251775,"localContributorCount":2,"localContributorDistancesKm":[4.992162885554658],"rejectionReasons":["too_close_for_protected_share_center"]},{"longitude":-119.18203776617635,"latitude":46.26882008573248,"massShare":0.13130707432666744,"assignedMass":90875,"assignedPointCount":34,"prominenceRatio":0.9999983053384066,"strongestCompetitorDistanceKm":6.767593100554765,"strongestCompetitorPotential":54792.04966012802,"localConsolidatedShare":0.13130707432666744,"localConsolidatedMass":90875,"localContributorCount":1,"localContributorDistancesKm":[],"rejectionReasons":["not_dominant_local_peak","too_close_for_low_share_center"]},{"longitude":-119.29123697582793,"latitude":46.24216883185118,"massShare":0.08600161831002197,"assignedMass":59520,"assignedPointCount":26,"prominenceRatio":0.9926006864891616,"strongestCompetitorDistanceKm":4.222754911751068,"strongestCompetitorPotential":53527.983433423135,"localConsolidatedShare":0.08600161831002197,"localConsolidatedMass":59520,"localContributorCount":1,"localContributorDistancesKm":[],"rejectionReasons":["not_dominant_local_peak","too_close_for_low_share_center"]},{"longitude":-118.90843604665025,"latitude":46.24361857207732,"massShare":0.008221592879435904,"assignedMass":5690,"assignedPointCount":2,"prominenceRatio":1,"strongestCompetitorDistanceKm":14.900260958162779,"strongestCompetitorPotential":48814.95905462407,"localConsolidatedShare":0.008221592879435904,"localConsolidatedMass":5690,"localContributorCount":1,"localContributorDistancesKm":[],"rejectionReasons":["below_min_points_per_center"]},{"longitude":-119.05193694242072,"latitude":46.168068053520116,"massShare":0.01876228181713097,"assignedMass":12985,"assignedPointCount":15,"prominenceRatio":0.9999999631558861,"strongestCompetitorDistanceKm":8.079957865007634,"strongestCompetitorPotential":48814.95905462407,"localConsolidatedShare":0.01876228181713097,"localConsolidatedMass":12985,"localContributorCount":1,"localContributorDistancesKm":[],"rejectionReasons":["below_secondary_share_floor"]},{"longitude":-118.99087113333103,"latitude":46.19903584161877,"massShare":0.010201132817015374,"assignedMass":7060,"assignedPointCount":11,"prominenceRatio":0.9999999999976391,"strongestCompetitorDistanceKm":9.90958762956088,"strongestCompetitorPotential":48814.95905462407,"localConsolidatedShare":0.010201132817015374,"localConsolidatedMass":7060,"localContributorCount":1,"localContributorDistancesKm":[],"rejectionReasons":["below_secondary_share_floor"]},{"longitude":-119.11499992311829,"latitude":46.30519548010753,"massShare":0.005375101144376373,"assignedMass":3720,"assignedPointCount":7,"prominenceRatio":0.9999997425476055,"strongestCompetitorDistanceKm":7.79985894667923,"strongestCompetitorPotential":48814.95905462407,"localConsolidatedShare":0.005375101144376373,"localConsolidatedMass":3720,"localContributorCount":1,"localContributorDistancesKm":[],"rejectionReasons":["below_min_points_per_center"]},{"longitude":-118.98931627476627,"latitude":46.25312913329816,"massShare":0.0016905560050861173,"assignedMass":1170,"assignedPointCount":7,"prominenceRatio":0.9999999960036575,"strongestCompetitorDistanceKm":8.930085978905263,"strongestCompetitorPotential":48814.95905462407,"localConsolidatedShare":0.0016905560050861173,"localConsolidatedMass":1170,"localContributorCount":1,"localContributorDistancesKm":[],"rejectionReasons":["below_min_points_per_center"]},{"longitude":-118.92367372098767,"latitude":46.12815501728395,"massShare":0.0005851924632990405,"assignedMass":405,"assignedPointCount":2,"prominenceRatio":1,"strongestCompetitorDistanceKm":18.342582531515674,"strongestCompetitorPotential":48814.95905462407,"localConsolidatedShare":0.0005851924632990405,"localConsolidatedMass":405,"localContributorCount":1,"localContributorDistancesKm":[],"rejectionReasons":["below_min_points_per_center"]},{"longitude":-119.02181738633335,"latitude":46.31012046188889,"massShare":0.00028898393249335335,"assignedMass":200,"assignedPointCount":3,"prominenceRatio":0.9999999999835564,"strongestCompetitorDistanceKm":10.166174883358774,"strongestCompetitorPotential":48814.95905462407,"localConsolidatedShare":0.00028898393249335335,"localConsolidatedMass":200,"localContributorCount":1,"localContributorDistancesKm":[],"rejectionReasons":["below_min_points_per_center"]}]}}}}}
