{"type":"FeatureCollection","features":[{"type":"Feature","properties":{"jobs":0,"pop":451,"pointCount":1,"homeWorkCommuteMedian":7005,"workHomeCommuteMedian":-1},"geometry":{"type":"Polygon","coordinates":[[[4.257478954534433,50.82322409272552],[4.257478954534433,50.832217296362764],[4.266472158171678,50.832217296362764],[4.266472158171678,50.82322409272552],[4.257478954534433,50.82322409272552]]]}},{"type":"Feature","properties":{"jobs":7988,"pop":304,"pointCount":1,"homeWorkCommuteMedian":5000,"workHomeCommuteMedian":5282},"geometry":{"type":"Polygon","coordinates":[[[4.266472158171678,50.805237685451026],[4.266472158171678,50.81423088908827],[4.275465361808923,50.81423088908827],[4.275465361808923,50.805237685451026],[4.266472158171678,50.805237685451026]]]}},{"type":"Feature","properties":{"jobs":2740,"pop":103,"pointCount":1,"homeWorkCommuteMedian":5566,"workHomeCommuteMedian":4410},"geometry":{"type":"Polygon","coordinates":[[[4.266472158171678,50.81423088908827],[4.266472158171678,50.82322409272552],[4.275465361808923,50.82322409272552],[4.275465361808923,50.81423088908827],[4.266472158171678,50.81423088908827]]]}},{"type":"Feature","properties":{"jobs":5262,"pop":112,"pointCount":1,"homeWorkCommuteMedian":6204,"workHomeCommuteMedian":4276},"geometry":{"type":"Polygon","coordinates":[[[4.266472158171678,50.832217296362764],[4.266472158171678,50.84121050000001],[4.275465361808923,50.84121050000001],[4.275465361808923,50.832217296362764],[4.266472158171678,50.832217296362764]]]}},{"type":"Feature","properties":{"jobs":8378,"pop":54,"pointCount":1,"homeWorkCommuteMedian":3862,"workHomeCommuteMedian":3801},"geometry":{"type":"Polygon","coordinates":[[[4.275465361808923,50.805237685451026],[4.275465361808923,50.81423088908827],[4.284458565446168,50.81423088908827],[4.284458565446168,50.805237685451026],[4.275465361808923,50.805237685451026]]]}},{"type":"Feature","properties":{"jobs":4142,"pop":3657,"pointCount":2,"homeWorkCommuteMedian":5514,"workHomeCommuteMedian":2909},"geometry":{"type":"Polygon","coordinates":[[[4.275465361808923,50.81423088908827],[4.275465361808923,50.82322409272552],[4.284458565446168,50.82322409272552],[4.284458565446168,50.81423088908827],[4.275465361808923,50.81423088908827]]]}},{"type":"Feature","properties":{"jobs":268,"pop":2238,"pointCount":2,"homeWorkCommuteMedian":5133,"workHomeCommuteMedian":5331},"geometry":{"type":"Polygon","coordinates":[[[4.275465361808923,50.82322409272552],[4.275465361808923,50.832217296362764],[4.284458565446168,50.832217296362764],[4.284458565446168,50.82322409272552],[4.275465361808923,50.82322409272552]]]}},{"type":"Feature","properties":{"jobs":1154,"pop":1887,"pointCount":2,"homeWorkCommuteMedian":5552,"workHomeCommuteMedian":2891},"geometry":{"type":"Polygon","coordinates":[[[4.275465361808923,50.832217296362764],[4.275465361808923,50.84121050000001],[4.284458565446168,50.84121050000001],[4.284458565446168,50.832217296362764],[4.275465361808923,50.832217296362764]]]}},{"type":"Feature","properties":{"jobs":823,"pop":2177,"pointCount":1,"homeWorkCommuteMedian":5190,"workHomeCommuteMedian":5296},"geometry":{"type":"Polygon","coordinates":[[[4.275465361808923,50.8591969072745],[4.275465361808923,50.86819011091175],[4.284458565446168,50.86819011091175],[4.284458565446168,50.8591969072745],[4.275465361808923,50.8591969072745]]]}},{"type":"Feature","properties":{"jobs":10942,"pop":8,"pointCount":1,"homeWorkCommuteMedian":2400,"workHomeCommuteMedian":2979},"geometry":{"type":"Polygon","coordinates":[[[4.284458565446168,50.805237685451026],[4.284458565446168,50.81423088908827],[4.293451769083413,50.81423088908827],[4.293451769083413,50.805237685451026],[4.284458565446168,50.805237685451026]]]}},{"type":"Feature","properties":{"jobs":886,"pop":3162,"pointCount":1,"homeWorkCommuteMedian":6153,"workHomeCommuteMedian":3934},"geometry":{"type":"Polygon","coordinates":[[[4.284458565446168,50.81423088908827],[4.284458565446168,50.82322409272552],[4.293451769083413,50.82322409272552],[4.293451769083413,50.81423088908827],[4.284458565446168,50.81423088908827]]]}},{"type":"Feature","properties":{"jobs":542,"pop":6854,"pointCount":5,"homeWorkCommuteMedian":5170,"workHomeCommuteMedian":3805},"geometry":{"type":"Polygon","coordinates":[[[4.284458565446168,50.82322409272552],[4.284458565446168,50.832217296362764],[4.293451769083413,50.832217296362764],[4.293451769083413,50.82322409272552],[4.284458565446168,50.82322409272552]]]}},{"type":"Feature","properties":{"jobs":2053,"pop":6149,"pointCount":4,"homeWorkCommuteMedian":5192,"workHomeCommuteMedian":4275},"geometry":{"type":"Polygon","coordinates":[[[4.284458565446168,50.832217296362764],[4.284458565446168,50.84121050000001],[4.293451769083413,50.84121050000001],[4.293451769083413,50.832217296362764],[4.284458565446168,50.832217296362764]]]}},{"type":"Feature","properties":{"jobs":304,"pop":3492,"pointCount":2,"homeWorkCommuteMedian":4606,"workHomeCommuteMedian":3040},"geometry":{"type":"Polygon","coordinates":[[[4.284458565446168,50.84121050000001],[4.284458565446168,50.850203703637256],[4.293451769083413,50.850203703637256],[4.293451769083413,50.84121050000001],[4.284458565446168,50.84121050000001]]]}},{"type":"Feature","properties":{"jobs":24,"pop":258,"pointCount":2,"homeWorkCommuteMedian":5305,"workHomeCommuteMedian":11013},"geometry":{"type":"Polygon","coordinates":[[[4.284458565446168,50.850203703637256],[4.284458565446168,50.8591969072745],[4.293451769083413,50.8591969072745],[4.293451769083413,50.850203703637256],[4.284458565446168,50.850203703637256]]]}},{"type":"Feature","properties":{"jobs":64,"pop":4057,"pointCount":3,"homeWorkCommuteMedian":5599,"workHomeCommuteMedian":6058},"geometry":{"type":"Polygon","coordinates":[[[4.284458565446168,50.8591969072745],[4.284458565446168,50.86819011091175],[4.293451769083413,50.86819011091175],[4.293451769083413,50.8591969072745],[4.284458565446168,50.8591969072745]]]}},{"type":"Feature","properties":{"jobs":31920,"pop":2882,"pointCount":4,"homeWorkCommuteMedian":4195,"workHomeCommuteMedian":4632},"geometry":{"type":"Polygon","coordinates":[[[4.284458565446168,50.86819011091175],[4.284458565446168,50.877183314548994],[4.293451769083413,50.877183314548994],[4.293451769083413,50.86819011091175],[4.284458565446168,50.86819011091175]]]}},{"type":"Feature","properties":{"jobs":1134,"pop":14,"pointCount":1,"homeWorkCommuteMedian":6392,"workHomeCommuteMedian":7057},"geometry":{"type":"Polygon","coordinates":[[[4.293451769083413,50.805237685451026],[4.293451769083413,50.81423088908827],[4.302444972720658,50.81423088908827],[4.302444972720658,50.805237685451026],[4.293451769083413,50.805237685451026]]]}},{"type":"Feature","properties":{"jobs":1605,"pop":4749,"pointCount":3,"homeWorkCommuteMedian":3899,"workHomeCommuteMedian":4436},"geometry":{"type":"Polygon","coordinates":[[[4.293451769083413,50.81423088908827],[4.293451769083413,50.82322409272552],[4.302444972720658,50.82322409272552],[4.302444972720658,50.81423088908827],[4.293451769083413,50.81423088908827]]]}},{"type":"Feature","properties":{"jobs":822,"pop":10692,"pointCount":6,"homeWorkCommuteMedian":3457,"workHomeCommuteMedian":2958},"geometry":{"type":"Polygon","coordinates":[[[4.293451769083413,50.82322409272552],[4.293451769083413,50.832217296362764],[4.302444972720658,50.832217296362764],[4.302444972720658,50.82322409272552],[4.293451769083413,50.82322409272552]]]}},{"type":"Feature","properties":{"jobs":306,"pop":6308,"pointCount":4,"homeWorkCommuteMedian":4310,"workHomeCommuteMedian":2912},"geometry":{"type":"Polygon","coordinates":[[[4.293451769083413,50.832217296362764],[4.293451769083413,50.84121050000001],[4.302444972720658,50.84121050000001],[4.302444972720658,50.832217296362764],[4.293451769083413,50.832217296362764]]]}},{"type":"Feature","properties":{"jobs":774,"pop":7193,"pointCount":5,"homeWorkCommuteMedian":3285,"workHomeCommuteMedian":3087},"geometry":{"type":"Polygon","coordinates":[[[4.293451769083413,50.84121050000001],[4.293451769083413,50.850203703637256],[4.302444972720658,50.850203703637256],[4.302444972720658,50.84121050000001],[4.293451769083413,50.84121050000001]]]}},{"type":"Feature","properties":{"jobs":14,"pop":1562,"pointCount":2,"homeWorkCommuteMedian":5451,"workHomeCommuteMedian":4212},"geometry":{"type":"Polygon","coordinates":[[[4.293451769083413,50.850203703637256],[4.293451769083413,50.8591969072745],[4.302444972720658,50.8591969072745],[4.302444972720658,50.850203703637256],[4.293451769083413,50.850203703637256]]]}},{"type":"Feature","properties":{"jobs":917,"pop":10703,"pointCount":5,"homeWorkCommuteMedian":4500,"workHomeCommuteMedian":4463},"geometry":{"type":"Polygon","coordinates":[[[4.293451769083413,50.8591969072745],[4.293451769083413,50.86819011091175],[4.302444972720658,50.86819011091175],[4.302444972720658,50.8591969072745],[4.293451769083413,50.8591969072745]]]}},{"type":"Feature","properties":{"jobs":1857,"pop":3372,"pointCount":3,"homeWorkCommuteMedian":6445,"workHomeCommuteMedian":2159},"geometry":{"type":"Polygon","coordinates":[[[4.293451769083413,50.86819011091175],[4.293451769083413,50.877183314548994],[4.302444972720658,50.877183314548994],[4.302444972720658,50.86819011091175],[4.293451769083413,50.86819011091175]]]}},{"type":"Feature","properties":{"jobs":2322,"pop":3,"pointCount":1,"homeWorkCommuteMedian":8839,"workHomeCommuteMedian":3764},"geometry":{"type":"Polygon","coordinates":[[[4.293451769083413,50.877183314548994],[4.293451769083413,50.88617651818624],[4.302444972720658,50.88617651818624],[4.302444972720658,50.877183314548994],[4.293451769083413,50.877183314548994]]]}},{"type":"Feature","properties":{"jobs":5410,"pop":61,"pointCount":1,"homeWorkCommuteMedian":6468,"workHomeCommuteMedian":4977},"geometry":{"type":"Polygon","coordinates":[[[4.302444972720658,50.79624448181378],[4.302444972720658,50.805237685451026],[4.311438176357903,50.805237685451026],[4.311438176357903,50.79624448181378],[4.302444972720658,50.79624448181378]]]}},{"type":"Feature","properties":{"jobs":1234,"pop":7233,"pointCount":4,"homeWorkCommuteMedian":4411,"workHomeCommuteMedian":2418},"geometry":{"type":"Polygon","coordinates":[[[4.302444972720658,50.82322409272552],[4.302444972720658,50.832217296362764],[4.311438176357903,50.832217296362764],[4.311438176357903,50.82322409272552],[4.302444972720658,50.82322409272552]]]}},{"type":"Feature","properties":{"jobs":3215,"pop":12006,"pointCount":7,"homeWorkCommuteMedian":4197,"workHomeCommuteMedian":3576},"geometry":{"type":"Polygon","coordinates":[[[4.302444972720658,50.832217296362764],[4.302444972720658,50.84121050000001],[4.311438176357903,50.84121050000001],[4.311438176357903,50.832217296362764],[4.302444972720658,50.832217296362764]]]}},{"type":"Feature","properties":{"jobs":1516,"pop":16126,"pointCount":5,"homeWorkCommuteMedian":3382,"workHomeCommuteMedian":2800},"geometry":{"type":"Polygon","coordinates":[[[4.302444972720658,50.84121050000001],[4.302444972720658,50.850203703637256],[4.311438176357903,50.850203703637256],[4.311438176357903,50.84121050000001],[4.302444972720658,50.84121050000001]]]}},{"type":"Feature","properties":{"jobs":973,"pop":13858,"pointCount":5,"homeWorkCommuteMedian":4096,"workHomeCommuteMedian":5667},"geometry":{"type":"Polygon","coordinates":[[[4.302444972720658,50.850203703637256],[4.302444972720658,50.8591969072745],[4.311438176357903,50.8591969072745],[4.311438176357903,50.850203703637256],[4.302444972720658,50.850203703637256]]]}},{"type":"Feature","properties":{"jobs":746,"pop":9692,"pointCount":4,"homeWorkCommuteMedian":3592,"workHomeCommuteMedian":1571},"geometry":{"type":"Polygon","coordinates":[[[4.302444972720658,50.8591969072745],[4.302444972720658,50.86819011091175],[4.311438176357903,50.86819011091175],[4.311438176357903,50.8591969072745],[4.302444972720658,50.8591969072745]]]}},{"type":"Feature","properties":{"jobs":1370,"pop":10292,"pointCount":6,"homeWorkCommuteMedian":6476,"workHomeCommuteMedian":2652},"geometry":{"type":"Polygon","coordinates":[[[4.302444972720658,50.86819011091175],[4.302444972720658,50.877183314548994],[4.311438176357903,50.877183314548994],[4.311438176357903,50.86819011091175],[4.302444972720658,50.86819011091175]]]}},{"type":"Feature","properties":{"jobs":17067,"pop":22,"pointCount":1,"homeWorkCommuteMedian":5494,"workHomeCommuteMedian":3683},"geometry":{"type":"Polygon","coordinates":[[[4.302444972720658,50.877183314548994],[4.302444972720658,50.88617651818624],[4.311438176357903,50.88617651818624],[4.311438176357903,50.877183314548994],[4.302444972720658,50.877183314548994]]]}},{"type":"Feature","properties":{"jobs":2183,"pop":22,"pointCount":1,"homeWorkCommuteMedian":5965,"workHomeCommuteMedian":3401},"geometry":{"type":"Polygon","coordinates":[[[4.302444972720658,50.88617651818624],[4.302444972720658,50.895169721823486],[4.311438176357903,50.895169721823486],[4.311438176357903,50.88617651818624],[4.302444972720658,50.88617651818624]]]}},{"type":"Feature","properties":{"jobs":14409,"pop":3547,"pointCount":4,"homeWorkCommuteMedian":4753,"workHomeCommuteMedian":3300},"geometry":{"type":"Polygon","coordinates":[[[4.311438176357903,50.79624448181378],[4.311438176357903,50.805237685451026],[4.320431379995148,50.805237685451026],[4.320431379995148,50.79624448181378],[4.311438176357903,50.79624448181378]]]}},{"type":"Feature","properties":{"jobs":1094,"pop":5594,"pointCount":3,"homeWorkCommuteMedian":4513,"workHomeCommuteMedian":7810},"geometry":{"type":"Polygon","coordinates":[[[4.311438176357903,50.805237685451026],[4.311438176357903,50.81423088908827],[4.320431379995148,50.81423088908827],[4.320431379995148,50.805237685451026],[4.311438176357903,50.805237685451026]]]}},{"type":"Feature","properties":{"jobs":7303,"pop":1626,"pointCount":1,"homeWorkCommuteMedian":4296,"workHomeCommuteMedian":2518},"geometry":{"type":"Polygon","coordinates":[[[4.311438176357903,50.81423088908827],[4.311438176357903,50.82322409272552],[4.320431379995148,50.82322409272552],[4.320431379995148,50.81423088908827],[4.311438176357903,50.81423088908827]]]}},{"type":"Feature","properties":{"jobs":5185,"pop":1474,"pointCount":1,"homeWorkCommuteMedian":4836,"workHomeCommuteMedian":2849},"geometry":{"type":"Polygon","coordinates":[[[4.311438176357903,50.82322409272552],[4.311438176357903,50.832217296362764],[4.320431379995148,50.832217296362764],[4.320431379995148,50.82322409272552],[4.311438176357903,50.82322409272552]]]}},{"type":"Feature","properties":{"jobs":913,"pop":7232,"pointCount":3,"homeWorkCommuteMedian":4385,"workHomeCommuteMedian":5795},"geometry":{"type":"Polygon","coordinates":[[[4.311438176357903,50.832217296362764],[4.311438176357903,50.84121050000001],[4.320431379995148,50.84121050000001],[4.320431379995148,50.832217296362764],[4.311438176357903,50.832217296362764]]]}},{"type":"Feature","properties":{"jobs":1076,"pop":7539,"pointCount":5,"homeWorkCommuteMedian":3792,"workHomeCommuteMedian":4013},"geometry":{"type":"Polygon","coordinates":[[[4.311438176357903,50.84121050000001],[4.311438176357903,50.850203703637256],[4.320431379995148,50.850203703637256],[4.320431379995148,50.84121050000001],[4.311438176357903,50.84121050000001]]]}},{"type":"Feature","properties":{"jobs":2075,"pop":9688,"pointCount":6,"homeWorkCommuteMedian":3332,"workHomeCommuteMedian":2862},"geometry":{"type":"Polygon","coordinates":[[[4.311438176357903,50.850203703637256],[4.311438176357903,50.8591969072745],[4.320431379995148,50.8591969072745],[4.320431379995148,50.850203703637256],[4.311438176357903,50.850203703637256]]]}},{"type":"Feature","properties":{"jobs":185,"pop":4998,"pointCount":4,"homeWorkCommuteMedian":3056,"workHomeCommuteMedian":5211},"geometry":{"type":"Polygon","coordinates":[[[4.311438176357903,50.8591969072745],[4.311438176357903,50.86819011091175],[4.320431379995148,50.86819011091175],[4.320431379995148,50.8591969072745],[4.311438176357903,50.8591969072745]]]}},{"type":"Feature","properties":{"jobs":1105,"pop":7947,"pointCount":6,"homeWorkCommuteMedian":5788,"workHomeCommuteMedian":3232},"geometry":{"type":"Polygon","coordinates":[[[4.311438176357903,50.86819011091175],[4.311438176357903,50.877183314548994],[4.320431379995148,50.877183314548994],[4.320431379995148,50.86819011091175],[4.311438176357903,50.86819011091175]]]}},{"type":"Feature","properties":{"jobs":279,"pop":3052,"pointCount":3,"homeWorkCommuteMedian":3503,"workHomeCommuteMedian":5020},"geometry":{"type":"Polygon","coordinates":[[[4.311438176357903,50.877183314548994],[4.311438176357903,50.88617651818624],[4.320431379995148,50.88617651818624],[4.320431379995148,50.877183314548994],[4.311438176357903,50.877183314548994]]]}},{"type":"Feature","properties":{"jobs":2734,"pop":6162,"pointCount":2,"homeWorkCommuteMedian":5338,"workHomeCommuteMedian":4137},"geometry":{"type":"Polygon","coordinates":[[[4.311438176357903,50.88617651818624],[4.311438176357903,50.895169721823486],[4.320431379995148,50.895169721823486],[4.320431379995148,50.88617651818624],[4.311438176357903,50.88617651818624]]]}},{"type":"Feature","properties":{"jobs":9127,"pop":3212,"pointCount":2,"homeWorkCommuteMedian":7842,"workHomeCommuteMedian":5271},"geometry":{"type":"Polygon","coordinates":[[[4.320431379995148,50.77825807453929],[4.320431379995148,50.787251278176534],[4.3294245836323935,50.787251278176534],[4.3294245836323935,50.77825807453929],[4.320431379995148,50.77825807453929]]]}},{"type":"Feature","properties":{"jobs":812,"pop":3106,"pointCount":2,"homeWorkCommuteMedian":1675,"workHomeCommuteMedian":5667},"geometry":{"type":"Polygon","coordinates":[[[4.320431379995148,50.787251278176534],[4.320431379995148,50.79624448181378],[4.3294245836323935,50.79624448181378],[4.3294245836323935,50.787251278176534],[4.320431379995148,50.787251278176534]]]}},{"type":"Feature","properties":{"jobs":1716,"pop":7238,"pointCount":5,"homeWorkCommuteMedian":3244,"workHomeCommuteMedian":3947},"geometry":{"type":"Polygon","coordinates":[[[4.320431379995148,50.79624448181378],[4.320431379995148,50.805237685451026],[4.3294245836323935,50.805237685451026],[4.3294245836323935,50.79624448181378],[4.320431379995148,50.79624448181378]]]}},{"type":"Feature","properties":{"jobs":440,"pop":6060,"pointCount":7,"homeWorkCommuteMedian":3473,"workHomeCommuteMedian":4884},"geometry":{"type":"Polygon","coordinates":[[[4.320431379995148,50.805237685451026],[4.320431379995148,50.81423088908827],[4.3294245836323935,50.81423088908827],[4.3294245836323935,50.805237685451026],[4.320431379995148,50.805237685451026]]]}},{"type":"Feature","properties":{"jobs":840,"pop":7484,"pointCount":4,"homeWorkCommuteMedian":3537,"workHomeCommuteMedian":3770},"geometry":{"type":"Polygon","coordinates":[[[4.320431379995148,50.81423088908827],[4.320431379995148,50.82322409272552],[4.3294245836323935,50.82322409272552],[4.3294245836323935,50.81423088908827],[4.320431379995148,50.81423088908827]]]}},{"type":"Feature","properties":{"jobs":813,"pop":948,"pointCount":3,"homeWorkCommuteMedian":4212,"workHomeCommuteMedian":4301},"geometry":{"type":"Polygon","coordinates":[[[4.320431379995148,50.82322409272552],[4.320431379995148,50.832217296362764],[4.3294245836323935,50.832217296362764],[4.3294245836323935,50.82322409272552],[4.320431379995148,50.82322409272552]]]}},{"type":"Feature","properties":{"jobs":2267,"pop":7589,"pointCount":4,"homeWorkCommuteMedian":4723,"workHomeCommuteMedian":3673},"geometry":{"type":"Polygon","coordinates":[[[4.320431379995148,50.832217296362764],[4.320431379995148,50.84121050000001],[4.3294245836323935,50.84121050000001],[4.3294245836323935,50.832217296362764],[4.320431379995148,50.832217296362764]]]}},{"type":"Feature","properties":{"jobs":2960,"pop":4358,"pointCount":4,"homeWorkCommuteMedian":4589,"workHomeCommuteMedian":4604},"geometry":{"type":"Polygon","coordinates":[[[4.320431379995148,50.84121050000001],[4.320431379995148,50.850203703637256],[4.3294245836323935,50.850203703637256],[4.3294245836323935,50.84121050000001],[4.320431379995148,50.84121050000001]]]}},{"type":"Feature","properties":{"jobs":2544,"pop":11383,"pointCount":6,"homeWorkCommuteMedian":4276,"workHomeCommuteMedian":2654},"geometry":{"type":"Polygon","coordinates":[[[4.320431379995148,50.850203703637256],[4.320431379995148,50.8591969072745],[4.3294245836323935,50.8591969072745],[4.3294245836323935,50.850203703637256],[4.320431379995148,50.850203703637256]]]}},{"type":"Feature","properties":{"jobs":1420,"pop":9669,"pointCount":4,"homeWorkCommuteMedian":2742,"workHomeCommuteMedian":3042},"geometry":{"type":"Polygon","coordinates":[[[4.320431379995148,50.8591969072745],[4.320431379995148,50.86819011091175],[4.3294245836323935,50.86819011091175],[4.3294245836323935,50.8591969072745],[4.320431379995148,50.8591969072745]]]}},{"type":"Feature","properties":{"jobs":11513,"pop":12390,"pointCount":4,"homeWorkCommuteMedian":3507,"workHomeCommuteMedian":2453},"geometry":{"type":"Polygon","coordinates":[[[4.320431379995148,50.86819011091175],[4.320431379995148,50.877183314548994],[4.3294245836323935,50.877183314548994],[4.3294245836323935,50.86819011091175],[4.320431379995148,50.86819011091175]]]}},{"type":"Feature","properties":{"jobs":3173,"pop":8901,"pointCount":4,"homeWorkCommuteMedian":6145,"workHomeCommuteMedian":2999},"geometry":{"type":"Polygon","coordinates":[[[4.320431379995148,50.877183314548994],[4.320431379995148,50.88617651818624],[4.3294245836323935,50.88617651818624],[4.3294245836323935,50.877183314548994],[4.320431379995148,50.877183314548994]]]}},{"type":"Feature","properties":{"jobs":287,"pop":5940,"pointCount":3,"homeWorkCommuteMedian":6619,"workHomeCommuteMedian":6577},"geometry":{"type":"Polygon","coordinates":[[[4.320431379995148,50.88617651818624],[4.320431379995148,50.895169721823486],[4.3294245836323935,50.895169721823486],[4.3294245836323935,50.88617651818624],[4.320431379995148,50.88617651818624]]]}},{"type":"Feature","properties":{"jobs":8514,"pop":3670,"pointCount":1,"homeWorkCommuteMedian":4602,"workHomeCommuteMedian":4156},"geometry":{"type":"Polygon","coordinates":[[[4.320431379995148,50.895169721823486],[4.320431379995148,50.90416292546073],[4.3294245836323935,50.90416292546073],[4.3294245836323935,50.895169721823486],[4.320431379995148,50.895169721823486]]]}},{"type":"Feature","properties":{"jobs":364,"pop":2181,"pointCount":3,"homeWorkCommuteMedian":4623,"workHomeCommuteMedian":6346},"geometry":{"type":"Polygon","coordinates":[[[4.3294245836323935,50.77825807453929],[4.3294245836323935,50.787251278176534],[4.338417787269639,50.787251278176534],[4.338417787269639,50.77825807453929],[4.3294245836323935,50.77825807453929]]]}},{"type":"Feature","properties":{"jobs":504,"pop":1224,"pointCount":1,"homeWorkCommuteMedian":2495,"workHomeCommuteMedian":4371},"geometry":{"type":"Polygon","coordinates":[[[4.3294245836323935,50.787251278176534],[4.3294245836323935,50.79624448181378],[4.338417787269639,50.79624448181378],[4.338417787269639,50.787251278176534],[4.3294245836323935,50.787251278176534]]]}},{"type":"Feature","properties":{"jobs":2643,"pop":5229,"pointCount":3,"homeWorkCommuteMedian":3255,"workHomeCommuteMedian":2170},"geometry":{"type":"Polygon","coordinates":[[[4.3294245836323935,50.79624448181378],[4.3294245836323935,50.805237685451026],[4.338417787269639,50.805237685451026],[4.338417787269639,50.79624448181378],[4.3294245836323935,50.79624448181378]]]}},{"type":"Feature","properties":{"jobs":716,"pop":9544,"pointCount":5,"homeWorkCommuteMedian":4710,"workHomeCommuteMedian":4100},"geometry":{"type":"Polygon","coordinates":[[[4.3294245836323935,50.805237685451026],[4.3294245836323935,50.81423088908827],[4.338417787269639,50.81423088908827],[4.338417787269639,50.805237685451026],[4.3294245836323935,50.805237685451026]]]}},{"type":"Feature","properties":{"jobs":1832,"pop":8530,"pointCount":7,"homeWorkCommuteMedian":3604,"workHomeCommuteMedian":2678},"geometry":{"type":"Polygon","coordinates":[[[4.3294245836323935,50.81423088908827],[4.3294245836323935,50.82322409272552],[4.338417787269639,50.82322409272552],[4.338417787269639,50.81423088908827],[4.3294245836323935,50.81423088908827]]]}},{"type":"Feature","properties":{"jobs":4379,"pop":14234,"pointCount":4,"homeWorkCommuteMedian":3777,"workHomeCommuteMedian":3345},"geometry":{"type":"Polygon","coordinates":[[[4.3294245836323935,50.82322409272552],[4.3294245836323935,50.832217296362764],[4.338417787269639,50.832217296362764],[4.338417787269639,50.82322409272552],[4.3294245836323935,50.82322409272552]]]}},{"type":"Feature","properties":{"jobs":5193,"pop":13845,"pointCount":7,"homeWorkCommuteMedian":3136,"workHomeCommuteMedian":3086},"geometry":{"type":"Polygon","coordinates":[[[4.3294245836323935,50.832217296362764],[4.3294245836323935,50.84121050000001],[4.338417787269639,50.84121050000001],[4.338417787269639,50.832217296362764],[4.3294245836323935,50.832217296362764]]]}},{"type":"Feature","properties":{"jobs":2613,"pop":9181,"pointCount":4,"homeWorkCommuteMedian":3186,"workHomeCommuteMedian":4185},"geometry":{"type":"Polygon","coordinates":[[[4.3294245836323935,50.84121050000001],[4.3294245836323935,50.850203703637256],[4.338417787269639,50.850203703637256],[4.338417787269639,50.84121050000001],[4.3294245836323935,50.84121050000001]]]}},{"type":"Feature","properties":{"jobs":2826,"pop":19608,"pointCount":7,"homeWorkCommuteMedian":3124,"workHomeCommuteMedian":3017},"geometry":{"type":"Polygon","coordinates":[[[4.3294245836323935,50.850203703637256],[4.3294245836323935,50.8591969072745],[4.338417787269639,50.8591969072745],[4.338417787269639,50.850203703637256],[4.3294245836323935,50.850203703637256]]]}},{"type":"Feature","properties":{"jobs":3306,"pop":14354,"pointCount":4,"homeWorkCommuteMedian":4264,"workHomeCommuteMedian":1940},"geometry":{"type":"Polygon","coordinates":[[[4.3294245836323935,50.8591969072745],[4.3294245836323935,50.86819011091175],[4.338417787269639,50.86819011091175],[4.338417787269639,50.8591969072745],[4.3294245836323935,50.8591969072745]]]}},{"type":"Feature","properties":{"jobs":7581,"pop":15014,"pointCount":3,"homeWorkCommuteMedian":4785,"workHomeCommuteMedian":2385},"geometry":{"type":"Polygon","coordinates":[[[4.3294245836323935,50.86819011091175],[4.3294245836323935,50.877183314548994],[4.338417787269639,50.877183314548994],[4.338417787269639,50.86819011091175],[4.3294245836323935,50.86819011091175]]]}},{"type":"Feature","properties":{"jobs":2027,"pop":10080,"pointCount":3,"homeWorkCommuteMedian":3206,"workHomeCommuteMedian":4617},"geometry":{"type":"Polygon","coordinates":[[[4.3294245836323935,50.877183314548994],[4.3294245836323935,50.88617651818624],[4.338417787269639,50.88617651818624],[4.338417787269639,50.877183314548994],[4.3294245836323935,50.877183314548994]]]}},{"type":"Feature","properties":{"jobs":3096,"pop":5910,"pointCount":2,"homeWorkCommuteMedian":6542,"workHomeCommuteMedian":3922},"geometry":{"type":"Polygon","coordinates":[[[4.3294245836323935,50.88617651818624],[4.3294245836323935,50.895169721823486],[4.338417787269639,50.895169721823486],[4.338417787269639,50.88617651818624],[4.3294245836323935,50.88617651818624]]]}},{"type":"Feature","properties":{"jobs":7063,"pop":1306,"pointCount":1,"homeWorkCommuteMedian":4151,"workHomeCommuteMedian":5386},"geometry":{"type":"Polygon","coordinates":[[[4.3294245836323935,50.895169721823486],[4.3294245836323935,50.90416292546073],[4.338417787269639,50.90416292546073],[4.338417787269639,50.895169721823486],[4.3294245836323935,50.895169721823486]]]}},{"type":"Feature","properties":{"jobs":0,"pop":617,"pointCount":1,"homeWorkCommuteMedian":3609,"workHomeCommuteMedian":-1},"geometry":{"type":"Polygon","coordinates":[[[4.338417787269639,50.77825807453929],[4.338417787269639,50.787251278176534],[4.347410990906884,50.787251278176534],[4.347410990906884,50.77825807453929],[4.338417787269639,50.77825807453929]]]}},{"type":"Feature","properties":{"jobs":777,"pop":4127,"pointCount":1,"homeWorkCommuteMedian":4966,"workHomeCommuteMedian":5616},"geometry":{"type":"Polygon","coordinates":[[[4.338417787269639,50.787251278176534],[4.338417787269639,50.79624448181378],[4.347410990906884,50.79624448181378],[4.347410990906884,50.787251278176534],[4.338417787269639,50.787251278176534]]]}},{"type":"Feature","properties":{"jobs":1718,"pop":6002,"pointCount":3,"homeWorkCommuteMedian":4208,"workHomeCommuteMedian":3784},"geometry":{"type":"Polygon","coordinates":[[[4.338417787269639,50.79624448181378],[4.338417787269639,50.805237685451026],[4.347410990906884,50.805237685451026],[4.347410990906884,50.79624448181378],[4.338417787269639,50.79624448181378]]]}},{"type":"Feature","properties":{"jobs":2441,"pop":7336,"pointCount":2,"homeWorkCommuteMedian":4297,"workHomeCommuteMedian":3194},"geometry":{"type":"Polygon","coordinates":[[[4.338417787269639,50.805237685451026],[4.338417787269639,50.81423088908827],[4.347410990906884,50.81423088908827],[4.347410990906884,50.805237685451026],[4.338417787269639,50.805237685451026]]]}},{"type":"Feature","properties":{"jobs":1591,"pop":6096,"pointCount":3,"homeWorkCommuteMedian":3418,"workHomeCommuteMedian":3708},"geometry":{"type":"Polygon","coordinates":[[[4.338417787269639,50.81423088908827],[4.338417787269639,50.82322409272552],[4.347410990906884,50.82322409272552],[4.347410990906884,50.81423088908827],[4.338417787269639,50.81423088908827]]]}},{"type":"Feature","properties":{"jobs":6261,"pop":18391,"pointCount":9,"homeWorkCommuteMedian":2805,"workHomeCommuteMedian":3222},"geometry":{"type":"Polygon","coordinates":[[[4.338417787269639,50.82322409272552],[4.338417787269639,50.832217296362764],[4.347410990906884,50.832217296362764],[4.347410990906884,50.82322409272552],[4.338417787269639,50.82322409272552]]]}},{"type":"Feature","properties":{"jobs":10244,"pop":11200,"pointCount":5,"homeWorkCommuteMedian":3155,"workHomeCommuteMedian":3310},"geometry":{"type":"Polygon","coordinates":[[[4.338417787269639,50.832217296362764],[4.338417787269639,50.84121050000001],[4.347410990906884,50.84121050000001],[4.347410990906884,50.832217296362764],[4.338417787269639,50.832217296362764]]]}},{"type":"Feature","properties":{"jobs":11441,"pop":14429,"pointCount":4,"homeWorkCommuteMedian":1815,"workHomeCommuteMedian":2990},"geometry":{"type":"Polygon","coordinates":[[[4.338417787269639,50.84121050000001],[4.338417787269639,50.850203703637256],[4.347410990906884,50.850203703637256],[4.347410990906884,50.84121050000001],[4.338417787269639,50.84121050000001]]]}},{"type":"Feature","properties":{"jobs":8222,"pop":12506,"pointCount":6,"homeWorkCommuteMedian":5110,"workHomeCommuteMedian":3295},"geometry":{"type":"Polygon","coordinates":[[[4.338417787269639,50.850203703637256],[4.338417787269639,50.8591969072745],[4.347410990906884,50.8591969072745],[4.347410990906884,50.850203703637256],[4.338417787269639,50.850203703637256]]]}},{"type":"Feature","properties":{"jobs":5208,"pop":9170,"pointCount":3,"homeWorkCommuteMedian":2322,"workHomeCommuteMedian":3151},"geometry":{"type":"Polygon","coordinates":[[[4.338417787269639,50.8591969072745],[4.338417787269639,50.86819011091175],[4.347410990906884,50.86819011091175],[4.347410990906884,50.8591969072745],[4.338417787269639,50.8591969072745]]]}},{"type":"Feature","properties":{"jobs":5213,"pop":14911,"pointCount":3,"homeWorkCommuteMedian":3618,"workHomeCommuteMedian":3288},"geometry":{"type":"Polygon","coordinates":[[[4.338417787269639,50.86819011091175],[4.338417787269639,50.877183314548994],[4.347410990906884,50.877183314548994],[4.347410990906884,50.86819011091175],[4.338417787269639,50.86819011091175]]]}},{"type":"Feature","properties":{"jobs":1402,"pop":5355,"pointCount":1,"homeWorkCommuteMedian":3349,"workHomeCommuteMedian":3543},"geometry":{"type":"Polygon","coordinates":[[[4.338417787269639,50.877183314548994],[4.338417787269639,50.88617651818624],[4.347410990906884,50.88617651818624],[4.347410990906884,50.877183314548994],[4.338417787269639,50.877183314548994]]]}},{"type":"Feature","properties":{"jobs":3143,"pop":5502,"pointCount":1,"homeWorkCommuteMedian":5997,"workHomeCommuteMedian":4600},"geometry":{"type":"Polygon","coordinates":[[[4.338417787269639,50.88617651818624],[4.338417787269639,50.895169721823486],[4.347410990906884,50.895169721823486],[4.347410990906884,50.88617651818624],[4.338417787269639,50.88617651818624]]]}},{"type":"Feature","properties":{"jobs":6299,"pop":180,"pointCount":1,"homeWorkCommuteMedian":3983,"workHomeCommuteMedian":4032},"geometry":{"type":"Polygon","coordinates":[[[4.338417787269639,50.895169721823486],[4.338417787269639,50.90416292546073],[4.347410990906884,50.90416292546073],[4.347410990906884,50.895169721823486],[4.338417787269639,50.895169721823486]]]}},{"type":"Feature","properties":{"jobs":0,"pop":738,"pointCount":1,"homeWorkCommuteMedian":3729,"workHomeCommuteMedian":-1},"geometry":{"type":"Polygon","coordinates":[[[4.347410990906884,50.77825807453929],[4.347410990906884,50.787251278176534],[4.356404194544129,50.787251278176534],[4.356404194544129,50.77825807453929],[4.347410990906884,50.77825807453929]]]}},{"type":"Feature","properties":{"jobs":628,"pop":2581,"pointCount":1,"homeWorkCommuteMedian":2359,"workHomeCommuteMedian":1987},"geometry":{"type":"Polygon","coordinates":[[[4.347410990906884,50.787251278176534],[4.347410990906884,50.79624448181378],[4.356404194544129,50.79624448181378],[4.356404194544129,50.787251278176534],[4.347410990906884,50.787251278176534]]]}},{"type":"Feature","properties":{"jobs":0,"pop":2261,"pointCount":1,"homeWorkCommuteMedian":2957,"workHomeCommuteMedian":-1},"geometry":{"type":"Polygon","coordinates":[[[4.347410990906884,50.79624448181378],[4.347410990906884,50.805237685451026],[4.356404194544129,50.805237685451026],[4.356404194544129,50.79624448181378],[4.347410990906884,50.79624448181378]]]}},{"type":"Feature","properties":{"jobs":851,"pop":5440,"pointCount":3,"homeWorkCommuteMedian":3913,"workHomeCommuteMedian":5946},"geometry":{"type":"Polygon","coordinates":[[[4.347410990906884,50.805237685451026],[4.347410990906884,50.81423088908827],[4.356404194544129,50.81423088908827],[4.356404194544129,50.805237685451026],[4.347410990906884,50.805237685451026]]]}},{"type":"Feature","properties":{"jobs":3197,"pop":8564,"pointCount":4,"homeWorkCommuteMedian":2887,"workHomeCommuteMedian":2318},"geometry":{"type":"Polygon","coordinates":[[[4.347410990906884,50.81423088908827],[4.347410990906884,50.82322409272552],[4.356404194544129,50.82322409272552],[4.356404194544129,50.81423088908827],[4.347410990906884,50.81423088908827]]]}},{"type":"Feature","properties":{"jobs":8143,"pop":13403,"pointCount":6,"homeWorkCommuteMedian":3680,"workHomeCommuteMedian":3462},"geometry":{"type":"Polygon","coordinates":[[[4.347410990906884,50.82322409272552],[4.347410990906884,50.832217296362764],[4.356404194544129,50.832217296362764],[4.356404194544129,50.82322409272552],[4.347410990906884,50.82322409272552]]]}},{"type":"Feature","properties":{"jobs":11526,"pop":10056,"pointCount":6,"homeWorkCommuteMedian":4291,"workHomeCommuteMedian":3801},"geometry":{"type":"Polygon","coordinates":[[[4.347410990906884,50.832217296362764],[4.347410990906884,50.84121050000001],[4.356404194544129,50.84121050000001],[4.356404194544129,50.832217296362764],[4.347410990906884,50.832217296362764]]]}},{"type":"Feature","properties":{"jobs":83087,"pop":6407,"pointCount":5,"homeWorkCommuteMedian":1573,"workHomeCommuteMedian":3262},"geometry":{"type":"Polygon","coordinates":[[[4.347410990906884,50.84121050000001],[4.347410990906884,50.850203703637256],[4.356404194544129,50.850203703637256],[4.356404194544129,50.84121050000001],[4.347410990906884,50.84121050000001]]]}},{"type":"Feature","properties":{"jobs":15591,"pop":8695,"pointCount":5,"homeWorkCommuteMedian":2975,"workHomeCommuteMedian":2732},"geometry":{"type":"Polygon","coordinates":[[[4.347410990906884,50.850203703637256],[4.347410990906884,50.8591969072745],[4.356404194544129,50.8591969072745],[4.356404194544129,50.850203703637256],[4.347410990906884,50.850203703637256]]]}},{"type":"Feature","properties":{"jobs":8463,"pop":6840,"pointCount":5,"homeWorkCommuteMedian":4071,"workHomeCommuteMedian":3303},"geometry":{"type":"Polygon","coordinates":[[[4.347410990906884,50.8591969072745],[4.347410990906884,50.86819011091175],[4.356404194544129,50.86819011091175],[4.356404194544129,50.8591969072745],[4.347410990906884,50.8591969072745]]]}},{"type":"Feature","properties":{"jobs":9898,"pop":13114,"pointCount":2,"homeWorkCommuteMedian":4516,"workHomeCommuteMedian":3378},"geometry":{"type":"Polygon","coordinates":[[[4.347410990906884,50.86819011091175],[4.347410990906884,50.877183314548994],[4.356404194544129,50.877183314548994],[4.356404194544129,50.86819011091175],[4.347410990906884,50.86819011091175]]]}},{"type":"Feature","properties":{"jobs":1626,"pop":4001,"pointCount":3,"homeWorkCommuteMedian":4576,"workHomeCommuteMedian":2975},"geometry":{"type":"Polygon","coordinates":[[[4.347410990906884,50.877183314548994],[4.347410990906884,50.88617651818624],[4.356404194544129,50.88617651818624],[4.356404194544129,50.877183314548994],[4.347410990906884,50.877183314548994]]]}},{"type":"Feature","properties":{"jobs":14217,"pop":3405,"pointCount":2,"homeWorkCommuteMedian":4764,"workHomeCommuteMedian":4414},"geometry":{"type":"Polygon","coordinates":[[[4.347410990906884,50.895169721823486],[4.347410990906884,50.90416292546073],[4.356404194544129,50.90416292546073],[4.356404194544129,50.895169721823486],[4.347410990906884,50.895169721823486]]]}},{"type":"Feature","properties":{"jobs":643,"pop":2773,"pointCount":1,"homeWorkCommuteMedian":12845,"workHomeCommuteMedian":2962},"geometry":{"type":"Polygon","coordinates":[[[4.356404194544129,50.787251278176534],[4.356404194544129,50.79624448181378],[4.365397398181374,50.79624448181378],[4.365397398181374,50.787251278176534],[4.356404194544129,50.787251278176534]]]}},{"type":"Feature","properties":{"jobs":3563,"pop":3593,"pointCount":3,"homeWorkCommuteMedian":3917,"workHomeCommuteMedian":1695},"geometry":{"type":"Polygon","coordinates":[[[4.356404194544129,50.79624448181378],[4.356404194544129,50.805237685451026],[4.365397398181374,50.805237685451026],[4.365397398181374,50.79624448181378],[4.356404194544129,50.79624448181378]]]}},{"type":"Feature","properties":{"jobs":1011,"pop":8217,"pointCount":2,"homeWorkCommuteMedian":3392,"workHomeCommuteMedian":4716},"geometry":{"type":"Polygon","coordinates":[[[4.356404194544129,50.805237685451026],[4.356404194544129,50.81423088908827],[4.365397398181374,50.81423088908827],[4.365397398181374,50.805237685451026],[4.356404194544129,50.805237685451026]]]}},{"type":"Feature","properties":{"jobs":6782,"pop":10008,"pointCount":4,"homeWorkCommuteMedian":3581,"workHomeCommuteMedian":2149},"geometry":{"type":"Polygon","coordinates":[[[4.356404194544129,50.81423088908827],[4.356404194544129,50.82322409272552],[4.365397398181374,50.82322409272552],[4.365397398181374,50.81423088908827],[4.356404194544129,50.81423088908827]]]}},{"type":"Feature","properties":{"jobs":5055,"pop":9793,"pointCount":7,"homeWorkCommuteMedian":3556,"workHomeCommuteMedian":3376},"geometry":{"type":"Polygon","coordinates":[[[4.356404194544129,50.82322409272552],[4.356404194544129,50.832217296362764],[4.365397398181374,50.832217296362764],[4.365397398181374,50.82322409272552],[4.356404194544129,50.82322409272552]]]}},{"type":"Feature","properties":{"jobs":35839,"pop":7584,"pointCount":5,"homeWorkCommuteMedian":2533,"workHomeCommuteMedian":2830},"geometry":{"type":"Polygon","coordinates":[[[4.356404194544129,50.832217296362764],[4.356404194544129,50.84121050000001],[4.365397398181374,50.84121050000001],[4.365397398181374,50.832217296362764],[4.356404194544129,50.832217296362764]]]}},{"type":"Feature","properties":{"jobs":15681,"pop":143,"pointCount":4,"homeWorkCommuteMedian":3193,"workHomeCommuteMedian":3268},"geometry":{"type":"Polygon","coordinates":[[[4.356404194544129,50.84121050000001],[4.356404194544129,50.850203703637256],[4.365397398181374,50.850203703637256],[4.365397398181374,50.84121050000001],[4.356404194544129,50.84121050000001]]]}},{"type":"Feature","properties":{"jobs":17242,"pop":4342,"pointCount":8,"homeWorkCommuteMedian":4518,"workHomeCommuteMedian":3115},"geometry":{"type":"Polygon","coordinates":[[[4.356404194544129,50.850203703637256],[4.356404194544129,50.8591969072745],[4.365397398181374,50.8591969072745],[4.365397398181374,50.850203703637256],[4.356404194544129,50.850203703637256]]]}},{"type":"Feature","properties":{"jobs":5646,"pop":13209,"pointCount":4,"homeWorkCommuteMedian":2183,"workHomeCommuteMedian":3633},"geometry":{"type":"Polygon","coordinates":[[[4.356404194544129,50.8591969072745],[4.356404194544129,50.86819011091175],[4.365397398181374,50.86819011091175],[4.365397398181374,50.8591969072745],[4.356404194544129,50.8591969072745]]]}},{"type":"Feature","properties":{"jobs":3220,"pop":1118,"pointCount":1,"homeWorkCommuteMedian":5026,"workHomeCommuteMedian":5008},"geometry":{"type":"Polygon","coordinates":[[[4.356404194544129,50.86819011091175],[4.356404194544129,50.877183314548994],[4.365397398181374,50.877183314548994],[4.365397398181374,50.86819011091175],[4.356404194544129,50.86819011091175]]]}},{"type":"Feature","properties":{"jobs":153,"pop":2235,"pointCount":2,"homeWorkCommuteMedian":3568,"workHomeCommuteMedian":5351},"geometry":{"type":"Polygon","coordinates":[[[4.356404194544129,50.877183314548994],[4.356404194544129,50.88617651818624],[4.365397398181374,50.88617651818624],[4.365397398181374,50.877183314548994],[4.356404194544129,50.877183314548994]]]}},{"type":"Feature","properties":{"jobs":499,"pop":5720,"pointCount":1,"homeWorkCommuteMedian":799,"workHomeCommuteMedian":6997},"geometry":{"type":"Polygon","coordinates":[[[4.356404194544129,50.88617651818624],[4.356404194544129,50.895169721823486],[4.365397398181374,50.895169721823486],[4.365397398181374,50.88617651818624],[4.356404194544129,50.88617651818624]]]}},{"type":"Feature","properties":{"jobs":3365,"pop":946,"pointCount":1,"homeWorkCommuteMedian":6482,"workHomeCommuteMedian":3584},"geometry":{"type":"Polygon","coordinates":[[[4.356404194544129,50.895169721823486],[4.356404194544129,50.90416292546073],[4.365397398181374,50.90416292546073],[4.365397398181374,50.895169721823486],[4.356404194544129,50.895169721823486]]]}},{"type":"Feature","properties":{"jobs":874,"pop":3277,"pointCount":1,"homeWorkCommuteMedian":5341,"workHomeCommuteMedian":4671},"geometry":{"type":"Polygon","coordinates":[[[4.365397398181374,50.77825807453929],[4.365397398181374,50.787251278176534],[4.374390601818619,50.787251278176534],[4.374390601818619,50.77825807453929],[4.365397398181374,50.77825807453929]]]}},{"type":"Feature","properties":{"jobs":5,"pop":2658,"pointCount":2,"homeWorkCommuteMedian":3632,"workHomeCommuteMedian":7969},"geometry":{"type":"Polygon","coordinates":[[[4.365397398181374,50.787251278176534],[4.365397398181374,50.79624448181378],[4.374390601818619,50.79624448181378],[4.374390601818619,50.787251278176534],[4.365397398181374,50.787251278176534]]]}},{"type":"Feature","properties":{"jobs":342,"pop":1010,"pointCount":2,"homeWorkCommuteMedian":4631,"workHomeCommuteMedian":3749},"geometry":{"type":"Polygon","coordinates":[[[4.365397398181374,50.79624448181378],[4.365397398181374,50.805237685451026],[4.374390601818619,50.805237685451026],[4.374390601818619,50.79624448181378],[4.365397398181374,50.79624448181378]]]}},{"type":"Feature","properties":{"jobs":161,"pop":1502,"pointCount":1,"homeWorkCommuteMedian":3435,"workHomeCommuteMedian":5262},"geometry":{"type":"Polygon","coordinates":[[[4.365397398181374,50.805237685451026],[4.365397398181374,50.81423088908827],[4.374390601818619,50.81423088908827],[4.374390601818619,50.805237685451026],[4.365397398181374,50.805237685451026]]]}},{"type":"Feature","properties":{"jobs":4738,"pop":6920,"pointCount":5,"homeWorkCommuteMedian":3377,"workHomeCommuteMedian":2315},"geometry":{"type":"Polygon","coordinates":[[[4.365397398181374,50.81423088908827],[4.365397398181374,50.82322409272552],[4.374390601818619,50.82322409272552],[4.374390601818619,50.81423088908827],[4.365397398181374,50.81423088908827]]]}},{"type":"Feature","properties":{"jobs":8686,"pop":10151,"pointCount":6,"homeWorkCommuteMedian":4117,"workHomeCommuteMedian":2760},"geometry":{"type":"Polygon","coordinates":[[[4.365397398181374,50.82322409272552],[4.365397398181374,50.832217296362764],[4.374390601818619,50.832217296362764],[4.374390601818619,50.82322409272552],[4.365397398181374,50.82322409272552]]]}},{"type":"Feature","properties":{"jobs":15881,"pop":9471,"pointCount":5,"homeWorkCommuteMedian":2131,"workHomeCommuteMedian":3392},"geometry":{"type":"Polygon","coordinates":[[[4.365397398181374,50.832217296362764],[4.365397398181374,50.84121050000001],[4.374390601818619,50.84121050000001],[4.374390601818619,50.832217296362764],[4.365397398181374,50.832217296362764]]]}},{"type":"Feature","properties":{"jobs":51737,"pop":7195,"pointCount":6,"homeWorkCommuteMedian":2389,"workHomeCommuteMedian":2855},"geometry":{"type":"Polygon","coordinates":[[[4.365397398181374,50.84121050000001],[4.365397398181374,50.850203703637256],[4.374390601818619,50.850203703637256],[4.374390601818619,50.84121050000001],[4.365397398181374,50.84121050000001]]]}},{"type":"Feature","properties":{"jobs":9905,"pop":15540,"pointCount":5,"homeWorkCommuteMedian":4676,"workHomeCommuteMedian":2805},"geometry":{"type":"Polygon","coordinates":[[[4.365397398181374,50.850203703637256],[4.365397398181374,50.8591969072745],[4.374390601818619,50.8591969072745],[4.374390601818619,50.850203703637256],[4.365397398181374,50.850203703637256]]]}},{"type":"Feature","properties":{"jobs":4052,"pop":13732,"pointCount":4,"homeWorkCommuteMedian":4032,"workHomeCommuteMedian":2919},"geometry":{"type":"Polygon","coordinates":[[[4.365397398181374,50.8591969072745],[4.365397398181374,50.86819011091175],[4.374390601818619,50.86819011091175],[4.374390601818619,50.8591969072745],[4.365397398181374,50.8591969072745]]]}},{"type":"Feature","properties":{"jobs":339,"pop":1541,"pointCount":1,"homeWorkCommuteMedian":4442,"workHomeCommuteMedian":3809},"geometry":{"type":"Polygon","coordinates":[[[4.365397398181374,50.86819011091175],[4.365397398181374,50.877183314548994],[4.374390601818619,50.877183314548994],[4.374390601818619,50.86819011091175],[4.365397398181374,50.86819011091175]]]}},{"type":"Feature","properties":{"jobs":168,"pop":1901,"pointCount":2,"homeWorkCommuteMedian":3004,"workHomeCommuteMedian":2791},"geometry":{"type":"Polygon","coordinates":[[[4.365397398181374,50.88617651818624],[4.365397398181374,50.895169721823486],[4.374390601818619,50.895169721823486],[4.374390601818619,50.88617651818624],[4.365397398181374,50.88617651818624]]]}},{"type":"Feature","properties":{"jobs":417,"pop":2449,"pointCount":1,"homeWorkCommuteMedian":4275,"workHomeCommuteMedian":7960},"geometry":{"type":"Polygon","coordinates":[[[4.365397398181374,50.895169721823486],[4.365397398181374,50.90416292546073],[4.374390601818619,50.90416292546073],[4.374390601818619,50.895169721823486],[4.365397398181374,50.895169721823486]]]}},{"type":"Feature","properties":{"jobs":135,"pop":338,"pointCount":1,"homeWorkCommuteMedian":3786,"workHomeCommuteMedian":4628},"geometry":{"type":"Polygon","coordinates":[[[4.374390601818619,50.77825807453929],[4.374390601818619,50.787251278176534],[4.383383805455864,50.787251278176534],[4.383383805455864,50.77825807453929],[4.374390601818619,50.77825807453929]]]}},{"type":"Feature","properties":{"jobs":2209,"pop":3960,"pointCount":3,"homeWorkCommuteMedian":5691,"workHomeCommuteMedian":4036},"geometry":{"type":"Polygon","coordinates":[[[4.374390601818619,50.787251278176534],[4.374390601818619,50.79624448181378],[4.383383805455864,50.79624448181378],[4.383383805455864,50.787251278176534],[4.374390601818619,50.787251278176534]]]}},{"type":"Feature","properties":{"jobs":0,"pop":360,"pointCount":1,"homeWorkCommuteMedian":4747,"workHomeCommuteMedian":-1},"geometry":{"type":"Polygon","coordinates":[[[4.374390601818619,50.79624448181378],[4.374390601818619,50.805237685451026],[4.383383805455864,50.805237685451026],[4.383383805455864,50.79624448181378],[4.374390601818619,50.79624448181378]]]}},{"type":"Feature","properties":{"jobs":2653,"pop":8928,"pointCount":2,"homeWorkCommuteMedian":2593,"workHomeCommuteMedian":3693},"geometry":{"type":"Polygon","coordinates":[[[4.374390601818619,50.805237685451026],[4.374390601818619,50.81423088908827],[4.383383805455864,50.81423088908827],[4.383383805455864,50.805237685451026],[4.374390601818619,50.805237685451026]]]}},{"type":"Feature","properties":{"jobs":2040,"pop":4251,"pointCount":3,"homeWorkCommuteMedian":3409,"workHomeCommuteMedian":3075},"geometry":{"type":"Polygon","coordinates":[[[4.374390601818619,50.81423088908827],[4.374390601818619,50.82322409272552],[4.383383805455864,50.82322409272552],[4.383383805455864,50.81423088908827],[4.374390601818619,50.81423088908827]]]}},{"type":"Feature","properties":{"jobs":3518,"pop":12530,"pointCount":5,"homeWorkCommuteMedian":3433,"workHomeCommuteMedian":3602},"geometry":{"type":"Polygon","coordinates":[[[4.374390601818619,50.82322409272552],[4.374390601818619,50.832217296362764],[4.383383805455864,50.832217296362764],[4.383383805455864,50.82322409272552],[4.374390601818619,50.82322409272552]]]}},{"type":"Feature","properties":{"jobs":4772,"pop":6158,"pointCount":5,"homeWorkCommuteMedian":2599,"workHomeCommuteMedian":3460},"geometry":{"type":"Polygon","coordinates":[[[4.374390601818619,50.832217296362764],[4.374390601818619,50.84121050000001],[4.383383805455864,50.84121050000001],[4.383383805455864,50.832217296362764],[4.374390601818619,50.832217296362764]]]}},{"type":"Feature","properties":{"jobs":11659,"pop":9057,"pointCount":5,"homeWorkCommuteMedian":2632,"workHomeCommuteMedian":3535},"geometry":{"type":"Polygon","coordinates":[[[4.374390601818619,50.84121050000001],[4.374390601818619,50.850203703637256],[4.383383805455864,50.850203703637256],[4.383383805455864,50.84121050000001],[4.374390601818619,50.84121050000001]]]}},{"type":"Feature","properties":{"jobs":3780,"pop":16776,"pointCount":5,"homeWorkCommuteMedian":2467,"workHomeCommuteMedian":4091},"geometry":{"type":"Polygon","coordinates":[[[4.374390601818619,50.850203703637256],[4.374390601818619,50.8591969072745],[4.383383805455864,50.8591969072745],[4.383383805455864,50.850203703637256],[4.374390601818619,50.850203703637256]]]}},{"type":"Feature","properties":{"jobs":4055,"pop":12858,"pointCount":5,"homeWorkCommuteMedian":3653,"workHomeCommuteMedian":4245},"geometry":{"type":"Polygon","coordinates":[[[4.374390601818619,50.8591969072745],[4.374390601818619,50.86819011091175],[4.383383805455864,50.86819011091175],[4.383383805455864,50.8591969072745],[4.374390601818619,50.8591969072745]]]}},{"type":"Feature","properties":{"jobs":4650,"pop":20744,"pointCount":7,"homeWorkCommuteMedian":3841,"workHomeCommuteMedian":3100},"geometry":{"type":"Polygon","coordinates":[[[4.374390601818619,50.86819011091175],[4.374390601818619,50.877183314548994],[4.383383805455864,50.877183314548994],[4.383383805455864,50.86819011091175],[4.374390601818619,50.86819011091175]]]}},{"type":"Feature","properties":{"jobs":820,"pop":1787,"pointCount":2,"homeWorkCommuteMedian":6006,"workHomeCommuteMedian":4166},"geometry":{"type":"Polygon","coordinates":[[[4.374390601818619,50.877183314548994],[4.374390601818619,50.88617651818624],[4.383383805455864,50.88617651818624],[4.383383805455864,50.877183314548994],[4.374390601818619,50.877183314548994]]]}},{"type":"Feature","properties":{"jobs":931,"pop":3238,"pointCount":1,"homeWorkCommuteMedian":2281,"workHomeCommuteMedian":4787},"geometry":{"type":"Polygon","coordinates":[[[4.374390601818619,50.88617651818624],[4.374390601818619,50.895169721823486],[4.383383805455864,50.895169721823486],[4.383383805455864,50.88617651818624],[4.374390601818619,50.88617651818624]]]}},{"type":"Feature","properties":{"jobs":159,"pop":2628,"pointCount":2,"homeWorkCommuteMedian":3442,"workHomeCommuteMedian":6665},"geometry":{"type":"Polygon","coordinates":[[[4.374390601818619,50.895169721823486],[4.374390601818619,50.90416292546073],[4.383383805455864,50.90416292546073],[4.383383805455864,50.895169721823486],[4.374390601818619,50.895169721823486]]]}},{"type":"Feature","properties":{"jobs":267,"pop":2015,"pointCount":2,"homeWorkCommuteMedian":4118,"workHomeCommuteMedian":3425},"geometry":{"type":"Polygon","coordinates":[[[4.383383805455864,50.79624448181378],[4.383383805455864,50.805237685451026],[4.392377009093109,50.805237685451026],[4.392377009093109,50.79624448181378],[4.383383805455864,50.79624448181378]]]}},{"type":"Feature","properties":{"jobs":711,"pop":5694,"pointCount":4,"homeWorkCommuteMedian":6325,"workHomeCommuteMedian":2183},"geometry":{"type":"Polygon","coordinates":[[[4.383383805455864,50.805237685451026],[4.383383805455864,50.81423088908827],[4.392377009093109,50.81423088908827],[4.392377009093109,50.805237685451026],[4.383383805455864,50.805237685451026]]]}},{"type":"Feature","properties":{"jobs":5673,"pop":12543,"pointCount":5,"homeWorkCommuteMedian":3078,"workHomeCommuteMedian":3193},"geometry":{"type":"Polygon","coordinates":[[[4.383383805455864,50.81423088908827],[4.383383805455864,50.82322409272552],[4.392377009093109,50.82322409272552],[4.392377009093109,50.81423088908827],[4.383383805455864,50.81423088908827]]]}},{"type":"Feature","properties":{"jobs":4109,"pop":12906,"pointCount":4,"homeWorkCommuteMedian":1991,"workHomeCommuteMedian":4528},"geometry":{"type":"Polygon","coordinates":[[[4.383383805455864,50.82322409272552],[4.383383805455864,50.832217296362764],[4.392377009093109,50.832217296362764],[4.392377009093109,50.82322409272552],[4.383383805455864,50.82322409272552]]]}},{"type":"Feature","properties":{"jobs":4427,"pop":10611,"pointCount":4,"homeWorkCommuteMedian":3973,"workHomeCommuteMedian":5002},"geometry":{"type":"Polygon","coordinates":[[[4.383383805455864,50.832217296362764],[4.383383805455864,50.84121050000001],[4.392377009093109,50.84121050000001],[4.392377009093109,50.832217296362764],[4.383383805455864,50.832217296362764]]]}},{"type":"Feature","properties":{"jobs":15736,"pop":10043,"pointCount":3,"homeWorkCommuteMedian":3598,"workHomeCommuteMedian":3462},"geometry":{"type":"Polygon","coordinates":[[[4.383383805455864,50.84121050000001],[4.383383805455864,50.850203703637256],[4.392377009093109,50.850203703637256],[4.392377009093109,50.84121050000001],[4.383383805455864,50.84121050000001]]]}},{"type":"Feature","properties":{"jobs":6692,"pop":11404,"pointCount":4,"homeWorkCommuteMedian":4013,"workHomeCommuteMedian":3941},"geometry":{"type":"Polygon","coordinates":[[[4.383383805455864,50.850203703637256],[4.383383805455864,50.8591969072745],[4.392377009093109,50.8591969072745],[4.392377009093109,50.850203703637256],[4.383383805455864,50.850203703637256]]]}},{"type":"Feature","properties":{"jobs":308,"pop":4356,"pointCount":3,"homeWorkCommuteMedian":4592,"workHomeCommuteMedian":2113},"geometry":{"type":"Polygon","coordinates":[[[4.383383805455864,50.8591969072745],[4.383383805455864,50.86819011091175],[4.392377009093109,50.86819011091175],[4.392377009093109,50.8591969072745],[4.383383805455864,50.8591969072745]]]}},{"type":"Feature","properties":{"jobs":3258,"pop":11489,"pointCount":4,"homeWorkCommuteMedian":3938,"workHomeCommuteMedian":3821},"geometry":{"type":"Polygon","coordinates":[[[4.383383805455864,50.86819011091175],[4.383383805455864,50.877183314548994],[4.392377009093109,50.877183314548994],[4.392377009093109,50.86819011091175],[4.383383805455864,50.86819011091175]]]}},{"type":"Feature","properties":{"jobs":797,"pop":4047,"pointCount":3,"homeWorkCommuteMedian":3296,"workHomeCommuteMedian":2971},"geometry":{"type":"Polygon","coordinates":[[[4.383383805455864,50.877183314548994],[4.383383805455864,50.88617651818624],[4.392377009093109,50.88617651818624],[4.392377009093109,50.877183314548994],[4.383383805455864,50.877183314548994]]]}},{"type":"Feature","properties":{"jobs":10769,"pop":6269,"pointCount":3,"homeWorkCommuteMedian":2033,"workHomeCommuteMedian":4602},"geometry":{"type":"Polygon","coordinates":[[[4.383383805455864,50.88617651818624],[4.383383805455864,50.895169721823486],[4.392377009093109,50.895169721823486],[4.392377009093109,50.88617651818624],[4.383383805455864,50.88617651818624]]]}},{"type":"Feature","properties":{"jobs":1799,"pop":4254,"pointCount":3,"homeWorkCommuteMedian":3962,"workHomeCommuteMedian":4467},"geometry":{"type":"Polygon","coordinates":[[[4.383383805455864,50.895169721823486],[4.383383805455864,50.90416292546073],[4.392377009093109,50.90416292546073],[4.392377009093109,50.895169721823486],[4.383383805455864,50.895169721823486]]]}},{"type":"Feature","properties":{"jobs":0,"pop":9,"pointCount":1,"homeWorkCommuteMedian":6699,"workHomeCommuteMedian":-1},"geometry":{"type":"Polygon","coordinates":[[[4.392377009093109,50.77825807453929],[4.392377009093109,50.787251278176534],[4.401370212730354,50.787251278176534],[4.401370212730354,50.77825807453929],[4.392377009093109,50.77825807453929]]]}},{"type":"Feature","properties":{"jobs":7,"pop":4284,"pointCount":4,"homeWorkCommuteMedian":6979,"workHomeCommuteMedian":10198},"geometry":{"type":"Polygon","coordinates":[[[4.392377009093109,50.79624448181378],[4.392377009093109,50.805237685451026],[4.401370212730354,50.805237685451026],[4.401370212730354,50.79624448181378],[4.392377009093109,50.79624448181378]]]}},{"type":"Feature","properties":{"jobs":347,"pop":3218,"pointCount":5,"homeWorkCommuteMedian":5123,"workHomeCommuteMedian":2575},"geometry":{"type":"Polygon","coordinates":[[[4.392377009093109,50.805237685451026],[4.392377009093109,50.81423088908827],[4.401370212730354,50.81423088908827],[4.401370212730354,50.805237685451026],[4.392377009093109,50.805237685451026]]]}},{"type":"Feature","properties":{"jobs":2778,"pop":2036,"pointCount":3,"homeWorkCommuteMedian":4168,"workHomeCommuteMedian":3122},"geometry":{"type":"Polygon","coordinates":[[[4.392377009093109,50.81423088908827],[4.392377009093109,50.82322409272552],[4.401370212730354,50.82322409272552],[4.401370212730354,50.81423088908827],[4.392377009093109,50.81423088908827]]]}},{"type":"Feature","properties":{"jobs":4403,"pop":8481,"pointCount":3,"homeWorkCommuteMedian":7107,"workHomeCommuteMedian":3054},"geometry":{"type":"Polygon","coordinates":[[[4.392377009093109,50.82322409272552],[4.392377009093109,50.832217296362764],[4.401370212730354,50.832217296362764],[4.401370212730354,50.82322409272552],[4.392377009093109,50.82322409272552]]]}},{"type":"Feature","properties":{"jobs":8172,"pop":7173,"pointCount":4,"homeWorkCommuteMedian":3740,"workHomeCommuteMedian":3642},"geometry":{"type":"Polygon","coordinates":[[[4.392377009093109,50.832217296362764],[4.392377009093109,50.84121050000001],[4.401370212730354,50.84121050000001],[4.401370212730354,50.832217296362764],[4.392377009093109,50.832217296362764]]]}},{"type":"Feature","properties":{"jobs":2503,"pop":11249,"pointCount":4,"homeWorkCommuteMedian":3910,"workHomeCommuteMedian":4319},"geometry":{"type":"Polygon","coordinates":[[[4.392377009093109,50.84121050000001],[4.392377009093109,50.850203703637256],[4.401370212730354,50.850203703637256],[4.401370212730354,50.84121050000001],[4.392377009093109,50.84121050000001]]]}},{"type":"Feature","properties":{"jobs":3064,"pop":8858,"pointCount":3,"homeWorkCommuteMedian":4894,"workHomeCommuteMedian":3120},"geometry":{"type":"Polygon","coordinates":[[[4.392377009093109,50.850203703637256],[4.392377009093109,50.8591969072745],[4.401370212730354,50.8591969072745],[4.401370212730354,50.850203703637256],[4.392377009093109,50.850203703637256]]]}},{"type":"Feature","properties":{"jobs":860,"pop":4594,"pointCount":5,"homeWorkCommuteMedian":4205,"workHomeCommuteMedian":3966},"geometry":{"type":"Polygon","coordinates":[[[4.392377009093109,50.8591969072745],[4.392377009093109,50.86819011091175],[4.401370212730354,50.86819011091175],[4.401370212730354,50.8591969072745],[4.392377009093109,50.8591969072745]]]}},{"type":"Feature","properties":{"jobs":2917,"pop":8587,"pointCount":3,"homeWorkCommuteMedian":2702,"workHomeCommuteMedian":4515},"geometry":{"type":"Polygon","coordinates":[[[4.392377009093109,50.86819011091175],[4.392377009093109,50.877183314548994],[4.401370212730354,50.877183314548994],[4.401370212730354,50.86819011091175],[4.392377009093109,50.86819011091175]]]}},{"type":"Feature","properties":{"jobs":911,"pop":5802,"pointCount":4,"homeWorkCommuteMedian":3085,"workHomeCommuteMedian":7596},"geometry":{"type":"Polygon","coordinates":[[[4.392377009093109,50.877183314548994],[4.392377009093109,50.88617651818624],[4.401370212730354,50.88617651818624],[4.401370212730354,50.877183314548994],[4.392377009093109,50.877183314548994]]]}},{"type":"Feature","properties":{"jobs":769,"pop":514,"pointCount":3,"homeWorkCommuteMedian":6690,"workHomeCommuteMedian":5642},"geometry":{"type":"Polygon","coordinates":[[[4.401370212730354,50.787251278176534],[4.401370212730354,50.79624448181378],[4.410363416367599,50.79624448181378],[4.410363416367599,50.787251278176534],[4.401370212730354,50.787251278176534]]]}},{"type":"Feature","properties":{"jobs":309,"pop":4433,"pointCount":4,"homeWorkCommuteMedian":5993,"workHomeCommuteMedian":1933},"geometry":{"type":"Polygon","coordinates":[[[4.401370212730354,50.79624448181378],[4.401370212730354,50.805237685451026],[4.410363416367599,50.805237685451026],[4.410363416367599,50.79624448181378],[4.401370212730354,50.79624448181378]]]}},{"type":"Feature","properties":{"jobs":843,"pop":5369,"pointCount":8,"homeWorkCommuteMedian":4446,"workHomeCommuteMedian":3271},"geometry":{"type":"Polygon","coordinates":[[[4.401370212730354,50.805237685451026],[4.401370212730354,50.81423088908827],[4.410363416367599,50.81423088908827],[4.410363416367599,50.805237685451026],[4.401370212730354,50.805237685451026]]]}},{"type":"Feature","properties":{"jobs":1489,"pop":3103,"pointCount":3,"homeWorkCommuteMedian":4944,"workHomeCommuteMedian":2916},"geometry":{"type":"Polygon","coordinates":[[[4.401370212730354,50.81423088908827],[4.401370212730354,50.82322409272552],[4.410363416367599,50.82322409272552],[4.410363416367599,50.81423088908827],[4.401370212730354,50.81423088908827]]]}},{"type":"Feature","properties":{"jobs":2451,"pop":10299,"pointCount":6,"homeWorkCommuteMedian":3532,"workHomeCommuteMedian":2717},"geometry":{"type":"Polygon","coordinates":[[[4.401370212730354,50.82322409272552],[4.401370212730354,50.832217296362764],[4.410363416367599,50.832217296362764],[4.410363416367599,50.82322409272552],[4.401370212730354,50.82322409272552]]]}},{"type":"Feature","properties":{"jobs":3593,"pop":4181,"pointCount":2,"homeWorkCommuteMedian":3726,"workHomeCommuteMedian":5276},"geometry":{"type":"Polygon","coordinates":[[[4.401370212730354,50.832217296362764],[4.401370212730354,50.84121050000001],[4.410363416367599,50.84121050000001],[4.410363416367599,50.832217296362764],[4.401370212730354,50.832217296362764]]]}},{"type":"Feature","properties":{"jobs":698,"pop":6605,"pointCount":3,"homeWorkCommuteMedian":5941,"workHomeCommuteMedian":4538},"geometry":{"type":"Polygon","coordinates":[[[4.401370212730354,50.84121050000001],[4.401370212730354,50.850203703637256],[4.410363416367599,50.850203703637256],[4.410363416367599,50.84121050000001],[4.401370212730354,50.84121050000001]]]}},{"type":"Feature","properties":{"jobs":2331,"pop":4027,"pointCount":3,"homeWorkCommuteMedian":3123,"workHomeCommuteMedian":2779},"geometry":{"type":"Polygon","coordinates":[[[4.401370212730354,50.850203703637256],[4.401370212730354,50.8591969072745],[4.410363416367599,50.8591969072745],[4.410363416367599,50.850203703637256],[4.401370212730354,50.850203703637256]]]}},{"type":"Feature","properties":{"jobs":2187,"pop":8685,"pointCount":5,"homeWorkCommuteMedian":3218,"workHomeCommuteMedian":4217},"geometry":{"type":"Polygon","coordinates":[[[4.401370212730354,50.8591969072745],[4.401370212730354,50.86819011091175],[4.410363416367599,50.86819011091175],[4.410363416367599,50.8591969072745],[4.401370212730354,50.8591969072745]]]}},{"type":"Feature","properties":{"jobs":917,"pop":6006,"pointCount":4,"homeWorkCommuteMedian":3210,"workHomeCommuteMedian":5172},"geometry":{"type":"Polygon","coordinates":[[[4.401370212730354,50.86819011091175],[4.401370212730354,50.877183314548994],[4.410363416367599,50.877183314548994],[4.410363416367599,50.86819011091175],[4.401370212730354,50.86819011091175]]]}},{"type":"Feature","properties":{"jobs":0,"pop":2106,"pointCount":2,"homeWorkCommuteMedian":4751,"workHomeCommuteMedian":-1},"geometry":{"type":"Polygon","coordinates":[[[4.401370212730354,50.877183314548994],[4.401370212730354,50.88617651818624],[4.410363416367599,50.88617651818624],[4.410363416367599,50.877183314548994],[4.401370212730354,50.877183314548994]]]}},{"type":"Feature","properties":{"jobs":14,"pop":1,"pointCount":1,"homeWorkCommuteMedian":1146,"workHomeCommuteMedian":9076},"geometry":{"type":"Polygon","coordinates":[[[4.401370212730354,50.895169721823486],[4.401370212730354,50.90416292546073],[4.410363416367599,50.90416292546073],[4.410363416367599,50.895169721823486],[4.401370212730354,50.895169721823486]]]}},{"type":"Feature","properties":{"jobs":929,"pop":1239,"pointCount":3,"homeWorkCommuteMedian":6298,"workHomeCommuteMedian":6135},"geometry":{"type":"Polygon","coordinates":[[[4.410363416367599,50.787251278176534],[4.410363416367599,50.79624448181378],[4.419356620004844,50.79624448181378],[4.419356620004844,50.787251278176534],[4.410363416367599,50.787251278176534]]]}},{"type":"Feature","properties":{"jobs":272,"pop":2814,"pointCount":3,"homeWorkCommuteMedian":6194,"workHomeCommuteMedian":5684},"geometry":{"type":"Polygon","coordinates":[[[4.410363416367599,50.79624448181378],[4.410363416367599,50.805237685451026],[4.419356620004844,50.805237685451026],[4.419356620004844,50.79624448181378],[4.410363416367599,50.79624448181378]]]}},{"type":"Feature","properties":{"jobs":1792,"pop":5130,"pointCount":5,"homeWorkCommuteMedian":5117,"workHomeCommuteMedian":2748},"geometry":{"type":"Polygon","coordinates":[[[4.410363416367599,50.805237685451026],[4.410363416367599,50.81423088908827],[4.419356620004844,50.81423088908827],[4.419356620004844,50.805237685451026],[4.410363416367599,50.805237685451026]]]}},{"type":"Feature","properties":{"jobs":1140,"pop":6501,"pointCount":4,"homeWorkCommuteMedian":4496,"workHomeCommuteMedian":4632},"geometry":{"type":"Polygon","coordinates":[[[4.410363416367599,50.81423088908827],[4.410363416367599,50.82322409272552],[4.419356620004844,50.82322409272552],[4.419356620004844,50.81423088908827],[4.410363416367599,50.81423088908827]]]}},{"type":"Feature","properties":{"jobs":332,"pop":4856,"pointCount":3,"homeWorkCommuteMedian":3694,"workHomeCommuteMedian":3527},"geometry":{"type":"Polygon","coordinates":[[[4.410363416367599,50.82322409272552],[4.410363416367599,50.832217296362764],[4.419356620004844,50.832217296362764],[4.419356620004844,50.82322409272552],[4.410363416367599,50.82322409272552]]]}},{"type":"Feature","properties":{"jobs":2188,"pop":10990,"pointCount":6,"homeWorkCommuteMedian":3611,"workHomeCommuteMedian":3767},"geometry":{"type":"Polygon","coordinates":[[[4.410363416367599,50.832217296362764],[4.410363416367599,50.84121050000001],[4.419356620004844,50.84121050000001],[4.419356620004844,50.832217296362764],[4.410363416367599,50.832217296362764]]]}},{"type":"Feature","properties":{"jobs":1759,"pop":6867,"pointCount":2,"homeWorkCommuteMedian":2855,"workHomeCommuteMedian":3737},"geometry":{"type":"Polygon","coordinates":[[[4.410363416367599,50.84121050000001],[4.410363416367599,50.850203703637256],[4.419356620004844,50.850203703637256],[4.419356620004844,50.84121050000001],[4.410363416367599,50.84121050000001]]]}},{"type":"Feature","properties":{"jobs":1405,"pop":5168,"pointCount":3,"homeWorkCommuteMedian":5342,"workHomeCommuteMedian":5705},"geometry":{"type":"Polygon","coordinates":[[[4.410363416367599,50.850203703637256],[4.410363416367599,50.8591969072745],[4.419356620004844,50.8591969072745],[4.419356620004844,50.850203703637256],[4.410363416367599,50.850203703637256]]]}},{"type":"Feature","properties":{"jobs":1117,"pop":5037,"pointCount":2,"homeWorkCommuteMedian":4220,"workHomeCommuteMedian":3847},"geometry":{"type":"Polygon","coordinates":[[[4.410363416367599,50.8591969072745],[4.410363416367599,50.86819011091175],[4.419356620004844,50.86819011091175],[4.419356620004844,50.8591969072745],[4.410363416367599,50.8591969072745]]]}},{"type":"Feature","properties":{"jobs":2164,"pop":1927,"pointCount":4,"homeWorkCommuteMedian":3625,"workHomeCommuteMedian":4516},"geometry":{"type":"Polygon","coordinates":[[[4.410363416367599,50.86819011091175],[4.410363416367599,50.877183314548994],[4.419356620004844,50.877183314548994],[4.419356620004844,50.86819011091175],[4.410363416367599,50.86819011091175]]]}},{"type":"Feature","properties":{"jobs":1275,"pop":4953,"pointCount":2,"homeWorkCommuteMedian":771,"workHomeCommuteMedian":7167},"geometry":{"type":"Polygon","coordinates":[[[4.410363416367599,50.88617651818624],[4.410363416367599,50.895169721823486],[4.419356620004844,50.895169721823486],[4.419356620004844,50.88617651818624],[4.410363416367599,50.88617651818624]]]}},{"type":"Feature","properties":{"jobs":294,"pop":1926,"pointCount":1,"homeWorkCommuteMedian":7239,"workHomeCommuteMedian":4576},"geometry":{"type":"Polygon","coordinates":[[[4.419356620004844,50.77825807453929],[4.419356620004844,50.787251278176534],[4.4283498236420895,50.787251278176534],[4.4283498236420895,50.77825807453929],[4.419356620004844,50.77825807453929]]]}},{"type":"Feature","properties":{"jobs":106,"pop":1644,"pointCount":2,"homeWorkCommuteMedian":6223,"workHomeCommuteMedian":10431},"geometry":{"type":"Polygon","coordinates":[[[4.419356620004844,50.787251278176534],[4.419356620004844,50.79624448181378],[4.4283498236420895,50.79624448181378],[4.4283498236420895,50.787251278176534],[4.419356620004844,50.787251278176534]]]}},{"type":"Feature","properties":{"jobs":207,"pop":1030,"pointCount":2,"homeWorkCommuteMedian":4546,"workHomeCommuteMedian":3556},"geometry":{"type":"Polygon","coordinates":[[[4.419356620004844,50.79624448181378],[4.419356620004844,50.805237685451026],[4.4283498236420895,50.805237685451026],[4.4283498236420895,50.79624448181378],[4.419356620004844,50.79624448181378]]]}},{"type":"Feature","properties":{"jobs":1241,"pop":3962,"pointCount":3,"homeWorkCommuteMedian":4633,"workHomeCommuteMedian":2517},"geometry":{"type":"Polygon","coordinates":[[[4.419356620004844,50.805237685451026],[4.419356620004844,50.81423088908827],[4.4283498236420895,50.81423088908827],[4.4283498236420895,50.805237685451026],[4.419356620004844,50.805237685451026]]]}},{"type":"Feature","properties":{"jobs":773,"pop":4016,"pointCount":4,"homeWorkCommuteMedian":4776,"workHomeCommuteMedian":3087},"geometry":{"type":"Polygon","coordinates":[[[4.419356620004844,50.81423088908827],[4.419356620004844,50.82322409272552],[4.4283498236420895,50.82322409272552],[4.4283498236420895,50.81423088908827],[4.419356620004844,50.81423088908827]]]}},{"type":"Feature","properties":{"jobs":375,"pop":1391,"pointCount":3,"homeWorkCommuteMedian":6197,"workHomeCommuteMedian":2271},"geometry":{"type":"Polygon","coordinates":[[[4.419356620004844,50.82322409272552],[4.419356620004844,50.832217296362764],[4.4283498236420895,50.832217296362764],[4.4283498236420895,50.82322409272552],[4.419356620004844,50.82322409272552]]]}},{"type":"Feature","properties":{"jobs":623,"pop":5462,"pointCount":5,"homeWorkCommuteMedian":3089,"workHomeCommuteMedian":3036},"geometry":{"type":"Polygon","coordinates":[[[4.419356620004844,50.832217296362764],[4.419356620004844,50.84121050000001],[4.4283498236420895,50.84121050000001],[4.4283498236420895,50.832217296362764],[4.419356620004844,50.832217296362764]]]}},{"type":"Feature","properties":{"jobs":1472,"pop":7349,"pointCount":5,"homeWorkCommuteMedian":3944,"workHomeCommuteMedian":3605},"geometry":{"type":"Polygon","coordinates":[[[4.419356620004844,50.84121050000001],[4.419356620004844,50.850203703637256],[4.4283498236420895,50.850203703637256],[4.4283498236420895,50.84121050000001],[4.419356620004844,50.84121050000001]]]}},{"type":"Feature","properties":{"jobs":6013,"pop":2445,"pointCount":2,"homeWorkCommuteMedian":3146,"workHomeCommuteMedian":3841},"geometry":{"type":"Polygon","coordinates":[[[4.419356620004844,50.850203703637256],[4.419356620004844,50.8591969072745],[4.4283498236420895,50.8591969072745],[4.4283498236420895,50.850203703637256],[4.419356620004844,50.850203703637256]]]}},{"type":"Feature","properties":{"jobs":746,"pop":2978,"pointCount":3,"homeWorkCommuteMedian":3299,"workHomeCommuteMedian":5796},"geometry":{"type":"Polygon","coordinates":[[[4.419356620004844,50.8591969072745],[4.419356620004844,50.86819011091175],[4.4283498236420895,50.86819011091175],[4.4283498236420895,50.8591969072745],[4.419356620004844,50.8591969072745]]]}},{"type":"Feature","properties":{"jobs":13766,"pop":580,"pointCount":1,"homeWorkCommuteMedian":4958,"workHomeCommuteMedian":4275},"geometry":{"type":"Polygon","coordinates":[[[4.419356620004844,50.877183314548994],[4.419356620004844,50.88617651818624],[4.4283498236420895,50.88617651818624],[4.4283498236420895,50.877183314548994],[4.419356620004844,50.877183314548994]]]}},{"type":"Feature","properties":{"jobs":34412,"pop":1167,"pointCount":1,"homeWorkCommuteMedian":5438,"workHomeCommuteMedian":6517},"geometry":{"type":"Polygon","coordinates":[[[4.419356620004844,50.88617651818624],[4.419356620004844,50.895169721823486],[4.4283498236420895,50.895169721823486],[4.4283498236420895,50.88617651818624],[4.419356620004844,50.88617651818624]]]}},{"type":"Feature","properties":{"jobs":66410,"pop":530,"pointCount":1,"homeWorkCommuteMedian":4764,"workHomeCommuteMedian":6989},"geometry":{"type":"Polygon","coordinates":[[[4.419356620004844,50.895169721823486],[4.419356620004844,50.90416292546073],[4.4283498236420895,50.90416292546073],[4.4283498236420895,50.895169721823486],[4.419356620004844,50.895169721823486]]]}},{"type":"Feature","properties":{"jobs":42,"pop":9,"pointCount":1,"homeWorkCommuteMedian":6889,"workHomeCommuteMedian":8308},"geometry":{"type":"Polygon","coordinates":[[[4.4283498236420895,50.77825807453929],[4.4283498236420895,50.787251278176534],[4.437343027279335,50.787251278176534],[4.437343027279335,50.77825807453929],[4.4283498236420895,50.77825807453929]]]}},{"type":"Feature","properties":{"jobs":115,"pop":1717,"pointCount":2,"homeWorkCommuteMedian":4742,"workHomeCommuteMedian":6319},"geometry":{"type":"Polygon","coordinates":[[[4.4283498236420895,50.79624448181378],[4.4283498236420895,50.805237685451026],[4.437343027279335,50.805237685451026],[4.437343027279335,50.79624448181378],[4.4283498236420895,50.79624448181378]]]}},{"type":"Feature","properties":{"jobs":197,"pop":3822,"pointCount":3,"homeWorkCommuteMedian":6528,"workHomeCommuteMedian":5233},"geometry":{"type":"Polygon","coordinates":[[[4.4283498236420895,50.805237685451026],[4.4283498236420895,50.81423088908827],[4.437343027279335,50.81423088908827],[4.437343027279335,50.805237685451026],[4.4283498236420895,50.805237685451026]]]}},{"type":"Feature","properties":{"jobs":2970,"pop":5131,"pointCount":5,"homeWorkCommuteMedian":4712,"workHomeCommuteMedian":3030},"geometry":{"type":"Polygon","coordinates":[[[4.4283498236420895,50.81423088908827],[4.4283498236420895,50.82322409272552],[4.437343027279335,50.82322409272552],[4.437343027279335,50.81423088908827],[4.4283498236420895,50.81423088908827]]]}},{"type":"Feature","properties":{"jobs":0,"pop":104,"pointCount":1,"homeWorkCommuteMedian":5546,"workHomeCommuteMedian":-1},"geometry":{"type":"Polygon","coordinates":[[[4.4283498236420895,50.82322409272552],[4.4283498236420895,50.832217296362764],[4.437343027279335,50.832217296362764],[4.437343027279335,50.82322409272552],[4.4283498236420895,50.82322409272552]]]}},{"type":"Feature","properties":{"jobs":1338,"pop":3019,"pointCount":4,"homeWorkCommuteMedian":4382,"workHomeCommuteMedian":3084},"geometry":{"type":"Polygon","coordinates":[[[4.4283498236420895,50.832217296362764],[4.4283498236420895,50.84121050000001],[4.437343027279335,50.84121050000001],[4.437343027279335,50.832217296362764],[4.4283498236420895,50.832217296362764]]]}},{"type":"Feature","properties":{"jobs":2414,"pop":8075,"pointCount":6,"homeWorkCommuteMedian":3992,"workHomeCommuteMedian":4440},"geometry":{"type":"Polygon","coordinates":[[[4.4283498236420895,50.84121050000001],[4.4283498236420895,50.850203703637256],[4.437343027279335,50.850203703637256],[4.437343027279335,50.84121050000001],[4.4283498236420895,50.84121050000001]]]}},{"type":"Feature","properties":{"jobs":521,"pop":7045,"pointCount":3,"homeWorkCommuteMedian":5612,"workHomeCommuteMedian":4204},"geometry":{"type":"Polygon","coordinates":[[[4.4283498236420895,50.850203703637256],[4.4283498236420895,50.8591969072745],[4.437343027279335,50.8591969072745],[4.437343027279335,50.850203703637256],[4.4283498236420895,50.850203703637256]]]}},{"type":"Feature","properties":{"jobs":216,"pop":1528,"pointCount":1,"homeWorkCommuteMedian":6261,"workHomeCommuteMedian":8556},"geometry":{"type":"Polygon","coordinates":[[[4.437343027279335,50.805237685451026],[4.437343027279335,50.81423088908827],[4.44633623091658,50.81423088908827],[4.44633623091658,50.805237685451026],[4.437343027279335,50.805237685451026]]]}},{"type":"Feature","properties":{"jobs":96,"pop":800,"pointCount":2,"homeWorkCommuteMedian":3776,"workHomeCommuteMedian":5900},"geometry":{"type":"Polygon","coordinates":[[[4.437343027279335,50.81423088908827],[4.437343027279335,50.82322409272552],[4.44633623091658,50.82322409272552],[4.44633623091658,50.81423088908827],[4.437343027279335,50.81423088908827]]]}},{"type":"Feature","properties":{"jobs":232,"pop":1914,"pointCount":2,"homeWorkCommuteMedian":3074,"workHomeCommuteMedian":6130},"geometry":{"type":"Polygon","coordinates":[[[4.437343027279335,50.82322409272552],[4.437343027279335,50.832217296362764],[4.44633623091658,50.832217296362764],[4.44633623091658,50.82322409272552],[4.437343027279335,50.82322409272552]]]}},{"type":"Feature","properties":{"jobs":214,"pop":5271,"pointCount":5,"homeWorkCommuteMedian":5716,"workHomeCommuteMedian":6736},"geometry":{"type":"Polygon","coordinates":[[[4.437343027279335,50.832217296362764],[4.437343027279335,50.84121050000001],[4.44633623091658,50.84121050000001],[4.44633623091658,50.832217296362764],[4.437343027279335,50.832217296362764]]]}},{"type":"Feature","properties":{"jobs":805,"pop":1642,"pointCount":3,"homeWorkCommuteMedian":4706,"workHomeCommuteMedian":3532},"geometry":{"type":"Polygon","coordinates":[[[4.437343027279335,50.84121050000001],[4.437343027279335,50.850203703637256],[4.44633623091658,50.850203703637256],[4.44633623091658,50.84121050000001],[4.437343027279335,50.84121050000001]]]}},{"type":"Feature","properties":{"jobs":26726,"pop":4492,"pointCount":3,"homeWorkCommuteMedian":2607,"workHomeCommuteMedian":4057},"geometry":{"type":"Polygon","coordinates":[[[4.437343027279335,50.850203703637256],[4.437343027279335,50.8591969072745],[4.44633623091658,50.8591969072745],[4.44633623091658,50.850203703637256],[4.437343027279335,50.850203703637256]]]}},{"type":"Feature","properties":{"jobs":0,"pop":7,"pointCount":1,"homeWorkCommuteMedian":4408,"workHomeCommuteMedian":-1},"geometry":{"type":"Polygon","coordinates":[[[4.44633623091658,50.805237685451026],[4.44633623091658,50.81423088908827],[4.455329434553825,50.81423088908827],[4.455329434553825,50.805237685451026],[4.44633623091658,50.805237685451026]]]}},{"type":"Feature","properties":{"jobs":139,"pop":2213,"pointCount":2,"homeWorkCommuteMedian":7544,"workHomeCommuteMedian":1382},"geometry":{"type":"Polygon","coordinates":[[[4.44633623091658,50.81423088908827],[4.44633623091658,50.82322409272552],[4.455329434553825,50.82322409272552],[4.455329434553825,50.81423088908827],[4.44633623091658,50.81423088908827]]]}},{"type":"Feature","properties":{"jobs":479,"pop":1619,"pointCount":1,"homeWorkCommuteMedian":3611,"workHomeCommuteMedian":7763},"geometry":{"type":"Polygon","coordinates":[[[4.44633623091658,50.82322409272552],[4.44633623091658,50.832217296362764],[4.455329434553825,50.832217296362764],[4.455329434553825,50.82322409272552],[4.44633623091658,50.82322409272552]]]}},{"type":"Feature","properties":{"jobs":663,"pop":4399,"pointCount":3,"homeWorkCommuteMedian":5633,"workHomeCommuteMedian":2759},"geometry":{"type":"Polygon","coordinates":[[[4.44633623091658,50.832217296362764],[4.44633623091658,50.84121050000001],[4.455329434553825,50.84121050000001],[4.455329434553825,50.832217296362764],[4.44633623091658,50.832217296362764]]]}},{"type":"Feature","properties":{"jobs":607,"pop":3202,"pointCount":3,"homeWorkCommuteMedian":4894,"workHomeCommuteMedian":2577},"geometry":{"type":"Polygon","coordinates":[[[4.44633623091658,50.84121050000001],[4.44633623091658,50.850203703637256],[4.455329434553825,50.850203703637256],[4.455329434553825,50.84121050000001],[4.44633623091658,50.84121050000001]]]}},{"type":"Feature","properties":{"jobs":55163,"pop":1206,"pointCount":1,"homeWorkCommuteMedian":5079,"workHomeCommuteMedian":4567},"geometry":{"type":"Polygon","coordinates":[[[4.44633623091658,50.850203703637256],[4.44633623091658,50.8591969072745],[4.455329434553825,50.8591969072745],[4.455329434553825,50.850203703637256],[4.44633623091658,50.850203703637256]]]}},{"type":"Feature","properties":{"jobs":2705,"pop":46,"pointCount":1,"homeWorkCommuteMedian":7758,"workHomeCommuteMedian":3021},"geometry":{"type":"Polygon","coordinates":[[[4.455329434553825,50.79624448181378],[4.455329434553825,50.805237685451026],[4.46432263819107,50.805237685451026],[4.46432263819107,50.79624448181378],[4.455329434553825,50.79624448181378]]]}},{"type":"Feature","properties":{"jobs":0,"pop":2,"pointCount":1,"homeWorkCommuteMedian":2213,"workHomeCommuteMedian":-1},"geometry":{"type":"Polygon","coordinates":[[[4.455329434553825,50.81423088908827],[4.455329434553825,50.82322409272552],[4.46432263819107,50.82322409272552],[4.46432263819107,50.81423088908827],[4.455329434553825,50.81423088908827]]]}},{"type":"Feature","properties":{"jobs":1628,"pop":5292,"pointCount":3,"homeWorkCommuteMedian":4926,"workHomeCommuteMedian":3363},"geometry":{"type":"Polygon","coordinates":[[[4.455329434553825,50.82322409272552],[4.455329434553825,50.832217296362764],[4.46432263819107,50.832217296362764],[4.46432263819107,50.82322409272552],[4.455329434553825,50.82322409272552]]]}},{"type":"Feature","properties":{"jobs":10893,"pop":4229,"pointCount":3,"homeWorkCommuteMedian":6590,"workHomeCommuteMedian":3694},"geometry":{"type":"Polygon","coordinates":[[[4.455329434553825,50.832217296362764],[4.455329434553825,50.84121050000001],[4.46432263819107,50.84121050000001],[4.46432263819107,50.832217296362764],[4.455329434553825,50.832217296362764]]]}},{"type":"Feature","properties":{"jobs":34568,"pop":1654,"pointCount":1,"homeWorkCommuteMedian":923,"workHomeCommuteMedian":6298},"geometry":{"type":"Polygon","coordinates":[[[4.455329434553825,50.84121050000001],[4.455329434553825,50.850203703637256],[4.46432263819107,50.850203703637256],[4.46432263819107,50.84121050000001],[4.455329434553825,50.84121050000001]]]}},{"type":"Feature","properties":{"jobs":3,"pop":559,"pointCount":1,"homeWorkCommuteMedian":5917,"workHomeCommuteMedian":10064},"geometry":{"type":"Polygon","coordinates":[[[4.46432263819107,50.82322409272552],[4.46432263819107,50.832217296362764],[4.473315841828315,50.832217296362764],[4.473315841828315,50.82322409272552],[4.46432263819107,50.82322409272552]]]}}],"properties":{"residentWeightedNearestNeighborKm":{"p10":0.20521754637742146,"p25":0.239204631097217,"p50":0.301654917038444,"p75":0.363162930324257,"p90":0.43874337496822924,"mean":0.31357662265935626},"workerWeightedNearestNeighborKm":{"p10":0.21132766018521637,"p25":0.2526939990134723,"p50":0.33994632257367824,"p75":0.5181600804969366,"p90":0.6626524395498858,"mean":0.475887050079566},"commuteDistanceKm":{"p10":1435,"p25":2418,"p50":3962,"p75":6001,"p90":8203,"mean":4441.449756979767},"residentCellDensity":{"p10":451,"p25":1926,"p50":4492,"p75":8530,"p90":12390,"mean":5570.699115044248},"workerCellDensity":{"p10":216,"p25":716,"p50":1799,"p75":4772,"p90":11441,"mean":5028.277777777777},"detail":{"radiusKm":0.3202287927927266,"expectedPointSpacingKm":0.5583226109795613,"normalizedRadius":0.5735551211707048,"activityPerPoint":1745.5337931034483,"playableAreaKm2":196,"playableAreaPerPointKm2":0.27034482758620687,"playableCatchmentRadiusKm":0.29334865143603783,"localityScore":0.4770344432418579,"deaggregationScore":1,"score":0.6906768008568537},"polycentrism":{"activity":{"score":0.6663396545661509,"continuousScore":0.24959402733192718,"detectedCenterCount":2,"effectiveCenterCount":1.499632201592817,"largestCenterShare":0.7888167002762518,"bandwidthKm":1.3,"reliabilityScore":1,"supportLevel":"high","usedFallback":false,"topCenters":[{"longitude":4.354019986351706,"latitude":50.84115284591489,"massShare":0.7888167002762518,"assignedMass":1996514,"assignedPointCount":662,"prominenceRatio":1},{"longitude":4.41655457310621,"latitude":50.88509399362405,"massShare":0.21118329972374816,"assignedMass":534510,"assignedPointCount":63,"prominenceRatio":0.99998727358845}],"debug":{"rawPeakCount":5,"mergedPeakCount":4,"filteredPeakCount":2,"prominenceThreshold":0.22,"minPointsPerCenter":10,"rejectedCenters":[{"longitude":4.438129710509472,"latitude":50.8408643875138,"massShare":0.1277795074246629,"assignedMass":323413,"assignedPointCount":127,"prominenceRatio":0.999917893953001,"strongestCompetitorDistanceKm":5.820941924554029,"strongestCompetitorPotential":425826.61978945456,"localConsolidatedShare":0.1277795074246629,"localConsolidatedMass":323413,"localContributorCount":1,"localContributorDistancesKm":[],"rejectionReasons":["not_dominant_local_peak","too_close_for_low_share_center"]},{"longitude":4.4844,"latitude":50.9014,"massShare":0.009482328101195406,"assignedMass":24000,"assignedPointCount":1,"prominenceRatio":0.9987185858523329,"strongestCompetitorDistanceKm":5.417894934689225,"strongestCompetitorPotential":181772.4410191265,"localConsolidatedShare":0.009482328101195406,"localConsolidatedMass":24000,"localContributorCount":1,"localContributorDistancesKm":[],"rejectionReasons":["below_min_points_per_center"]}]}}}}}
